name,type,latitude,longitude,address,businessStatus,estbDate,facilityId,welfacilityId
한마음요양병원,1 - 격리병원,36.20270105,127.0811422,충청남도 논산시 해월로 123,영업,20130509,20155759741,4423010200-1-01840025
아산병원,1 - 격리병원,0,0,충청남도 아산시 배방읍 휴대세교길 101,영업,20210412,20155758386,4420025329-1-03480016
격리병원,1 - 격리병원,34.91300278,127.3239169,전라남도 순천시 낙안면 읍성로 302,영업,20201229,20155764517,4615038026-1-01390010
동신타워,1 - 격리병원,37.44238486,127.1276348,경기도 성남시 수정구 성남대로 1262,영업,20040503,20155892298,4113110200-1-61360000
판교노인종합복지관,2 - 경로당,37.39022562,127.1086124,경기도 성남시 분당구 판교역로 99,영업,20100730,20155894815,4113511000-1-05280000
하얀마을복지회관,2 - 경로당,0,0,경기도 성남시 분당구 금곡로25번길 10,영업,20131015,20155894846,4113511400-1-01190000
보바스기념병원,2 - 경로당,37.35610795,127.0980919,경기도 성남시 분당구 대왕판교로 155-7,영업,20050207,20155895092,4113511100-1-03100008
혜성빌딩,2 - 경로당,37.44560248,127.1347744,경기도 성남시 수정구 탄리로 108-1,영업,20030630,20155894944,4113110200-1-31880000
까치울경로당,2 - 경로당,37.5110836,126.8135658,경기도 부천시 작동로 54,영업,20030626,20155895241,4119011900-1-03600017
시온의 집,2 - 경로당,37.4353606,127.1607579,경기도 성남시 중원구 둔촌대로389번길 22,영업,20140212,20155895303,4113310500-1-19150001
경로당,2 - 경로당,37.44220736,127.1327147,경기도 성남시 수정구 수정북로 27-1,영업,20050718,20155895360,4113110200-1-36930026
귀인3차,2 - 경로당,0,0,전라남도 여수시 미평1길 29,영업,19980411,20155751575,4613012200-3-04880000
노유자시설(우동마을회),2 - 경로당,36.17647624,127.3410851,충청남도 금산군 진산면 웡골길 61,영업,20101111,20155751671,4471037031-1-01620002
노유자시설(진산면묵산리을음실새마을회),2 - 경로당,36.15037947,127.3553304,충청남도 금산군 진산면 을음실길 22,영업,20100525,20155751672,4471037029-1-02510000
경로당,2 - 경로당,35.84726921,127.2018401,전북특별자치도 전주시 덕진구 삼천공덕길 86,영업,20000525,20155751695,4511311200-1-00380004
신송경로당,2 - 경로당,35.65586214,126.8138849,전북특별자치도 정읍시 이평면 창서원길 59,영업,20060825,20155751712,4518037027-1-08060001
창전마을경로당,2 - 경로당,35.68041786,126.8388994,전북특별자치도 정읍시 이평면 창전1길 24-5,영업,20060721,20155751713,4518037030-1-03730000
신월마을경로회관,2 - 경로당,35.67452416,126.7994964,전북특별자치도 정읍시 이평면 태평길 229-11,영업,20090313,20155751714,4518037022-1-00560014
대죽경로당,2 - 경로당,35.62037912,126.8221873,전북특별자치도 정읍시 덕천면 천곡사지로 132,영업,20170223,20155751717,4518036022-1-00080003
목교경로당,2 - 경로당,35.67003314,126.8444751,전북특별자치도 정읍시 이평면 하송길 65,영업,20081120,20155751718,4518037028-1-05620002
장명동경로당,2 - 경로당,35.56469122,126.8623959,전북특별자치도 정읍시 입석남길 45-26,영업,20070430,20155751720,4518010200-1-01520001
구암마을경로당,2 - 경로당,35.58666787,126.8265414,전북특별자치도 정읍시 동학로 20-3,영업,20130626,20155751723,4518012400-1-00630006
가리대경로당,2 - 경로당,35.50942801,126.8045266,전북특별자치도 정읍시 입암면 가리대1길 56,영업,20061207,20155751724,4518032026-1-03950011
구마석경로당,2 - 경로당,35.53960784,126.8080339,전북특별자치도 정읍시 입암면 구마석길 78,영업,20070713,20155751725,4518032029-1-02890001
송림중고등학교,3 - 고등학교,37.39191272,127.1318098,경기도 성남시 분당구 이매로 100,영업,20010913,20155894726,4113510600-1-03780000
분당경영고등학교6동,3 - 고등학교,0,0,경기도 성남시 분당구 금곡로 289,영업,20110427,20155894845,4113511100-1-01230000
한솔고등학교,3 - 고등학교,0,0,경기도 성남시 분당구 내정로 70,영업,20111222,20155894850,4113510300-1-01150000
화홍고등학교,3 - 고등학교,37.25167302,127.0400604,경기도 수원시 권선구 세권로 331,영업,19980619,20155894995,4111313700-1-13020000
소명여자고등학교,3 - 고등학교,0,0,경기도 부천시 부일로571번길 84,영업,20011113,20155895183,4119010600-1-00020007
중화고등학교,3 - 고등학교,37.60481461,127.0836541,서울특별시 중랑구 봉화산로27길 62,영업,20051227,20155751640,1126010300-1-00210004
배영고등학교,3 - 고등학교,35.60126026,126.8116536,전북특별자치도 정읍시 동학로 243,영업,19980411,20155751936,4518012300-1-05200000
특별교실,3 - 고등학교,36.01375701,127.6630493,전북특별자치도 무주군 무주읍 한수로 32,영업,20110722,20155751980,4573025021-1-04720000
줄포자동차공업고등학교,3 - 고등학교,35.58512329,126.676922,전북특별자치도 부안군 우포로 10,영업,20061108,20155751764,4580041023-1-01380000
기숙사,3 - 고등학교,36.01375701,127.6630493,전북특별자치도 무주군 무주읍 한수로 32,영업,20180205,20155751767,4573032030-1-03930014
본관,3 - 고등학교,36.01375701,127.6630493,전북특별자치도 무주군 무주읍 한수로 32,영업,19980411,20155751768,4573035024-1-03170000
위도중고등학교,3 - 고등학교,0,0,전북특별자치도 부안군 위도로 245,영업,19980411,20155751769,4580042021-1-00390001
충무고등학교,3 - 고등학교,34.77142832,127.7110233,전라남도 여수시 미평7길 16,영업,20060216,20155751796,4613012200-1-02040000
설화고등학교,3 - 고등학교,36.78803293,127.0922409,충청남도 아산시 배방읍 용연로 111,영업,20090219,20155756583,4420025331-1-14410000
대송고등학교,3 - 고등학교,35.50569343,129.4193454,울산광역시 동구 봉수로 210,영업,20021104,20155754313,3117010200-1-02230000
무안고등학교,3 - 고등학교,34.98166211,126.4671483,전라남도 무안군 무안읍 성남1길 61-1,영업,20150227,20155756674,4684025023-1-10000000
고등학교,3 - 고등학교,35.53655854,129.4280974,울산광역시 동구 방어진순환도로 1077,영업,20030130,20155752072,3117010800-1-02900000
충남다사랑학교,3 - 고등학교,36.91669708,127.0665891,충청남도 아산시 둔포면 아산밸리동로 247,영업,20191023,20155754574,4420036035-1-02900004
남목고등학교,3 - 고등학교,35.53801042,129.4187517,울산광역시 동구 방어진순환도로 1200,영업,20080224,20155752298,3117010800-1-07280000
식생활관,3 - 고등학교,35.86431179,127.6186346,전북특별자치도 무주군 안성면 진성로 2312-9,영업,20190909,20155754684,4573032023-1-10740000
진산 공공도서관,4 - 공공도서관,36.1440335,127.3695774,충청남도 금산군 진산면 읍내로 63,영업,20130228,20155751891,4471037028-1-05530001
중랑숲 어린이 도서관,4 - 공공도서관,37.60266819,127.1039284,서울특별시 중랑구 망우로73길 46-1,영업,20101007,20155756570,1126010500-1-05830001
목포시청각 영어도서관,4 - 공공도서관,34.81453381,126.4259326,전라남도 목포시 옥암로186번길 30-11,영업,20141121,20155756682,4611016000-1-11750010
책향기작은도서관,4 - 공공도서관,35.57175612,126.8659881,전북특별자치도 정읍시 말고개길 69-3,영업,20161107,20155752171,4518012200-1-06500006
여수시가족+센터,4 - 공공도서관,34.75962357,127.6753193,전라남도 여수시 새터로 33,영업,20191223,20155754702,4613013300-1-00930003
추부도서관,4 - 공공도서관,36.19099364,127.4699583,충청남도 금산군 추부면 하마전로 31,영업,20131220,20155753237,4471039023-1-04200008
명봉도서관,4 - 공공도서관,0,0,전북특별자치도 정읍시 태인면 태인로 33-9,영업,19980411,20155756873,4518039024-1-02200002
부안군립도서관,4 - 공공도서관,35.71925828,126.7324469,전북특별자치도 부안군 부안읍 매창로 125,영업,19981120,20155759617,4580025024-1-06430003
공공도서관,4 - 공공도서관,34.80694315,126.3764189,전라남도 목포시 원산주택로3번길 4,영업,19980411,20155758031,4611010200-1-17610004
흰구름 작은도서관,4 - 공공도서관,35.69060578,127.3984848,전북특별자치도 진안군 백운면 임진로 1326-31,영업,20081128,20155758441,4572035027-1-05390009
남목도서관,4 - 공공도서관,35.54522935,129.4267717,울산광역시 동구 남목12길 10,영업,20211101,20155758585,3117010700-1-03650000
충청남도보령교육지원청웅천도서관,4 - 공공도서관,36.2322653,126.6058086,충청남도 보령시 웅천읍 방축길 90-39,영업,19980411,20155761309,4418025021-1-01820005
공공도서관,4 - 공공도서관,35.8373055,127.3603807,전북특별자치도 진안군 부귀면 부귀로 305-7,영업,20200512,20155758666,4572038021-1-07870001
고흥군립북부도서관,4 - 공공도서관,0,0,전라남도 고흥군 동강면 동강중촌길 35,영업,20061016,20155761444,4677040021-1-05900005
부안교육문화회관,4 - 공공도서관,35.7307298,126.7349503,전북특별자치도 부안군 부안읍 남문안길 10,영업,20090709,20155759168,4580025021-1-02100001
포두작은도서관,4 - 공공도서관,0,0,전라남도 고흥군 포두면 후동2길 4-1,영업,20200724,20155764806,4677035025-1-13000000
작은도서관(아름인),4 - 공공도서관,35.30930393,126.5561337,전라남도 영광군 대마면 영대로5길 3-19,영업,20220407,20155762336,4687031025-1-02730013
광양희망도서관,4 - 공공도서관,0,0,전라남도 광양시 광양읍 인덕로 1022,영업,20161115,20155764127,4623025023-1-04310006
무안군공공도서관,4 - 공공도서관,35.10991847,126.2938139,전라남도 무안군 해제면 현해로 1695-6,영업,19991129,20155766978,4684036026-1-00240000
광양공공도서관,4 - 공공도서관,34.94776704,127.6909806,전라남도 광양시 중마로 262 (중동),영업,20150114,20155772874,4623010600-1-14170005
성음아트센터,5 - 공연장,37.38503586,127.1109981,경기도 성남시 분당구 판교역로14번길 15,영업,20090820,20155894820,4113511000-3-05770000
진산면 의용소방대,5 - 공연장,36.14352571,127.3685714,충청남도 금산군 진산면 읍내로 49-1,영업,19980411,20155751676,4471037028-1-05560004
연지아트홀,5 - 공연장,35.57040011,126.8489017,전북특별자치도 정읍시 중앙로 73,영업,20151201,20155754414,4518010500-1-00390006
동화빌딩,5 - 공연장,37.59341034,127.0805089,서울특별시 중랑구 동일로 706,영업,20090807,20155752087,1126010200-1-01200008
롯데시네마,5 - 공연장,37.61514995,127.0760571,서울특별시 중랑구 동일로 951,영업,20170901,20155752320,1126010400-1-02340001
아산코미디홀,5 - 공연장,0,0,충청남도 아산시 도고면 아산만로 171,영업,20120322,20155752555,4420040021-1-00940005
양지촌,5 - 공연장,37.5928595,127.0732695,서울특별시 중랑구 망우로 184,영업,20070420,20155755235,1126010200-1-01360010
예울마루,5 - 공연장,34.75061691,127.6654089,전라남도 여수시 예울마루로 100,영업,20161214,20155753137,4613013200-1-10020000
공연장,5 - 공연장,0,0,인천광역시 중구 공항서로 133-1,영업,20140731,20155753156,2811015100-1-00020000
로마네시티 현대썬앤빌전주,5 - 공연장,35.8730827,127.1245696,전북특별자치도 전주시 덕진구 세병2길 10,영업,20180626,20155753260,4511312200-3-13290001
연산문화창고,5 - 공연장,36.21323918,127.2014335,충청남도 논산시 연산면 선비로231번길 28,영업,20201203,20155755707,4423036026-1-01270027
한국소리문화의 전당,5 - 공연장,35.85483027,127.1392383,전북특별자치도 전주시 덕진구 소리로 31,영업,19980411,20155755716,4511310500-1-00880004
천재의공간 영화산책 및 청소년문화의집,5 - 공연장,35.3740963,127.1450235,전북특별자치도 순창군 순창읍 남계로 83,영업,20141006,20155756467,4577025022-1-04710000
고추장 상설 문화마당,5 - 공연장,35.36782675,127.1110966,전북특별자치도 순창군 순창읍 장류로 55,영업,20200630,20155756694,4577025025-1-05740000
논산문화원,5 - 공연장,36.19774264,127.1073399,충청남도 논산시 관촉로 113-16,영업,20150410,20155756831,4423011100-1-03140000
중구문화회관,5 - 공연장,37.44017538,126.629407,인천광역시 중구 축항대로296번길 81,영업,20100316,20155759650,2811012800-1-00690020
공연장,5 - 공연장,37.59510584,127.07559,서울특별시 중랑구 중랑역로3길 16,영업,20101015,20155759712,1126010300-1-03200073
묵동제일교회,5 - 공연장,37.61505215,127.0749905,서울특별시 중랑구 중랑역로47길 6,영업,20020513,20155759720,1126010400-1-02330021
공연장,5 - 공연장,37.60688514,127.1011754,서울특별시 중랑구 용마산로 628,영업,20020515,20155757254,1126010600-1-04180012
김홍신문학관,5 - 공연장,36.1826818,127.1071292,충청남도 논산시 중앙로 146-23,영업,20180517,20155757503,4423010900-1-12140000
판교 제2테크노밸리 경기 기업성장센터,6 - 공장,37.41212924,127.0950401,경기도 성남시 수정구 창업로 42,영업,20161226,20155894704,4113111500-3-02930000
판교제2테크노밸리기업성장센터,6 - 공장,37.41156738,127.0937798,경기도 성남시 수정구 창업로 54,영업,20160705,20155894705,4113111500-3-02940002
아톰,6 - 공장,37.52297425,126.7701764,경기도 부천시 석천로398번길 36,영업,20070403,20155894908,4119012300-1-02240010
(주)대흥정밀산업,6 - 공장,37.24424935,126.9862808,경기도 수원시 권선구 산업로 195-22,영업,20130220,20155894918,4111312800-1-10420000
주)동아엘텍 수원공장,6 - 공장,37.24332111,126.9864466,경기도 수원시 권선구 산업로 195-8,영업,20130520,20155894919,4111312800-1-10410000
수원델타원,6 - 공장,37.24237311,126.9863345,경기도 수원시 권선구 산업로 198,영업,20200422,20155894920,4111312800-3-10980002
공장,6 - 공장,37.24485225,126.9829475,경기도 수원시 권선구 산업로155번길 100,영업,20130507,20155894925,4111312800-1-10190000
공장,6 - 공장,37.24582724,126.9833395,경기도 수원시 권선구 산업로155번길 111,영업,20131011,20155894926,4111312800-1-10060000
반도 IVY VALLEY,6 - 공장,37.42727533,127.0939366,경기도 성남시 수정구 청계산로 686,영업,20180604,20155894932,4113111200-3-06030000
(주)동인광학,6 - 공장,37.52088478,126.7680289,경기도 부천시 석천로380번길 1,영업,20160407,20155894672,4119012300-1-02640004
경일산업(주),6 - 공장,37.24429772,126.9821119,경기도 수원시 권선구 산업로 173-41,영업,20130531,20155894685,4111312800-1-10140000
범진아이엔디(주),6 - 공장,37.24199203,126.9833005,경기도 수원시 권선구 산업로 174-14,영업,20131312,20155894689,4111312800-1-10850000
공장,6 - 공장,37.24360767,126.985208,경기도 수원시 권선구 산업로 185,영업,20121227,20155894691,4111312800-1-10350000
서광테크노타운,6 - 공장,37.4358961,126.794794,경기도 시흥시 은행로 42,영업,20020716,20155895028,4139010600-3-02470001
(주)파리크라상,6 - 공장,37.43582741,127.1687157,경기도 성남시 중원구 사기막골로31번길 18,영업,20200526,20155895064,4113310500-1-01490003
공장,6 - 공장,37.43671823,127.1698552,경기도 성남시 중원구 사기막골로45번길 14,영업,20090320,20155895065,4113310500-3-01460008
우림라이온스밸리3,6 - 공장,37.43103419,127.1592278,경기도 성남시 중원구 둔촌대로388번길 24,영업,20091006,20155895069,4113310500-3-54450000
상대원동 149-5 공장 (권인태),6 - 공장,37.43604087,127.1697123,경기도 성남시 중원구 사기막골로45번길 7,영업,20201102,20155895070,4113310500-1-01490005
지식산업센타,6 - 공장,37.43521446,127.1751465,경기도 성남시 중원구 사기막골로62번길 33,영업,20111111,20155895071,4113310500-3-02230027
대일제약빌딩,6 - 공장,37.43459611,127.1773748,경기도 성남시 중원구 사기막골로62번길 51,영업,20210401,20155895072,4113310500-1-03610005
근린공원6호 관리동,7 - 공중화장실,37.29076524,127.0640032,경기도 수원시 영통구 광교중앙로 216,영업,20111118,20155894527,4111710400-1-10120000
양지마을,7 - 공중화장실,0,0,경기도 성남시 분당구 내정로 151,영업,19980411,20155894847,4113510200-1-00270000
상동시장 공영주차장 화장실,7 - 공중화장실,0,0,경기도 부천시 석천로38번길 51,영업,20191211,20155894906,4119010900-1-02440005
고라개어린이공원 화장실,7 - 공중화장실,37.52719834,126.7718122,경기도 부천시 석천로442번길 40,영업,20140811,20155894912,4119012300-1-00480227
공중화장실,7 - 공중화장실,0,0,경기도 성남시 분당구 성남대로 94-1,영업,20201111,20155894971,4113510500-1-00940001
공중화장실,7 - 공중화장실,37.4841112,126.7799422,경기도 부천시 자유로 33,영업,20021006,20155895014,4119011100-1-05430000
은빛어린이공원 화장실,7 - 공중화장실,0,0,경기도 부천시 부일로632번길 6,영업,20140325,20155895191,4119010700-1-00220000
어린이2호 공원 공중화장실,7 - 공중화장실,37.39106922,127.0676687,경기도 성남시 분당구 판교원로 2,영업,20090105,20155895286,4113511500-1-09000000
무주읍 읍내리 226-10 제1종근린생활시설 (무주군),7 - 공중화장실,0,0,전북특별자치도 무주군 무주읍 주계로 98,영업,20020309,20155751544,4573032024-1-09040027
멧골공원 공중화장실,7 - 공중화장실,35.58396753,126.8641481,전북특별자치도 정읍시 마곡로 110-11,영업,20190718,20155751949,4518010100-1-10030001
공중화장실,7 - 공중화장실,35.85188718,127.6863706,전북특별자치도 무주군 안성면 내외당길 162,영업,20091111,20155754228,4573034024-1-09330005
공중화장실,7 - 공중화장실,35.87940952,127.6976621,전북특별자치도 무주군 안성면 덕유산로 854-9,영업,20170516,20155754234,4573034026-1-04440001
상암로 629,7 - 공중화장실,34.82598209,127.7327778,전라남도 여수시 상암로 629,영업,20090922,20155754266,4613015000-1-17010005
공중화장실,7 - 공중화장실,35.65063846,126.9429978,전북특별자치도 정읍시 태인면 태산길 3,영업,20070911,20155756657,4518039030-1-00910000
울산대교전망대화장실,7 - 공중화장실,35.5017429,129.4062185,울산광역시 동구 봉수로 155-1,영업,20090528,20155754312,KODIX-US-0000009
정읍고속터미널 공중화장실,7 - 공중화장실,35.57273762,126.8457725,전북특별자치도 정읍시 중앙로 32,영업,20141013,20155754404,4518010500-1-00490011
구절초 공중화장실,7 - 공중화장실,35.55396485,127.0193667,전북특별자치도 정읍시 산내면 청정로 926-79,영업,20160912,20155754407,4518043023-1-06030000
양촌어린이공원공중화장실,7 - 공중화장실,37.54875845,126.7458849,인천광역시 계양구 장제로948번길 31,영업,20170731,20155754419,2824510700-1-00330002
공중화장실,7 - 공중화장실,35.00527924,126.3542371,전라남도 무안군 망운면 조금나루길 128-68,영업,20111107,20155754439,4684035024-1-04510047
공중화장실,7 - 공중화장실,34.96749194,126.3893696,전라남도 무안군 망운면 톱머리길 10,영업,20180713,20155754445,4684035023-1-08090031
그래비티 타워,8 - 관광숙박시설,37.39332385,127.1101093,경기도 성남시 분당구 판교역로146번길 2,영업,20180316,20155894817,4113511000-1-05380000
판교 미래에셋센터,8 - 관광숙박시설,37.39751085,127.1107358,경기도 성남시 분당구 판교역로192번길 12,영업,20111103,20155895049,4113510900-1-06640000
코트야드 바이 메리어트 수원,8 - 관광숙박시설,37.28473839,127.0574832,경기도 수원시 영통구 광교호수공원로 320,영업,20170414,20155895230,4111710400-1-10170003
롯데시티호텔,8 - 관광숙박시설,35.53753581,129.329616,울산광역시 남구 삼산로 204,영업,20130527,20155751633,3114010500-1-12480001
울산시티호텔,8 - 관광숙박시설,35.53834102,129.3341143,울산광역시 남구 삼산로 246,영업,20120316,20155751853,3114010500-1-12560004
토요코인 호텔,8 - 관광숙박시설,35.53960103,129.340732,울산광역시 남구 삼산로 308,영업,20160428,20155751858,3114010600-1-16130001
관광숙박시설,8 - 관광숙박시설,37.42631419,126.4218282,인천광역시 중구 마시란로 34,영업,19991229,20155754274,2811015100-1-01280012
주식회사우인,8 - 관광숙박시설,0,0,전라남도 목포시 영산로 119  4~8층 (명륜동),영업,20210604,20155754441,4611011100-1-00020000
HOTEL de CIEL(드씨엘),8 - 관광숙박시설,37.60771385,127.0786177,서울특별시 중랑구 동일로 866,영업,20140710,20155752098,1126010400-1-01810064
정안호스텔,8 - 관광숙박시설,33.50890158,126.5110151,제주특별자치도 제주시 용문로 166,영업,20151005,20155752158,5011010900-1-26780010
케이스테이 관광호텔,8 - 관광숙박시설,34.6201258,126.793488,전라남도 강진군 군동면 청자로 299,영업,20200110,20155752262,4681031033-1-08980009
베스트웨스턴군산관광호텔,8 - 관광숙박시설,35.94851551,126.5839172,전북특별자치도 군산시 새만금북로 435,영업,20110525,20155755143,4513014700-1-08140005
호텔오션뷰,8 - 관광숙박시설,0,0,인천광역시 중구 선녀바위로55번길 13,영업,20010803,20155755169,2811014900-1-06780053
아마레관광호텔,8 - 관광숙박시설,37.53259217,126.7355646,인천광역시 계양구 장제로730번길 14,영업,20130726,20155752860,2824510300-1-09050004
라관광호텔,8 - 관광숙박시설,33.48194766,126.5048344,제주특별자치도 제주시 연북로 217,영업,20130709,20155755288,5011012000-1-31000001
브라운도트,8 - 관광숙박시설,35.54060758,129.3500361,울산광역시 남구 삼산로383번길 6-17,영업,20161220,20155752971,3114010600-1-02160012
판도라 호텔,8 - 관광숙박시설,35.53890092,129.3496465,울산광역시 남구 삼산로392번길 8,영업,20141210,20155752973,3114010600-1-16420004
H.Y호텔,8 - 관광숙박시설,35.54068895,129.3510153,울산광역시 남구 삼산로395번길 11,영업,20111031,20155752979,3114010600-1-02160006
인천공항호텔,8 - 관광숙박시설,37.49451084,126.489119,인천광역시 중구 신도시남로149번길 11,영업,20020121,20155755389,2811014700-1-27900004
미란다호텔,8 - 관광숙박시설,37.45381229,126.6025252,인천광역시 중구 연안부두로43번길 12,영업,20011029,20155755616,2811011800-1-00580128
이순신빙상체육관,9 - 관람장,36.76817566,127.0207236,충청남도 아산시 남부로 370-24,영업,20100107,20155751655,4420011100-1-03660002
고흥 팔영체육관,9 - 관람장,34.61552273,127.300319,전라남도 고흥군 고흥읍 고흥로 1892-67,영업,20020206,20155755384,4677025025-1-09140000
여성문화관,9 - 관람장,35.56846159,126.8459032,전북특별자치도 정읍시 조곡천 1길 7,영업,19980411,20155753739,4518010500-1-02520053
정읍시예술회관,9 - 관람장,0,0,전북특별자치도 정읍시 시기4길 13,영업,20040220,20155759116,4518010400-1-00870002
아트리움,9 - 관람장,37.57664817,126.9835334,서울특별시 종로구 율곡로3길 4,영업,20180316,20155762184,1111014100-1-01750002
동리국악당,9 - 관람장,35.43183738,126.7027549,전북특별자치도 고창군 고창읍 판소리길 20,영업,20021101,20155770598,4579025021-1-04570000
메디컬센터,9 - 관람장,34.73812626,126.4155932,전라남도 영암군 삼호읍 에프원로 2,영업,20090216,20155768813,4683025328-1-19250000
전주완산수영장,9 - 관람장,35.80265994,127.106197,전북특별자치도 전주시 완산구 쑥고개로 366-7,영업,20021116,20155778120,4511114100-1-02350001
남동체육관,9 - 관람장,37.43466242,126.7337895,인천광역시 남동구 소래로 500,영업,20101028,20155778384,2820010800-1-06020000
남동아시아드 럭비경기장,9 - 관람장,37.4379178,126.7337941,인천광역시 남동구 소래로 540,영업,20101028,20155778597,2820010800-1-06010000
구례실내체육관,9 - 관람장,35.21572405,127.468087,전라남도 구례군 구례읍 서시천로 76-11,영업,20050916,20155780234,4673025030-1-00250000
구례공설운동장,9 - 관람장,0,0,전라남도 구례군 구례읍 서시천로 92,영업,20160401,20155780236,4673025030-1-14230001
강화고인돌체육관,9 - 관람장,37.75495494,126.4685539,인천광역시 강화군 강화읍 강화대로 603,영업,20110224,20155782970,2871025023-1-09790000
실내연습장,9 - 관람장,37.3513403,126.61573,인천광역시 연수구 인천신항대로 916 (송도동),영업,20080320,20155784507,2818510600-1-03790000
인천국제벨로드롬,9 - 관람장,37.53246311,126.7438869,인천광역시 계양구 봉오대로 855,영업,20040922,20155792762,2824510400-1-02070000
전주월드컵축구경기장,9 - 관람장,35.86808385,127.0645032,전북특별자치도 전주시 덕진구 기린대로 1055,영업,19990212,20155792894,4511312300-1-07630001
송림경기장,9 - 관람장,37.48439269,126.6475851,인천광역시 동구 염전로 30,영업,20101220,20155793095,2814010700-1-03440000
옥천종합운동장,9 - 관람장,36.30307359,127.5758071,충청북도 옥천군 옥천읍 관성로 53,영업,20091203,20155743652,4373025022-1-03900000
초정행궁,9 - 관람장,36.72123627,127.6012913,충청북도 청주시 청원구 내수읍 초정약수로 851,영업,20180525,20155741093,4311425031-1-00640002
청양 군민체육관,9 - 관람장,36.45368674,126.794704,충청남도 청양군 청양읍 충절로 1204,영업,20080520,20155744206,4479025029-1-03710000
정읍교도소,10 - 교도소·구치소,35.57425222,126.7964873,전북특별자치도 정읍시 등계리 산12-1,영업,20150612,20155751948,4518033023-2-00120001
전주교도소,10 - 교도소·구치소,0,0,전북특별자치도 전주시 완산구 구이로 2034,영업,20060113,20155760662,4511113400-1-01000002
군산교도소,10 - 교도소·구치소,0,0,전북특별자치도 군산시 옥구읍 할미로 127,영업,20160714,20155775514,4513025023-1-02570000
한국법무보호복지공단,10 - 교도소·구치소,0,0,전북특별자치도 전주시 완산구 쑥고개옛길 127-,영업,20140423,20155778552,4511113900-1-07260000
교도소·구치소,10 - 교도소·구치소,0,0,대구광역시 달성군 화원읍 비슬로 2624,영업,20070705,20155818194,2771025021-1-04720000
상주교도소(대강당),10 - 교도소·구치소,0,0,경상북도 상주시 사벌국면 목가2길 130,영업,20190117,20155866725,4725032524-2-00500000
대곡교도소,10 - 교도소·구치소,0,0,경상남도 진주시 대곡면 월암로 39,영업,20221229,20155874626,4817031022-1-0700000
광주교도소,10 - 교도소·구치소,0,0,광주광역시 북구 북부순환로 396,영업,20100831,20155876939,2917011600-1-08310000
밀양교정시설,10 - 교도소·구치소,0,0,경상남도 밀양시 부북면 춘화로124,영업,20110502,20155876965,4827031036-1-00080000
성남지방법원 성남지원,12 - 국가 또는 지자체 청사,37.45335053,127.1591448,경기도 성남시 수정구 산성대로 451,영업,20170717,20155894632,4113110400-1-00750000
성남우체국,12 - 국가 또는 지자체 청사,37.44236457,127.1499048,경기도 성남시 수정구 산성대로 301,영업,20201102,20155894873,4113110100-1-24820000
무주군맑은물사업소,12 - 국가 또는 지자체 청사,36.00670988,127.6627403,전북특별자치도 무주군 무주읍 주계로 116,영업,20200520,20155751532,4573032028-1-09680033
논산시청,12 - 국가 또는 지자체 청사,36.1875525,127.098258,충청남도 논산시 시민로210번길 9,영업,19980411,20155751669,4423010900-1-08240000
전주출입국외국인사무소,12 - 국가 또는 지자체 청사,35.86265373,127.1505695,전북특별자치도 전주시 덕진구 동부대로 857 (호성동1가),영업,19980714,20155751685,4511311600-1-08630043
전주보호관찰소,12 - 국가 또는 지자체 청사,35.86321586,127.1499109,전북특별자치도 전주시 덕진구 동부대로 859 (호성동1가),영업,19980411,20155751686,4511311600-1-08630041
호성동주민센터,12 - 국가 또는 지자체 청사,35.86367723,127.1496082,전북특별자치도 전주시 덕진구 동부대로 869,영업,19980411,20155751691,4511311600-1-08630044
제주출입국관리사무소,12 - 국가 또는 지자체 청사,33.51384153,126.5031412,제주특별자치도 제주시 용담로 3,영업,20140205,20155751697,5011011000-1-09530000
전주 기상지청,12 - 국가 또는 지자체 청사,35.84066489,127.1160562,전북특별자치도 전주시 덕진구 상가마을길 25 (덕진동2가),영업,20130421,20155751908,4511310600-1-04320003
하당보건지소,12 - 국가 또는 지자체 청사,34.81668557,126.4261506,전라남도 목포시 석현로 48,영업,20101124,20155751971,4611016000-1-11750002
위도면사무소,12 - 국가 또는 지자체 청사,0,0,전북특별자치도 부안군 위도면 진리안길 5,영업,20140516,20155751983,4580042021-1-01650001
배방읍사무소,12 - 국가 또는 지자체 청사,36.77382519,127.0538406,충청남도 아산시 배방읍 배방로 38,영업,20110419,20155751880,4420025324-1-16720000
무주경찰서,12 - 국가 또는 지자체 청사,36.00387355,127.6701735,전북특별자치도 무주군 무주읍 한풍루로 408,영업,20000111,20155751993,4573025022-1-07730000
임피면사무소,12 - 국가 또는 지자체 청사,35.98247594,126.8506204,전북특별자치도 군산시 남상2길 1,영업,20090626,20155752003,4513033021-1-02160001
안성면 주민자치센터,12 - 국가 또는 지자체 청사,0,0,전북특별자치도 무주군 안성면 안성로 246-17,영업,20011226,20155754235,4573034021-1-15560000
무안군농업기술센터,12 - 국가 또는 지자체 청사,0,0,전라남도 무안군 무안읍 성남리 582-1 외1필지,영업,20171023,20155756679,4684025023-1-05820001
강진소방서,12 - 국가 또는 지자체 청사,0,0,전라남도 강진군 군동면 중앙로 223,영업,20110622,20155752034,4681031022-1-10460005
농업기술센터,12 - 국가 또는 지자체 청사,35.72987932,126.7193497,전북특별자치도 부안군 행안면 변산로 16,영업,20201201,20155754460,4580033021-1-02340000
부안소방서,12 - 국가 또는 지자체 청사,35.72977003,126.7118893,전북특별자치도 부안군 행안면 변산로 86,영업,20060101,20155754461,4580033022-1-03130001
군산시육아종합지원센터,12 - 국가 또는 지자체 청사,0,0,전북특별자치도 군산시 대학로 330,영업,20180611,20155754473,4513014400-1-07960000
나포면사무소,13 - 국민건강보험공단 및 지사,36.03056493,126.8316879,전북특별자치도 군산시 나포초교길 9,영업,20061009,20155752002,4513038023-1-04520000
건강보험공단,13 - 국민건강보험공단 및 지사,34.74790536,127.6912474,전라남도 여수시 여서로 86,영업,20160830,20155752014,4613013400-1-18370000
천원보건소,13 - 국민건강보험공단 및 지사,35.50409631,126.7969245,전북특별자치도 정읍시 입암중앙길 32,영업,20030531,20155752389,4518032024-1-01850002
신흥장미아파트2차 203동,13 - 국민건강보험공단 및 지사,0,0,전북특별자치도 정읍시 상평동 97번지 11호,영업,19980411,20155755748,4518010800-3-00970004
국민건강보험공단,13 - 국민건강보험공단 및 지사,34.98499753,126.4757356,전라남도 무안군 무안읍 무안로 458,영업,20150817,20155755786,4684025023-1-01650001
경진기업,13 - 국민건강보험공단 및 지사,34.79546479,127.6606901,전라남도 여수시 삼동3길 6,영업,20201201,20155753589,4613013800-1-10360002
국민건강보험공단 부안고창지사,13 - 국민건강보험공단 및 지사,0,0,전북특별자치도 부안군 부안읍 동문안1길 14-4,영업,20070724,20155759606,4580025021-1-03840000
국민건강보험공단 정읍지사,13 - 국민건강보험공단 및 지사,35.58621743,126.8583473,전북특별자치도 정읍시 수성5로 13,영업,20110615,20155757994,4518010100-1-10080000
국민건강보험공단,13 - 국민건강보험공단 및 지사,36.20227468,127.0948832,충청남도 논산시 중앙로384번길 62,영업,20150918,20155758396,4423010500-1-10720001
국민건강보험공단 및 지사,13 - 국민건강보험공단 및 지사,37.60613471,127.0770722,서울특별시 중랑구 중랑역로 142,영업,20170228,20155759262,1126010400-1-02500013
국민연금공단 진안사옥,13 - 국민건강보험공단 및 지사,35.79416601,127.4340338,전북특별자치도 진안군 진안읍 학천변길 25,영업,20141209,20155763377,4572025021-1-02410005
국민건강보험공단,13 - 국민건강보험공단 및 지사,35.79438502,127.4349548,전북특별자치도 진안군 진안읍 학천변길 33,영업,20080625,20155763590,4572025021-1-02390033
국민건강보험공단,13 - 국민건강보험공단 및 지사,35.44203106,126.6988615,전북특별자치도 고창군 고창읍 모양성로 122,영업,20191024,20155766793,4579025037-1-00050012
울주군시설관리공단,13 - 국민건강보험공단 및 지사,35.57157172,129.2437954,울산광역시 울주군 범서읍 대리로 10,영업,20080212,20155764401,3171025927-1-02150001
국민건강보험공단 완도강진지사,13 - 국민건강보험공단 및 지사,34.63547296,126.773934,전라남도강진군강진읍 초지길25,영업,20090504,20155764555,4681025026-1-00160000
개정면사무소,13 - 국민건강보험공단 및 지사,35.95834024,126.7968456,전북특별자치도 군산시 개정면 바르메길 42,영업,20090616,20155767679,4513036024-1-00860009
개정면사무소,13 - 국민건강보험공단 및 지사,35.95834024,126.7968456,전북특별자치도 군산시 개정면 바르메길 42,영업,20090616,20155767680,4513036024-1-00860009
개정면보건소,13 - 국민건강보험공단 및 지사,35.95810938,126.7926528,전북특별자치도 군산시 개정면 신발산길 10,영업,20060910,20155767901,4513036024-1-04610002
국민건강보험공단,13 - 국민건강보험공단 및 지사,35.27300775,126.4998915,전라남도 영광군 영광읍 대하길1길 21-15,영업,20160729,20155767919,4687025039-1-08380006
국민건강보험공단 및 지사,13 - 국민건강보험공단 및 지사,0,0,충청남도 아산시 탕정면 탕정로93번길 3-19,영업,20191211,20155771156,4420033021-1-04550027
국민연금공단 및 지사,14 - 국민연금공단 및 지사,35.96419321,126.6941975,전북특별자치도 군산시 대학로 331 3층,영업,20191225,20155754687,4513014400-1-08380001
국민연금공단 정읍지사,14 - 국민연금공단 및 지사,0,0,전북특별자치도 정읍시 충정로 97(상동),영업,19980411,20155755745,4518010300-1-03190042
인천국제공항고속도로도로유지관리사업소,14 - 국민연금공단 및 지사,37.57096023,126.6674548,인천광역시 서구 봉수대로 1048,영업,19990916,20155764589,2826010300-1-04140054
국민연금공단제2사옥,14 - 국민연금공단 및 지사,35.83621292,127.0701454,전북특별자치도 전주시 덕진구 오공로 131,영업,20181203,20155764680,4511313100-1-12560000
국민연금공단 부여상담센터,14 - 국민연금공단 및 지사,36.28033762,126.9097707,충청남도 부여군 부여읍 부장대로 64(구아리) 부여신협 2층,영업,20070426,20155772955,4476025029-1-03230000
국민연금보령지사,14 - 국민연금공단 및 지사,36.35109518,126.6107646,충청남도 보령시 동현로 27,영업,20061208,20155768022,4418010400-1-05760001
국민건강보험공단 광양구례지사,14 - 국민연금공단 및 지사,34.93920182,127.6937403,전라남도 광양시 시청로 20 (중동),영업,20140722,20155769731,4623010600-1-13610007
한국농어촌공사,14 - 국민연금공단 및 지사,35.02035132,126.7771071,전라남도 나주시 그린로 20,영업,20120201,20155773097,4617013400-1-03580000
국민연금공단 및 지사,14 - 국민연금공단 및 지사,35.02149884,126.7143307,전라남도 나주시 나주로 21, KT나주빌딩 별관(송월동),영업,20190530,20155775997,4617010200-1-07860000
국민연금빌딩,14 - 국민연금공단 및 지사,35.83340618,127.1216859,전북특별자치도 전주시 완산구 온고을로 13,영업,19980411,20155781247,4511112900-1-07690000
국민연금리공단 순천회관,14 - 국민연금공단 및 지사,34.93427127,127.5194901,전라남도 순천시 팔마로 334,영업,20071227,20155782869,4615011400-1-16920007
국민연금공단 지방이전 본부회관,14 - 국민연금공단 및 지사,35.837298,127.0721794,전북특별자치도 전주시 덕진구 기지로 180,영업,20120613,20155783333,4511313100-1-11650000
국민건강보험공단 대전세종충청지역본부 사옥,14 - 국민연금공단 및 지사,36.51345844,127.2419823,세종특별자치시  세종로 1234-5,영업,20170802,20155785004,3611011300-1-13080000
국민연금공단,14 - 국민연금공단 및 지사,36.51439625,127.2420788,세종특별자치시  세종로 1250,영업,20170802,20155785218,3611011300-1-13040000
국민연금공단 및 지사,14 - 국민연금공단 및 지사,0,0,전라남도 해남군 해남읍 교육청길 16-16,영업,20060711,20155785372,4682025021-1-03920007
NPS국민연금남원지사,14 - 국민연금공단 및 지사,35.41096776,127.3770599,전북특별자치도 남원시 의총로 116,영업,20061213,20155793139,4519046028-1-05720003
국민연금천안지사,14 - 국민연금공단 및 지사,36.78599296,127.1581221,충청남도 천안시 동남구 청수6로 60,영업,20080103,20155790578,4413111100-1-07180000
옥천지사,14 - 국민연금공단 및 지사,36.29671679,127.5760702,충청북도 옥천군 옥천읍 문장로 96, 4층,영업,20030227,20155743914,4373025037-1-02880000
제천종합센터,14 - 국민연금공단 및 지사,37.1386703,128.2079177,충청북도 제천시 풍양로 65, 4층,영업,19980411,20155742253,4315010100-1-00490001
국민건강보험공단,14 - 국민연금공단 및 지사,35.16078732,128.9849933,부산광역시 사상구 사상로181번길 10,영업,20130123,20155803237,2653010400-1-05580010
수원경기대학교우편취급국,15 - 근로복지공단 및 지사,37.30024015,127.0401091,경기도 수원시 영통구 광교산로154-42 (이의동),영업,20050421,20155894522,4111710300-2-00940006
무안고용복지센터,15 - 근로복지공단 및 지사,34.98999072,126.4769565,전라남도 무안군 무안읍 면성2길 37-4,영업,19980411,20155755559,4684025021-1-01660000
근로복지공단 및 지사,15 - 근로복지공단 및 지사,37.4502541,126.6201907,인천광역시 중구 축항대로 220,영업,20080916,20155759433,2811011800-1-00910006
덕천보건소및마을정보센터,15 - 근로복지공단 및 지사,35.75816184,127.3479198,전북특별자치도 진안군 마령면 덕천로 54,영업,20040803,20155757990,4572037024-1-05320002
근로복지공단 및 지사,15 - 근로복지공단 및 지사,36.78456354,126.9998024,충청남도 아산시 번영로86번길 27-3,영업,20020403,20155760847,4420010100-1-02270009
남청라영업소,15 - 근로복지공단 및 지사,37.51494006,126.6199746,인천광역시 서구 로봇랜드로 120-60,영업,20150528,20155761907,2826012200-1-00011471
근로복지공단 및 지사,15 - 근로복지공단 및 지사,33.25456663,126.5204589,제주특별자치도 서귀포시 서호중로 71,영업,20130305,20155765608,5013010300-1-15220003
한국도로공사,15 - 근로복지공단 및 지사,0,0,전북특별자치도 진안군 진안읍 진무로 847,영업,20161002,20155762925,4572025023-1-01560015
한국국토정보공사완주지사,15 - 근로복지공단 및 지사,35.9037584,127.1646544,전북특별자치도 완주군 용진읍 지암로 73,영업,20181214,20155763191,4571025626-1-08720000
성송농업인상담소,15 - 근로복지공단 및 지사,35.36589398,126.6475214,전북특별자치도 고창군 성송면 삼송정길 16,영업,20070309,20155763214,4579037025-1-05570002
한국전력공사 장성지점사옥,15 - 근로복지공단 및 지사,35.31136046,126.7965368,전라남도 장성군 장성읍 보해길 30,영업,20031229,20155772626,4688025024-1-06890000
근로복지공단,15 - 근로복지공단 및 지사,35.56394024,129.3142647,울산광역시 중구 종가로 340,영업,20111025,20155777388,3111010700-0-00000000
예산소방서,15 - 근로복지공단 및 지사,36.6865928,126.8014097,충청남도 예산군 오가면 오가중앙로 111,영업,20151231,20155780995,4481040021-1-01000015
근로복지공단보령지사,15 - 근로복지공단 및 지사,0,0,충청남도 보령시 한내로 27, 1∼3층(동대동),영업,20180510,20155778769,4418010400-1-05200000
근로복지공단 및 지사,15 - 근로복지공단 및 지사,0,0,전북특별자치도 군산시 해망로 178  1-3층,영업,20090723,20155779547,4513012000-1-00040003
한국농촌공사 장성지사,15 - 근로복지공단 및 지사,35.29342382,126.7743073,전라남도 장성군 장성읍 강변로 572-7,영업,20061201,20155782923,4688025024-1-14580001
근로복지공단 및 지사,15 - 근로복지공단 및 지사,34.55633757,126.5849158,전라남도 해남군 해남읍 땅끝대로 141,영업,20140106,20155787158,4682025030-1-01020004
압해읍 동서리 520 업무시설 (신안군수),15 - 근로복지공단 및 지사,34.86111813,126.2992816,전라남도 신안군 압해읍 압해로 1042,영업,20041208,20155784876,4691025327-1-05200000
중우빌딩,15 - 근로복지공단 및 지사,35.41778217,127.397214,전북특별자치도 남원시 용성로 232,영업,20021015,20155791806,4519011600-1-05840001
아토피치유체험장,15 - 근로복지공단 및 지사,36.20385634,127.5710351,충청남도 금산군 군북면 희망마을길 7,영업,20180704,20155789749,4471034029-1-01360000
센트럴파크리움,16 - 금융업소 등 일반업무시설,37.50169254,126.7713209,경기도 부천시 중동로248번길 45,영업,20150827,20155894537,4119010800-3-11460005
하이원,16 - 금융업소 등 일반업무시설,37.47773097,126.7977805,경기도 부천시 은성로61번길 58,영업,20200731,20155894538,4119011000-3-01360012
펠리시티,16 - 금융업소 등 일반업무시설,37.47795892,126.7977759,경기도 부천시 은성로61번길 60,영업,20210712,20155894540,4119011000-3-01360003
에코타워,16 - 금융업소 등 일반업무시설,37.50213795,126.7698113,경기도 부천시 중동로254번길 16,영업,20141226,20155894543,4119010800-3-11510001
제이엘 타워,16 - 금융업소 등 일반업무시설,37.45177753,126.7954646,경기도 시흥시 은계중앙로306번길 71,영업,20200921,20155894547,4139010100-3-06520000
삼성화재 판교사옥,16 - 금융업소 등 일반업무시설,37.39744841,127.1100541,경기도 성남시 분당구 판교역로 188,영업,20120222,20155894574,4113510900-1-06420000
투썬월드 빌딩,16 - 금융업소 등 일반업무시설,37.40072965,127.1090002,경기도 성남시 분당구 판교역로 221,영업,20120822,20155894576,4113510900-1-06720000
(주)멜파스판교사옥,16 - 금융업소 등 일반업무시설,37.40062099,127.1080171,경기도 성남시 분당구 판교역로 225-14,영업,20110928,20155894577,4113510900-1-06710001
이룸빌딩,16 - 금융업소 등 일반업무시설,37.40035729,127.1080826,경기도 성남시 분당구 판교역로 225-18,영업,20100818,20155894578,4113510900-3-06710002
시공빌딩,16 - 금융업소 등 일반업무시설,37.40008123,127.1080692,경기도 성남시 분당구 판교역로 225-20,영업,20091124,20155894579,4113510900-1-06710003
삼환하이펙스 B동,16 - 금융업소 등 일반업무시설,37.40128504,127.1104557,경기도 성남시 분당구 판교역로 230,영업,20090409,20155894580,4113510900-3-06790000
에이치스퀘어,16 - 금융업소 등 일반업무시설,37.40133487,127.1086985,경기도 성남시 분당구 판교역로 231,영업,20081117,20155894581,4113510900-3-06800000
에이치스퀘어 엔동,16 - 금융업소 등 일반업무시설,37.40204849,127.108691,경기도 성남시 분당구 판교역로 235,영업,20081117,20155894582,4113510900-3-06810000
삼환하이펙스A동,16 - 금융업소 등 일반업무시설,37.40210216,127.1104675,경기도 성남시 분당구 판교역로 240,영업,20090409,20155894583,4113510900-3-06780000
알컴빌딩,16 - 금융업소 등 일반업무시설,37.42971561,127.1311586,경기도 성남시 중원구 둔촌대로151번길 41,영업,20180213,20155894597,4113310100-1-41090000
세종그랑시아∥,16 - 금융업소 등 일반업무시설,37.33914173,127.1106807,경기도 성남시 분당구 구미로9번길 10,영업,20011102,20155894603,4113511400-3-01870002
광장빌딩,16 - 금융업소 등 일반업무시설,0,0,경기도 성남시 분당구 구미로9번길 13-7,영업,20050119,20155894604,4113511400-1-01860006
세종그랑시아｜,16 - 금융업소 등 일반업무시설,37.3387952,127.1106747,경기도 성남시 분당구 구미로9번길 8,영업,20011102,20155894606,4113511400-3-01870003
그린화인빌,16 - 금융업소 등 일반업무시설,37.48293827,126.7779663,경기도 부천시 심곡로9번길 33,영업,20030104,20155894619,4119011100-3-05900006
위브더스테이트,16 - 금융업소 등 일반업무시설,0,0,경기도 부천시 신흥로 150,영업,20040326,20155894621,4119010800-3-11130000
수원법원 어린이집 및 독신자숙소,17 - 기숙사,37.2916345,127.0700078,경기도 수원시 영통구 광교중앙로266번길 53,영업,20141125,20155894992,4111710400-1-09800000
설화고등학교,17 - 기숙사,36.78803293,127.0922409,충청남도 아산시 배방읍 용연로 111,영업,20120925,20155756584,4420025331-1-14410000
삼전관기숙사,17 - 기숙사,35.53337532,129.4310802,울산광역시 동구 방어진순환도로 1035,영업,20021016,20155752070,3117010800-1-02790015
철도산업농공단지(기숙사),17 - 기숙사,35.49689743,126.8077884,전북특별자치도 정읍시 입암면 입암로 345-1,영업,20180302,20155752161,4518032026-1-23840000
선수단숙소,17 - 기숙사,35.52834994,129.4234922,울산광역시 동구 봉수로 507,영업,20020516,20155754547,3117010800-1-02570053
목포과학대학기숙사,17 - 기숙사,34.80548746,126.4083296,전라남도 목포시 송림로 97,영업,20190528,20155752415,4611015900-1-02300001
전라남도 인재개발원,17 - 기숙사,34.57578196,126.7457421,전라남도 강진군 도암면 다산인재길 10,영업,20190125,20155752706,4681034026-1-03690000
현대스틸 기숙사,17 - 기숙사,34.88114048,127.5892395,전라남도 여수시 율촌면 모래목길 94,영업,20100113,20155755158,4613032021-1-00180000
충북학사,17 - 기숙사,37.5934269,127.072026,서울특별시 중랑구 망우로 173,영업,20180108,20155755228,1126010300-1-02100004
와이아이케이기숙사,17 - 기숙사,36.90478384,127.0618032,충청남도 아산시 둔포면 아산밸리로406번길 12,영업,20160707,20155755459,4420036032-1-20030000
성전중고등학교 기숙사,17 - 기숙사,34.69371745,126.7064011,전라남도 강진군 성전면 별뫼로 367-9,영업,20120522,20155753596,4681036024-1-01050000
덕수학교 기숙사,17 - 기숙사,0,0,전라남도 강진군 성전면 예향로 181-13,영업,20190516,20155753608,4681036023-1-00400002
율전재 기숙사,17 - 기숙사,35.52623045,129.4325093,울산광역시 동구 방어진순환도로 955,영업,20160325,20155753864,3117010800-1-02310001
삼영기계  논산공장  기숙사,17 - 기숙사,36.1321824,127.1400869,충청남도 논산시 은진면 매죽헌로 582,영업,20080204,20155756832,4423041024-1-07930000
전주여자고등학교,17 - 기숙사,35.83662729,127.145885,전북특별자치도 전주시 덕진구 모래내6길 14,영업,20041125,20155756846,4511310400-1-00350001
화암관2동기숙사,17 - 기숙사,35.47670834,129.4108294,울산광역시 동구 화암10길 20,영업,20130116,20155759695,3117010100-1-10490000
화양고등학교 기숙사,17 - 기숙사,34.6891898,127.5986936,전라남도 여수시 화양면 화동로 203,영업,20101007,20155759873,4613033026-1-09900000
아산고등학교-기숙사,17 - 기숙사,36.78906056,127.0046035,충청남도 아산시 번영로115번길 21,영업,20090520,20155759953,4420010100-1-00300003
벨국제아카데미,17 - 기숙사,36.19215571,127.2953501,충청남도 논산시 벌곡면 수락로 528,영업,20090721,20155759966,4423038024-1-01610000
톱텍기숙사,17 - 기숙사,36.93395727,127.0574191,충청남도 아산시 둔포면 운용길 38,영업,20100507,20155757263,4420036033-1-03380007
은행2동 제3경로당,18 - 노인복지시설,37.45541914,127.1683972,경기도 성남시 중원구 은이로42번길 5,영업,20040213,20155894647,4113310400-1-12200000
성진경로당,18 - 노인복지시설,37.43793432,127.1336474,경기도 성남시 수정구 제일로124번길 3,영업,19990614,20155894697,4113110300-1-12790001
센트럴프라자,18 - 노인복지시설,37.47321102,126.8039604,경기도 부천시 소사동로 82,영업,20061124,20155894746,4119011000-3-04090003
정철어학원,18 - 노인복지시설,0,0,경기도 시흥시 은행로 130,영업,19990707,20155894783,4139010600-3-05390004
드림빌딩,18 - 노인복지시설,37.444518,126.799203,경기도 시흥시 은행로 151,영업,20000628,20155894787,4139010600-3-05300002
노인복지시설,18 - 노인복지시설,37.2694338,126.9379295,경기도 수원시 권선구 금곡로 5-31,영업,20180123,20155894680,4111313400-1-07570009
중일빌딩,18 - 노인복지시설,37.39501659,127.122397,경기도 성남시 분당구 이매로 15,영업,20010929,20155894961,4113510600-1-01460002
동남빌딩,18 - 노인복지시설,37.4691028,126.7965085,경기도 부천시 소사로 119,영업,20170629,20155894975,4119011000-1-03170007
경동프라자,18 - 노인복지시설,37.43926247,126.7971431,경기도 시흥시 은행로 86,영업,20021212,20155895029,4139010600-3-05470004
더 헤리티지,18 - 노인복지시설,37.35896757,127.0995642,경기도 성남시 분당구 대왕판교로 155,영업,20071218,20155895091,4113511100-3-03050002
노인복지시설,18 - 노인복지시설,37.46294017,127.1677485,경기도 성남시 수정구 수정로578번길 9,영업,19980411,20155895112,4113110600-1-00770000
정우프라자,18 - 노인복지시설,0,0,경기도 부천시 장말로 1,영업,20210112,20155895242,4119010900-3-05840006
부모사랑주간보호센터,18 - 노인복지시설,0,0,전북특별자치도 무주군 무주읍 죽향로 33-5,영업,20111124,20155751546,4573025021-1-13000008
소망노인선교원,18 - 노인복지시설,36.04349628,126.8466742,전북특별자치도 군산시 나포면 미루매길 127,영업,20170118,20155751554,4513038022-1-07320001
사랑마을요양원,18 - 노인복지시설,36.01674712,126.7928336,전북특별자치도 군산시 나포면 서왕길 84-5,영업,20101119,20155751560,4513038026-1-05100001
사랑마을요양원,18 - 노인복지시설,36.01693255,126.7925482,전북특별자치도 군산시 나포면 서왕길 84-9,영업,20090320,20155751561,4513038026-1-05100000
여서동여명노인회,18 - 노인복지시설,34.74974519,127.7082548,전라남도 여수시 여서동6길 11,영업,20051212,20155751566,4613011900-1-03770000
신명사랑채,18 - 노인복지시설,34.74736539,127.6952425,전라남도 여수시 여서로 118-10,영업,20041125,20155751567,4613012000-1-08250001
노인회관,18 - 노인복지시설,36.78114395,126.9968889,충청남도 아산시 남산로 30,영업,20111017,20155751662,4420010100-1-02060060
뉴-삼성 노인전문요양원,18 - 노인복지시설,33.50910536,126.5165553,제주특별자치도 제주시 용담로19길 12,영업,20110201,20155751710,5011010800-1-02190006
하이트뷰,19 - 다세대주택,37.47546163,126.7976939,경기도 부천시 은성로61번길 6,영업,20150727,20155894539,4119011000-3-01580024
다세대주택,19 - 다세대주택,37.31495107,126.7033504,경기도 시흥시 시화호수전원2길 82-20,영업,20171109,20155894544,4139013200-3-27970004
다세대주택,19 - 다세대주택,37.31594302,126.7038929,경기도 시흥시 시화호수전원2길 89-1,영업,20171229,20155894545,4139013200-3-27920002
다세대주택,19 - 다세대주택,37.31632183,126.7046922,경기도 시흥시 시화호수전원2길 89-10,영업,20170109,20155894546,4139013200-3-27940001
다세대주택,19 - 다세대주택,37.31570779,126.7040813,경기도 시흥시 시화호수전원2길 89-2,영업,20180122,20155894549,4139013200-3-27940005
대풍아트빌IV,19 - 다세대주택,0,0,경기도 시흥시 시화호수전원2길 89-6,영업,20180328,20155894550,4139013200-3-27940003
더 팰리스Ⅲ,19 - 다세대주택,37.31615356,126.7045257,경기도 시흥시 시화호수전원2길 89-8,영업,20180604,20155894551,4139013200-3-27940002
다세대주택,19 - 다세대주택,0,0,경기도 시흥시 시화호수전원2길 90-1,영업,20171229,20155894555,4139013200-3-27940006
다세대주택,19 - 다세대주택,0,0,경기도 시흥시 시화호수전원2길 90-3,영업,20171115,20155894556,4139013200-3-27940007
셋빌,19 - 다세대주택,0,0,경기도 시흥시 시화호수전원2길 90-4,영업,20200410,20155894557,4139013200-3-27930002
현대파크빌 B동,19 - 다세대주택,37.52514208,126.814341,경기도 부천시 역곡로455번길 27,영업,20160316,20155894558,4119012100-3-03350012
현대파크빌 A동,19 - 다세대주택,37.52514157,126.8141934,경기도 부천시 역곡로455번길 29,영업,20160316,20155894559,4119012100-3-03350010
신안인스빌,19 - 다세대주택,37.52599766,126.8178691,경기도 부천시 역곡로456번길 35-12,영업,20160414,20155894561,4119012100-3-03750016
유니빌리지1동,19 - 다세대주택,37.52577656,126.8176361,경기도 부천시 역곡로456번길 35-5,영업,20200724,20155894562,4119012100-3-03750008
유니빌리지2동,19 - 다세대주택,37.52596663,126.8176705,경기도 부천시 역곡로456번길 35-7,영업,20200724,20155894563,4119012100-3-03750010
한울타리고강6차,19 - 다세대주택,37.52602854,126.8180278,경기도 부천시 역곡로456번길 41-5,영업,20180713,20155894565,4119012100-3-03750021
삼성하이츠,19 - 다세대주택,0,0,경기도 부천시 역곡로45번길 10,영업,20130305,20155894566,4119010700-3-00670008
천상애,19 - 다세대주택,37.48876861,126.8092295,경기도 부천시 역곡로45번길 15,영업,20170810,20155894567,4119010700-3-00720004
원웅빌라,19 - 다세대주택,37.48949205,126.8107009,경기도 부천시 역곡로46번길 15,영업,20020611,20155894568,4119010700-3-00980009
하나맨션,19 - 다세대주택,37.4897545,126.8114809,경기도 부천시 역곡로46번길 31,영업,20020710,20155894569,4119010700-3-01030003
건우아파트 지하주차장 1층,20 - 대피소,0,0,경기도 부천시 역곡로455번길 60 (고강동, 건우아파트),영업,19980411,20155894560,4119012100-3-03070000
백현마을 9단지 지하주차장,20 - 대피소,37.38324223,127.1081325,경기도 성남시 분당구 판교역로 49 (백현동, 백현마을 아파트),영업,20060816,20155894586,KODIX-GY-0000051
대산동행정복지센터(지하주차장 지1·2층),20 - 대피소,37.48243412,126.7790043,경기도 부천시 심곡로9번길 54 (심곡본동),영업,19980411,20155894626,4119011100-1-06650013
광교마을40단지아파트 지하주차장 지하1층,20 - 대피소,37.29534044,127.0811912,경기도 수원시 영통구 광교마을로 156 (하동, 광교마을40단지),영업,20071227,20155894516,4111710400-3-10010000
경기대학교 텔레컨벤션센터,20 - 대피소,37.30024015,127.0401091,경기도 수원시 영통구 광교산로 154-42 (이의동, 경기대학교),영업,19980411,20155894521,4111710300-2-00940006
휴먼시아32단지아파트 3203,3206,3212동 지하,20 - 대피소,37.29461436,127.0655342,경기도 수원시 영통구 광교중앙로 247 (하동),영업,20071126,20155894529,4111710400-3-09560000
미금지하철역 승강장, 대합실,20 - 대피소,0,0,경기도 성남시 분당구 성남대로 163-2 (금곡동)경기도 성남시 분당구 성남대로 지하163 (금곡동)경기도 성남시 분당구 성남대로 지하156 (금곡동),영업,20180428,20155894734,KODIX-GY-0000049
소새울중흥S클래스 408동 지하주차장 1층,20 - 대피소,37.47229489,126.8027231,경기도 부천시 소사동로72번길 32 (소사본동),영업,20020723,20155894750,4119011000-3-04110001
수원역센트럴어반시티(구LH수원센트럴타운3단지)지하주차장,20 - 대피소,37.26140529,127.0046771,경기도 수원시 권선구 세권로 1(세류동, 수원역센트럴어반시티),영업,20071106,20155894753,4111312600-3-12800000
대야동 시흥시청소년수련관 지하주차장 지하1층,20 - 대피소,37.44604327,126.7969065,경기도 시흥시 은행로 179, 시흥시청소년수련관 (대야동),영업,20070928,20155894793,4139010100-1-05710002
대야동 우성2차아파트 지하주차장 지하1층,20 - 대피소,0,0,경기도 시흥시 은행로 208 (대야동),영업,20000101,20155894794,4139010100-3-05690001
대야동 우성1차아파트 지하주차장 지하1층,20 - 대피소,0,0,경기도 시흥시 은행로 222 (대야동),영업,20000101,20155894795,4139010100-3-05670002
백현마을 8단지 지하주차장,20 - 대피소,37.38695035,127.1105233,경기도 성남시 분당구 판교역로 72 (백현동, 백현마을8단지아파트),영업,20060918,20155894811,KODIX-GY-0000161
백현마을 7단지 지하주차장,20 - 대피소,37.38933379,127.1107492,경기도 성남시 분당구 판교역로 98 (백현동, 백현마을7단지아파트),영업,20060321,20155894814,KODIX-GY-0000160
신분당선 판교역,20 - 대피소,37.39279369,127.1120171,경기도 성남시 분당구 판교역로146번길 20 일대,영업,20111028,20155894819,KODIX-GY-0000140
수원호매실휴먼시아 8단지아파트 지하주차장,20 - 대피소,37.27202289,126.9457187,경기도 수원시 권선구 금곡로140번길 29(금곡동, 수원호매실휴먼시아8단지아파트),영업,20061220,20155894921,4111313400-3-10950000
삼보아파트 지하주차장 1층,20 - 대피소,0,0,경기도 부천시 삼작로 267 (도당동, 삼보아파트),영업,19980411,20155894662,4119010400-3-01090000
KT북부천지점 지하주차장1층,20 - 대피소,0,0,경기도 부천시 삼작로 286 (도당동, KT북부천지점),영업,19980716,20155894663,4119010400-1-01170000
월산장미아파트 지하주차장 1층,20 - 대피소,37.52026627,126.8006625,경기도 부천시 삼작로 349 (여월동),영업,19980411,20155894670,4119011800-3-00020016
호매실GS아파트 지하주차장,20 - 대피소,37.26832937,126.9584686,경기도 수원시 권선구 매실로 70 (호매실동, 호매실GS아파트),영업,19980411,20155894677,4111313500-3-03770000
체육관,21 - 대학교,37.46097891,127.1651468,경기도 성남시 수정구 산성대로 553,영업,20100525,20155894646,4113110600-1-02120000
학교법인경기학원,21 - 대학교,37.30024015,127.0401091,경기도 수원시 영통구 광교산로 154-42,영업,20071102,20155894517,4111710300-2-00940006
원천동 48-13 교육연구시설 (학교법인자유학원),21 - 대학교,37.2801724,127.0537778,경기도 수원시 영통구 광교중앙로 50(원천동),영업,20190604,20155894757,4111710200-1-00480013
을지대학교 기숙사 및 강의동,21 - 대학교,37.46195068,127.1674351,경기도 성남시 수정구 산성대로 573,영업,20070514,20155894874,4113110600-1-01990000
부천대학교 제2캠퍼스,21 - 대학교,37.46373803,126.8030667,경기도 부천시 소사로 56,영업,20131230,20155895212,4119011600-1-07910000
군산대학교,21 - 대학교,0,0,전북특별자치도 군산시 대학로 558,영업,20061214,20155754921,4513014500-1-02900002
개정간호대학교,21 - 대학교,35.9710187,126.7601076,전북특별자치도 군산시 동개정길 7,영업,20021111,20155755139,4513013900-1-04130001
군산간호대학교,21 - 대학교,35.9710187,126.7601076,전북특별자치도 군산시 동개정길 7,영업,20120313,20155755140,4513013900-1-00310005
군산.새만금 QWL 캠퍼스,21 - 대학교,35.96187232,126.5605283,전북특별자치도 군산시 산단남북로 177,영업,20120809,20155753130,4513014700-1-05150007
초당대학교,21 - 대학교,34.98004859,126.4702639,전라남도 무안군 무안읍 무안로 380,영업,20071220,20155755776,4684025023-1-04190000
해양대학교,21 - 대학교,34.79177492,126.3668304,전라남도 목포시 해양대학로 91(죽교동),영업,20220420,20155753761,4611015700-1-05710000
한영대학,21 - 대학교,34.75371367,127.7148875,전라남도 여수시 장군산길 18-43,영업,20120711,20155756719,4613011900-1-00610000
한국 폴리텍대학 울산캠퍼스,21 - 대학교,35.51185381,129.2951181,울산광역시 남구 테크노산업로81번길 4,영업,20170220,20155757241,3114010300-1-07600001
목포대학교,21 - 대학교,34.80490725,126.4597136,전라남도 무안군 삼향읍 남악로 190,영업,20140602,20155760043,4684025622-1-25400000
광양보건대학교,21 - 대학교,34.95324129,127.5688134,전라남도 광양시 광양읍 대학로 85,영업,19980411,20155760558,25035106540001
호서대학교,21 - 대학교,36.73446302,127.0771069,충청남도 아산시 배방읍 호서로79번길 20,영업,20080806,20155758165,4420025327-1-01650000
서일대학교,21 - 대학교,37.5860828,127.0972033,서울특별시 중랑구 용마산로90길 28,영업,20131202,20155758596,1126010100-1-00490003
신성대17동 도서관및 박물관,21 - 대학교,36.85370948,126.5937687,충청남도 당진시 정미면 대학로 1,영업,20101013,20155761546,4427034034-1-02200000
창고,21 - 대학교,36.18215192,127.1096874,충청남도 논산시 대학로 121,영업,20070720,20155758844,4423010900-1-00260000
전북대학교,21 - 대학교,35.84113827,127.131589,전북특별자치도 전주시 덕진구 백제대로 567,영업,20050330,20155758866,4511310700-1-06630000
배방읍 월천지구 아산마트,22 - 대형마트,0,0,충청남도 아산시 배방읍 배방로 267,영업,20180919,20155751666,4420025325-1-16640000
롯데마트,22 - 대형마트,33.48244219,126.481834,제주특별자치도 제주시 연북로 1,영업,20000907,20155754841,5011012200-1-07080000
디지털프라자 서울산,22 - 대형마트,35.55552659,129.2632189,울산광역시 남구 울밀로 2884,영업,20210318,20155755212,3114010100-1-02720003
홈플러스 서울 신내점,22 - 대형마트,37.61598391,127.0935974,서울특별시 중랑구 신내로 201,영업,20040223,20155755233,1126010600-1-06450000
롯데마트,22 - 대형마트,35.57934453,126.839791,전북특별자치도 정읍시 벚꽃로 85,영업,20090619,20155753069,4518010600-1-04460001
동구 일산동 판매시설,22 - 대형마트,35.49897226,129.4274742,울산광역시 동구 방어진순환도로 637,영업,20080731,20155753202,3117010300-3-05770001
코스트코 상봉점,22 - 대형마트,37.59686496,127.0902963,서울특별시 중랑구 망우로 336,영업,20200421,20155755670,1126010200-1-00810000
연산계룡농협하나로마트,22 - 대형마트,36.20821072,127.1954726,충청남도 논산시 연산면 청동로 18,영업,19980821,20155756161,4423036026-1-04670000
N마트,22 - 대형마트,0,0,충청남도 아산시 둔포면 석곡길 16,영업,20170103,20155753902,4420036031-1-00030035
다팜몰,22 - 대형마트,0,0,충청남도 아산시 둔포면 석곡길 17,영업,20140703,20155753903,4420036032-1-02850003
홈플러스 인천간석점,22 - 대형마트,37.46958768,126.6891078,인천광역시 남동구 경원대로 971,영업,20121206,20155762049,2820010200-1-06160003
이마트 여수점,22 - 대형마트,34.75792638,127.7149894,전라남도 여수시 좌수영로 277,영업,19991004,20155757181,4613012100-1-04050001
한샘식자재마트,22 - 대형마트,0,0,충청남도 아산시 둔포면 중앙공원로 52,영업,20200429,20155757484,4420036032-1-17160000
롯데아울렛,22 - 대형마트,34.80256379,126.4650795,전라남도 무안군 삼향읍 남악리 2622,영업,20150330,20155760276,4684025622-1-26220000
롯데마트,22 - 대형마트,35.96479833,126.7164122,전북특별자치도 군산시 수송로 185,영업,20060331,20155760747,4513014100-1-08330000
롯데마트전주송천점,22 - 대형마트,35.85457451,127.12046,전북특별자치도 전주시 덕진구 송천중앙로 82,영업,20091211,20155758642,4511312100-1-02810001
롯데마트 목포점,22 - 대형마트,34.79724642,126.4294676,전라남도 목포시 원형서로 15,영업,20010731,20155758704,4611015800-1-11340000
충청마트,22 - 대형마트,36.74705684,127.0154401,충청남도 아산시 외암로 1243,영업,20061128,20155761524,4420010800-1-03050002
원예하나로마트,22 - 대형마트,35.55754323,129.2539951,울산광역시 울주군 범서읍 장검길 10,영업,20160513,20155765296,3171025924-1-07440000
농협하나로,22 - 대형마트,36.78446172,126.9869359,충청남도 아산시 온천대로 1336,영업,20040430,20155771374,4420010300-1-01010004
수원시 농수산물도매시장,23 - 도매시정·소매시장,37.25505109,127.0304705,경기도 수원시 권선구 세권로 243,영업,20181101,20155894766,4111313700-1-12290000
엘림유통,23 - 도매시정·소매시장,37.53301567,126.7642099,경기도 부천시 석천로531번길 40-16,영업,20210423,20155895378,4119012300-1-03740005
목포농수산물종합유통센터,23 - 도매시정·소매시장,34.81908501,126.4285499,전라남도 목포시 선곡로 33(석현동),영업,20170228,20155751979,4611016000-1-02470000
울산점 롯데하이마트,23 - 도매시정·소매시장,35.53821732,129.3332196,울산광역시 남구 삼산로 238,영업,20200825,20155751848,3114010500-1-12530006
리바트스타일샵,23 - 도매시정·소매시장,36.78289205,127.0936567,충청남도 아산시 배방읍 용연로 156-27,영업,20180118,20155756591,4420025331-1-15620000
CU,23 - 도매시정·소매시장,36.20206804,127.0882716,충청남도 논산시 계백로 992-13,영업,20030120,20155756608,4423010500-1-10450011
힘찬프라자,23 - 도매시정·소매시장,37.5676265,126.6839292,인천광역시 서구 승학로 584,영업,20030918,20155754285,2826010300-3-05130001
리바트,23 - 도매시정·소매시장,35.54016712,129.3453698,울산광역시 남구 삼산로 349,영업,20150326,20155752079,3114010600-1-02270017
(주)드림유통,23 - 도매시정·소매시장,37.54261117,126.6728333,인천광역시 서구 승학로 224,영업,20180110,20155752278,2826010700-1-02510018
제이에스타워(에몬스),23 - 도매시정·소매시장,35.53955533,129.3466366,울산광역시 남구 삼산로 362,영업,20170314,20155752295,3114010600-1-16240003
다우닝,23 - 도매시정·소매시장,35.53948595,129.346933,울산광역시 남구 삼산로 364,영업,20141106,20155752296,3114010600-1-16240004
봄소와,23 - 도매시정·소매시장,35.53953534,129.3471174,울산광역시 남구 삼산로 366,영업,20210804,20155752297,3114010600-1-16240006
에이스침대 울산점,23 - 도매시정·소매시장,35.53952689,129.3473058,울산광역시 남구 삼산로 368,영업,20180622,20155752302,3114010600-1-16240007
도매시정·소매시장,23 - 도매시정·소매시장,34.78900493,126.3881916,전라남도 목포시 수강로12번길 41,영업,20080704,20155752423,4611012100-1-00060001
신우인쇄,23 - 도매시정·소매시장,33.4868187,126.5038671,제주특별자치도 제주시 연미길 82,영업,20030709,20155754840,5011012100-1-29880004
혁신빌딩,23 - 도매시정·소매시장,0,0,제주특별자치도 제주시 우정로11길 29,영업,20100514,20155754848,5011012300-1-05330006
출입항합동신고서,23 - 도매시정·소매시장,35.99099595,126.6996791,전북특별자치도 군산시 내항2길 342,영업,20210524,20155752679,4513010100-1-10110020
농산물도매시장,23 - 도매시정·소매시장,34.8219115,126.425198,전라남도 목포시 영산로 648-23,영업,20110927,20155755110,4611016000-1-10860001
식자재마트,23 - 도매시정·소매시장,34.73185732,127.7255142,전라남도 여수시 봉산2로 20,영업,20171020,20155752920,4613011500-1-01600000
곰소젓갈발효식품센터,23 - 도매시정·소매시장,35.58745954,126.6126703,전북특별자치도 부안군 진서면 곰소7길 16,영업,20090727,20155753115,4580037024-3-09800000
부천시립한울빛도서관,24 - 도서관,0,0,경기도 부천시 소사로 107,영업,20061018,20155894751,4119011000-1-03170098
부천시립원미도서관,24 - 도서관,37.4979854,126.7990398,경기도 부천시 소사로 456,영업,20200407,20155894989,4119010100-1-00150000
전주시립송천도서관,24 - 도서관,35.86938833,127.1281282,전북특별자치도 전주시 덕진구 솔내로 212,영업,20040209,20155756621,4511312200-1-01680005
목포어린이도서관,24 - 도서관,34.81483088,126.4256025,전라남도 목포시 옥암로186번길 30-7,영업,20080820,20155756683,4611016000-1-11750005
강경도서관,24 - 도서관,36.15914407,127.0184,충청남도 논산시 강경읍 계백로 173,영업,19980411,20155754593,4423025021-1-00810003
교육연구시설(도서관),24 - 도서관,36.01016077,127.6600338,전북특별자치도 무주군 무주읍 향한로 37,영업,20191007,20155752432,4573025021-1-03430000
청소년문화의집,중앙도서관,24 - 도서관,34.60988214,127.2889082,전라남도 고흥군 고흥읍 고흥로 1793,영업,20211118,20155755166,4677025026-1-06840007
신석도서관,24 - 도서관,37.51175135,126.6681189,인천광역시 서구 염곡로 299 (석남동),영업,20100520,20155755403,2826011000-1-01690002
한국방송통신대학,24 - 도서관,35.83778668,127.1301825,전북특별자치도 전주시 덕진구 떡전5길 22,영업,19980411,20155753039,4511310700-1-07520006
정읍시립중앙도서관,24 - 도서관,35.55737564,126.8669718,전북특별자치도 정읍시 벚꽃로 511 (상동),영업,20121127,20155753062,4518010300-1-02740009
철새마을도서관,24 - 도서관,35.54893246,129.2800942,울산광역시 남구 삼호로149번길 22,영업,20200318,20155753420,3114010100-1-12360011
율촌도서관,24 - 도서관,34.88370008,127.5784992,전라남도 여수시 율촌면 율촌로 100-9,영업,20031229,20155756047,4613032021-1-00650008
여수시 이순신도서관,24 - 도서관,34.74991263,127.6904301,전라남도 여수시 웅천6길 51,영업,20171226,20155753807,4613013400-1-18200002
신복도서관,24 - 도서관,35.55136748,129.2553282,울산광역시 남구 신복로72번길 18-13,영업,20120629,20155754100,3114010100-1-08140007
논산열린도서관,24 - 도서관,36.19658032,127.1071733,충청남도 논산시 관촉로 113-23 (지산동),영업,20170706,20155756835,4423011100-1-03140000
전주시 아중도서관,24 - 도서관,35.82632995,127.1626078,전북특별자치도 전주시 덕진구 무삼지2길 7,영업,20110614,20155757073,4511310300-1-09070001
설림도서관,24 - 도서관,35.97302347,126.6843997,전북특별자치도 군산시 설림길 25,영업,20111227,20155757159,4513014600-1-15300000
영종하늘도서관,24 - 도서관,37.49473516,126.5637807,인천광역시 중구 하늘중앙로 132,영업,20130215,20155759885,2811014500-1-18890004
제주꿈바당어린이도서관,24 - 도서관,33.48059113,126.4997396,제주특별자치도 제주시 연오로 140 (연동),영업,19980411,20155759996,5011013700-1-0463000
영종도서관,24 - 도서관,37.49680806,126.4878385,인천광역시 중구 운서동 2709-1,영업,20060811,20155757412,2811014700-1-27090001
군산 실내배드민턴장,25 - 도시공원,35.96249561,126.7088196,전북특별자치도 군산시 남수송5길 39,영업,19990609,20155752223,4513014100-1-07010001
전주수목원 야외화장실,25 - 도시공원,0,0,전북특별자치도 전주시 덕진구 번영로 462-45,영업,19980411,20155760212,4511312300-1-08480079
목재문화체험장,25 - 도시공원,37.45859383,126.7519671,인천광역시 남동구 무네미로 238,영업,19980411,20155774133,2820010400-1-04080000
불당동1484,25 - 도시공원,36.81644878,127.131681,충청남도 천안시 동남구 개목2길 17,영업,20160719,20155781877,4413111300-1-02620000
옥천묘목공원 관리사무소,25 - 도시공원,36.24660998,127.6268656,충청북도 옥천군 이원면 이원로 830,영업,20091211,20155744635,4373036031-1-05030000
샛마을 근린공원 화장실,25 - 도시공원,0,0,서울특별시 강동구 구천면로 441,영업,19990529,20155831426,1174010100-1-02880000
화전공원,25 - 도시공원,35.11405109,126.7568478,광주광역시 광산구 평동산단7번로 72-1,영업,20210302,20155846907,2920015500-1-11370021
가야테마파크,25 - 도시공원,35.25163508,128.8937494,경상남도 김해시 가야테마길 161,영업,20090102,20155844301,4825011800-1-09860000
신장동 370-2,25 - 도시공원,0,0,경기도 평택시 신장로 124 (신장동),영업,20140704,20155853031,4122011200103700002
의왕레솔레파크 생활복합화시설,25 - 도시공원,37.30582873,126.9527823,경기도 의왕시 왕송못동로 295,영업,20160105,20155858225,4143011000-1-05430003
안정근린공원,25 - 도시공원,36.96069723,127.0531282,경기도 평택시 팽성읍 안정순환로267번길 42,영업,20131129,20155871401,11111111111111100
밀양아리랑대공원,25 - 도시공원,35.50442565,128.7585155,경상남도 밀양시 밀양대공원로 112,영업,19980411,20155874806,4827010300-1-04870000
어등어린이공원,25 - 도시공원,35.16489644,126.8082667,광주광역시 광산구 사암로 229,영업,20190328,20155877451,2920010900-1-15720004
용두어린이공원,25 - 도시공원,35.22012858,126.8751495,광주광역시 북구 용두동 1124,영업,20200806,20155883144,KODIX-GW-0000036
송정지구 도시개발사업,25 - 도시공원,35.68057605,127.9094712,경상남도 거창군 거창읍 송정7길 66,영업,19980411,20155888956,4888025025-1-04760001
목동공원(19호),25 - 도시공원,37.2385727,127.0193,경기도 수원시 권선구 경수대로 124(권선동),영업,20200909,20155896554,4111313700-1-13440000
둔배미공원,25 - 도시공원,0,0,경기도 안산시 단원구 광덕2로 55,영업,20151221,20155899682,4127310700-1-07230001
제72호 근린공원(신갈공원),25 - 도시공원,37.31435717,126.9869435,경기도 수원시 장안구 장안로346번길 70(이목동),영업,20090817,20155899763,4111113100-2-01100000
오목천,25 - 도시공원,37.29760156,127.0245979,경기도 수원시 장안구 광교산로 71(하광교동),영업,19980411,20155900008,4111113900-1-04370001
방아머리공원,25 - 도시공원,37.28942506,126.5809965,경기도 안산시 단원구 대부황금로 1546,영업,20110215,20155900523,4127311100-1-19850000
호랑이사,26 - 동식물원,35.85730635,127.1440769,전북특별자치도 전주시 덕진구 소리로 68,영업,20181130,20155755720,4511310500-1-00730048
아쿠아리움,26 - 동식물원,34.74626041,127.7487115,전라남도 여수시 오동도로 61-11,영업,20100210,20155753364,4613010200-1-07740001
홍농테마식물원,26 - 동식물원,35.40635285,126.4531648,전라남도 영광군 홍농읍 홍농로 574-49,영업,20080519,20155762112,4687025621-1-00050009
다년생 식물원,26 - 동식물원,35.36782675,127.1110966,전북특별자치도 순창군 순창읍 장류로 55,영업,20200225,20155756695,4577025025-1-05940000
식물원,26 - 동식물원,35.50956052,126.6467888,전북특별자치도 고창군 부안면 복분자로 538,영업,20141128,20155761204,4579043031-1-00430012
캐니언파크제주 등,26 - 동식물원,33.49023229,126.4923749,제주특별자치도 제주시 삼무로 51,영업,20020305,20155763356,5011013700-1-02810020
제주농업생태원 체험염색체험장,26 - 동식물원,33.28706051,126.6101922,제주특별자치도 서귀포시 남원읍 중산간동로 7433-23,영업,20050906,20155766279,5013025328-1-15560001
세계차식물원,26 - 동식물원,34.72038187,127.0824889,전라남도 보성군 보성읍 녹차로 775-1,영업,20111012,20155770800,4678025024-1-11910006
국립세종수목원,26 - 동식물원,36.49809616,127.2857889,세종특별시 수목원로 136,영업,20160503,20155773818,3611011900-1-12030000
봉수산수목원,26 - 동식물원,0,0,충청남도 예산군 대흥면 임존성길 110-16,영업,20111206,20155774722,4481034022-1-04700001
구례수목원,26 - 동식물원,35.28717568,127.4387914,전라남도 구례군 광의면 온동2길 124,영업,20110523,20155778018,4673035027-2-01640000
방림원,26 - 동식물원,33.33722842,126.2685129,제주특별자치도 제주시 한경면 용금로 864,영업,20021228,20155782601,5011031030-1-21200091
아열대식물원,26 - 동식물원,35.02252684,126.8316641,전라남도 나주시 산포면 세남로 1508,영업,20100810,20155786505,4617040025-1-02060007
송도트리플스트리트 D동,26 - 동식물원,37.37866087,126.6628415,인천광역시 연수구 송도과학로16번길 33-4,영업,20100705,20155789421,2818510600-1-01760005
고운식물원,26 - 동식물원,36.43676373,126.7626065,충청남도 청양군 청양읍 식물원길 398-23,영업,20020926,20155744069,4479025027-1-03890002
동식물원,26 - 동식물원,36.72673636,127.466545,충청북도 청주시 청원구 오창읍 가곡길 46,영업,20080919,20155742049,4311425335-1-03830000
서울식물원,26 - 동식물원,37.57224441,126.8328428,서울특별시 강서구 마곡동로 161,영업,20151127,20155806574,1150010500-1-08110001
숲교육센터식물원,26 - 동식물원,0,0,서울특별시 구로구 연동로 240,영업,20130725,20155822154,1153011200-1-00310000
동식물원,26 - 동식물원,36.3099738,127.4210698,대전광역시 중구 보문산공원로 469,영업,20170704,20155821929,3014011000-1-01980020
대전플라워랜드,26 - 동식물원,36.28749924,127.3985039,대전광역시 중구 사정공원로 70,영업,20111004,20155824078,3014011800-1-01420000
사계절사우나,27 - 목욕장,35.9587669,126.6740733,전북특별자치도 군산시 부곡로 140-5,영업,20040605,20155751558,4513015100-1-36210009
장산관광농원,27 - 목욕장,36.22499935,127.4837765,충청남도 금산군 추부면 검한1길 156,영업,20090928,20155751904,4471039027-1-06980000
용해사우나,27 - 목욕장,34.81665724,126.3988878,전라남도 목포시 포미로10번길 14, 6층 (용해동),영업,20130405,20155751970,4611015900-3-09890000
소매점,27 - 목욕장,0,0,전북특별자치도 군산시 부곡로 140-5,영업,20040605,20155751772,4513015100-1-36210009
도고별장스파비아,27 - 목욕장,0,0,충청남도 아산시 도고면 도고면로 188,영업,20030514,20155751888,4420040036-1-02880001
광장타워,27 - 목욕장,35.84400717,127.125158,전북특별자치도 전주시 덕진구 명륜5길 15-5,영업,20030602,20155756618,4511310500-3-12770002
샘골사우나,27 - 목욕장,35.56043626,126.8518804,전북특별자치도 정읍시 초산로 11,영업,20170221,20155754859,4518010400-1-05050005
대송한방랜드,27 - 목욕장,34.81777811,126.4201541,전라남도 목포시 영산로 585,영업,20030507,20155754890,4611016000-1-07410014
(유)대송한방건강랜드,27 - 목욕장,34.81777811,126.4201541,전라남도 목포시 영산로 585 (석현동,외 2필지),영업,20040115,20155754891,4611016000-1-07410014
목욕장,27 - 목욕장,35.69312489,126.5486969,전북특별자치도 부안이군 변산면 변산로 1788,영업,20080602,20155754907,4580036026-1-01790000
좌수영사우나,27 - 목욕장,34.76625702,127.6548769,전라남도 여수시 선원3길 10-21,영업,20031219,20155755149,4613013500-1-01500002
여수온천리조트,27 - 목욕장,34.78893696,127.6893205,전라남도 여수시 봉계대곡길 92,영업,20010904,20155752915,4613013900-1-00110005
오대양라벤더사우나,27 - 목욕장,35.55796442,126.8709118,전북특별자치도 정읍시 충정로 41,영업,20030329,20155755301,4518010300-1-02310001
목욕장,27 - 목욕장,34.8087235,126.3864213,전라남도 목포시 양을로 136,영업,20020703,20155753099,4611010200-1-02640001
군산첨성대불가마,27 - 목욕장,0,0,전북특별자치도 군산시 서수면 함안로 435-6,영업,20071109,20155756038,4513034023-1-02200005
코리아나,27 - 목욕장,34.79426458,126.3938677,전라남도 목포시 연동로4번길 13 (산정동),영업,19980411,20155753772,4611010200-1-10800069
황제사우나,27 - 목욕장,35.49077077,129.4189098,울산광역시 동구 월봉10길 73,영업,20041123,20155756332,3117010100-1-09050002
24시사우나,27 - 목욕장,34.73924375,127.7450117,전라남도 여수시 이순신광장로 204,영업,20190618,20155756496,4613010100-1-05810006
태평양스파찜질방,27 - 목욕장,35.57497484,126.8448758,전북특별자치도 정읍시 중앙로 11,영업,20160525,20155754181,4518010500-1-03160029
중앙목욕탕,27 - 목욕장,35.5650379,126.8570072,전북특별자치도 정읍시 중앙로 171,영업,20140509,20155754186,4518010400-1-03690001
jibs제주방송,28 - 방송국,33.49384656,126.5024362,제주특별자치도 제주시 연삼로 95,영업,20020222,20155759329,5011012100-1-27500000
CBS전북방송,28 - 방송국,35.8750205,127.0566879,전북특별자치도 전주시 덕진구 번영로 453,영업,20071026,20155760206,4511312500-1-00500001
인천 계양 방송통신시설,28 - 방송국,37.54223219,126.7388319,인천광역시 계양구 오조산로 129,영업,20170531,20155758236,2824510600-1-02070003
jtv전주방송,28 - 방송국,35.8466695,127.0820772,전북특별자치도 전주시 덕진구 정여립로 1083,영업,19980411,20155770740,4511313100-1-02890001
전북교통방송,28 - 방송국,35.84733743,127.0812689,전북특별자치도 전주시 덕진구 정여립로 1097-10,영업,20000921,20155770741,4511313100-1-03070006
(주)한국케이블TV제주방송,28 - 방송국,33.48133136,126.4961408,제주특별자치도 제주시 아연로 2,영업,20001020,20155768728,5011013700-1-04220000
제주극동방송,28 - 방송국,33.48448383,126.3867122,제주특별자치도 제주시 애월읍 가문동상4길 67,영업,19980411,20155769170,5011025324-1-04430000
KBS 전주방송총국,28 - 방송국,35.82238281,127.1049433,전북특별자치도 전주시 완산구 마전중앙로 30,영업,20110727,20155776549,4511114200-1-16290000
전주mbc,28 - 방송국,35.81453941,127.1259579,전북특별자치도 전주시 완산구 선너머1길 50,영업,20030827,20155774534,4511112800-1-01510009
금강방송,28 - 방송국,35.97652,126.9548846,전북특별자치도 익산시 익산대로 569,영업,20050411,20155777742,4514012000-1-03230001
방송국,28 - 방송국,33.26206429,126.5397854,제주특별자치도 서귀포시 중산간동로 8207,영업,20180315,20155779925,5013010400-1-08500005
tvn교통방송,28 - 방송국,35.57288817,129.3138392,울산광역시 중구 함월7길 11,영업,20110929,20155780509,3111010900-1-08280001
티비엔 제주교통방송청사,28 - 방송국,33.47841245,126.549958,제주특별자치도 제주시 기자길 101,영업,20160311,20155792199,5011011800-1-09320001
명작방송국,28 - 방송국,36.11340156,127.4939477,충청남도 금산군 금산읍 무금로 2523,영업,20030830,20155790845,4471025022-1-01880057
TBN 충북교통방송,28 - 방송국,0,0,충청북도 청주시 청원구 밀레니엄2로 45-25,영업,20200616,20155741346,4311410700-1-00120005
주식회사엠비씨충북,28 - 방송국,36.61899201,127.4341153,충청북도 청주시 흥덕구 2순환로 1322,영업,20050114,20155744852,4311311300-1-03520008
KBS 청주방송국,28 - 방송국,0,0,충청북도 청주시 흥덕구 서부로 1428,영업,19980801,20155745156,4311210800-1-04560000
케이비에스제주방송총국,28 - 방송국,33.48908312,126.5193492,제주특별자치도 제주시 복지로1길 8,영업,20101229,20155794589,5011012900-1-06680000
(주)문화방송,28 - 방송국,37.58027851,126.8918186,서울특별시 마포구 성암로 255,영업,20100120,20155808850,1144012700-1-16040000
숙박시설,28 - 방송국,37.58112342,126.890989,서울특별시 마포구 성암로 267,영업,20100120,20155808851,1144012700-1-16030000
메디캐슬,29 - 병원·치과병원·한방병원·정신병원·요양병원,37.45112756,126.7947976,경기도 시흥시 은계중앙로306번길 82,영업,20200129,20155894548,4139010100-3-06500001
JS타워신축공사,29 - 병원·치과병원·한방병원·정신병원·요양병원,37.39714775,127.1100441,경기도 성남시 분당구 판교역로 184,영업,20100831,20155894573,4113510900-1-06430000
천마프라자,29 - 병원·치과병원·한방병원·정신병원·요양병원,0,0,경기도 부천시 중동로254번길 24,영업,20150204,20155894770,4119010800-3-11510002
보바스병원,29 - 병원·치과병원·한방병원·정신병원·요양병원,37.35743428,127.1000037,경기도 성남시 분당구 대왕판교로 155-8,영업,20111026,20155895093,4113511100-1-03100002
서울JS프라자,29 - 병원·치과병원·한방병원·정신병원·요양병원,37.27354352,126.955518,경기도 수원시 권선구 금곡로196번길 76,영업,20170220,20155895163,4111313400-1-11250000
성진프라자,29 - 병원·치과병원·한방병원·정신병원·요양병원,0,0,경기도 부천시 소사로 694,영업,20030430,20155895224,4119012000-3-03710002
스마튼병원,29 - 병원·치과병원·한방병원·정신병원·요양병원,0,0,경기도 부천시 신흥로 240,영업,20120731,20155895333,4119010800-1-10610006
SB타워II,29 - 병원·치과병원·한방병원·정신병원·요양병원,37.5146918,126.7757111,경기도 부천시 신흥로 350,영업,20170810,20155895339,4119010400-1-00040015
인천사랑요양병원,29 - 병원·치과병원·한방병원·정신병원·요양병원,37.45786593,126.6843183,인천광역시 미추홀구 경인로 400,영업,20090513,20155751615,2817710500-3-04090005
CK 치과,29 - 병원·치과병원·한방병원·정신병원·요양병원,35.53740212,129.3261065,울산광역시 남구 삼산로 173,영업,20090701,20155751627,3114010500-1-05900014
금성빌딩,29 - 병원·치과병원·한방병원·정신병원·요양병원,34.81548162,126.4215529,전라남도 목포시 석현로 2,영업,20170605,20155751753,4611016000-1-11700026
백제병원,29 - 병원·치과병원·한방병원·정신병원·요양병원,36.19273512,127.0942555,충청남도 논산시 시민로294번길 14,영업,20100514,20155751894,4423010500-1-01390002
병원·치과병원·한방병원·정신병원·요양병원,29 - 병원·치과병원·한방병원·정신병원·요양병원,35.8653243,127.1481269,전북특별자치도 전주시 덕진구 동부대로 891,영업,20140325,20155751911,4511311600-3-08480058
병원·치과병원·한방병원·정신병원·요양병원,29 - 병원·치과병원·한방병원·정신병원·요양병원,35.86546346,127.1478997,전북특별자치도 전주시 덕진구 동부대로 895,영업,20070604,20155751912,4511311600-1-08510010
강진효요양병원,29 - 병원·치과병원·한방병원·정신병원·요양병원,34.62310031,126.7526611,전라남도 강진군 강진읍 해강로 1322,영업,20190129,20155751803,4681025028-1-05300003
참바른 병원,29 - 병원·치과병원·한방병원·정신병원·요양병원,35.53909183,129.3341119,울산광역시 남구 삼산로 247,영업,20140721,20155751854,3114010500-3-13650009
늘찬병원,29 - 병원·치과병원·한방병원·정신병원·요양병원,0,0,서울특별시 중랑구 동일로 643,영업,20190917,20155751869,1126010100-1-01790024
아산유리요양병원,29 - 병원·치과병원·한방병원·정신병원·요양병원,0,0,충청남도 아산시 도고면 도고면로 179,영업,20140401,20155751887,4420040036-1-02700007
논산시립노인전문병원,29 - 병원·치과병원·한방병원·정신병원·요양병원,36.19280929,127.0934558,충청남도 논산시 시민로294번길 11,영업,20041012,20155751893,4423010500-1-05160008
목포우리병원,29 - 병원·치과병원·한방병원·정신병원·요양병원,34.80612621,126.4269246,전라남도 목포시 옥암로 77-1,영업,20140218,20155756676,4611015800-1-08680004
중부보건지소,30 - 보건소,34.75051613,127.7085526,전라남도 여수시 여서동5길 21-1,영업,20090702,20155751565,4613011900-1-03810000
영흥보건소,30 - 보건소,37.25309533,126.461167,인천광역시 옹진군 영흥면 영흥남로 449 영흥보건소,영업,20110415,20155751584,2872036021-1-02000001
상학보건소,30 - 보건소,35.62775451,126.8179391,전북특별자치도 정읍시 덕천면 동학로 618,영업,20150427,20155751715,4518036022-1-00730015
입암보건지소,30 - 보건소,35.52302464,126.8077776,전북특별자치도 정읍시 입암면 문화1길 3-15,영업,20080704,20155751939,4518032031-1-11870000
덕림보건지료소,30 - 보건소,35.66595531,126.7384271,전북특별자치도 부안군 주산면 덕림로 262,영업,20100625,20155751991,4580031022-1-02010003
보건소,30 - 보건소,0,0,전북특별자치도 부안군 위도면 벌금잔등로 42,영업,20041130,20155751770,4580042021-1-02790001
식도보건소,30 - 보건소,0,0,전북특별자치도 부안군 위도면 식도1길 17-1,영업,20080211,20155751771,4580042026-2-02540000
나포보건소,30 - 보건소,36.03025834,126.8324059,전북특별자치도 군산시 나포면 나포초교길 13,영업,20020909,20155751995,4513038023-1-04520000
원나포보건소,30 - 보건소,36.04835751,126.8478949,전북특별자치도 군산시 나포면 철새로 985,영업,20070709,20155752001,4513038021-1-06430000
송현보건소,30 - 보건소,34.99783397,126.3595773,전라남도 무안군 망운면 서은길 2,영업,20120525,20155754218,4684035024-1-05850000
하서보건소,30 - 보건소,0,0,전북특별자치도 부안군 하서면 하서길 55,영업,19980411,20155754232,4580040022-1-05400011
칠량보건지소,30 - 보건소,34.57212233,126.798776,전라남도 강진군 칠량면 칠량로 74,영업,20120625,20155754277,4681032023-1-11370019
태인보건지소,30 - 보건소,0,0,전북특별자치도 정읍시 태인면 정읍북로 1185,영업,20071203,20155756644,4518039030-1-04250003
산양보건소,30 - 보건소,0,0,제주특별자치도 제주시 연명로 12,영업,20110603,20155754391,5011031021-1-32840003
산내면보건소,30 - 보건소,0,0,전북특별자치도 정읍시 산내면 청정로 1295,영업,20160317,20155754405,4518043025-1-04830003
장금보건소,30 - 보건소,35.53837228,127.063883,전북특별자치도 정읍시 산내면 평내길 13,영업,20110127,20155754412,4518043022-1-07840003
창동보건소,30 - 보건소,0,0,전북특별자치도 정읍시 창골길 9-12,영업,20080828,20155754416,4518037027-1-02000002
망운보건지소,30 - 보건소,35.01189775,126.3924308,전라남도 무안군 망운면 압창길 5,영업,20040714,20155754433,4684035021-1-05960001
대초보건소,30 - 보건소,35.71391722,126.709238,전북특별자치도 부안군 행안면 대초길 8,영업,20130516,20155754448,4580033024-1-00320001
안성보건지소,30 - 보건소,0,0,전북특별자치도 무주군 안성면 안성로 253,영업,20120228,20155754450,4573034021-1-15450002
고흥류씨문호동하리 종중,31 - 봉안당(종교시설에 해당하는 것은 제외),34.62291383,127.2567951,전라남도 고흥군 고흥읍 간천길 84-69,영업,20101117,20155754719,4677025022-1-04190000
봉안당,31 - 봉안당(종교시설에 해당하는 것은 제외),34.83167605,127.5805293,전라남도 여수시 소라면 의곡길 494,영업,20130329,20155756279,4613031027-2-01900000
금산면밀양박씨참판공파,31 - 봉안당(종교시설에 해당하는 것은 제외),34.47682325,127.1334843,전라남도 고흥군 금산면 거금일주로 3116-18,영업,20180420,20155757185,4677033025-1-11450035
무궁화추모공원,31 - 봉안당(종교시설에 해당하는 것은 제외),36.22611453,127.2566532,충청남도 논산시 벌곡면 황룡재로553번길 148-71,영업,20170623,20155759976,4423038034-1-04500001
에덴추모원,31 - 봉안당(종교시설에 해당하는 것은 제외),34.82165936,126.4018016,전라남도 목포시 용당로384번길 34,영업,20080624,20155757574,4611015900-1-05310021
이천서씨황산종중봉안당,31 - 봉안당(종교시설에 해당하는 것은 제외),0,0,전라남도 고흥군 도화면 황산길 24-35,영업,20211006,20155761226,4677034029-1-06420001
봉안당,31 - 봉안당(종교시설에 해당하는 것은 제외),34.99309283,127.6430584,전라남도 광양시 광양읍 직동1길 300,영업,20170707,20155764797,4623025029-2-00010002
아산 공설봉안당,31 - 봉안당(종교시설에 해당하는 것은 제외),0,0,충청남도 아산시 송악면 외암로 30-30,영업,20090807,20155762423,4420031030-1-04060004
봉안당(종교시설에 해당하는 것은 제외),31 - 봉안당(종교시설에 해당하는 것은 제외),34.94574024,126.392648,전라남도 무안군 청계면 해안로 752,영업,20211228,20155766086,4684033030-2-00880001
고창푸른숲자연장,31 - 봉안당(종교시설에 해당하는 것은 제외),35.46550881,126.7099897,전북특별자치도 고창군 신림면 왕림로 94-54,영업,20220518,20155764098,4579042028-1-03500002
봉안당(종교시설에 해당하는 것은 제외),31 - 봉안당(종교시설에 해당하는 것은 제외),35.76637001,127.0746905,전북특별자치도 전주시 완산구 우림로 714,영업,20090708,20155772305,4511113600-1-04640001
대덕회진장례식장,31 - 봉안당(종교시설에 해당하는 것은 제외),34.49606103,126.8994853,전라남도 장흥군 대덕읍 가학회진로 35-85,영업,20170308,20155775982,4680025629-1-07380023
봉안동,31 - 봉안당(종교시설에 해당하는 것은 제외),0,0,전라남도 나주시 나주시 노안면 학산리 782-41,영업,20110831,20155776444,4617037032-1-01720003
국립제주호국원,31 - 봉안당(종교시설에 해당하는 것은 제외),0,0,제주특별자치도 제주시 1100로 2558-73,영업,20220128,20155779488,5011012200-1-38300000
양지공원,31 - 봉안당(종교시설에 해당하는 것은 제외),0,0,제주특별자치도 제주시 516로 2810-31,영업,20190313,20155780383,5011013600-1-22610000
남도추모공원,31 - 봉안당(종교시설에 해당하는 것은 제외),0,0,전라남도 나주시월암로 1050,영업,20120928,20155783829,4617037027-1-00450003
증도면 대초리 83-2 묘지관련시설 (순흥안씨찬성공파덕정문중),31 - 봉안당(종교시설에 해당하는 것은 제외),34.97420885,126.1619929,전라남도 신안군 증도면 덕정길 43-13,영업,20210629,20155787124,4691031023-2-00830002
제2충령당,31 - 봉안당(종교시설에 해당하는 것은 제외),35.55079931,127.1895597,전북특별자치도 임실군 강진면 호국로 420,영업,20160218,20155787129,4575039021-1-14560001
봉안당(종교시설에 해당하는 것은 제외),31 - 봉안당(종교시설에 해당하는 것은 제외),34.37577513,126.5253402,전라남도 해남군 송지면 미야안길 97-47,영업,20180131,20155784474,4682034027-1-00800002
목포추모공원 봉안당,31 - 봉안당(종교시설에 해당하는 것은 제외),0,0,전라남도 목포시 고하대로 1140-41(대양동),영업,20131010,20155786279,4611016300-1-11740000
새들강자연학교,32 - 생활권수련시설,36.04125262,126.8581991,전북특별자치도 군산시 나포면 서라로 664,영업,20070509,20155751555,4513038021-1-01200000
청소년수련관,32 - 생활권수련시설,36.00162187,127.6634446,전북특별자치도 무주군 무주읍 한풍루로 326-34,영업,20021022,20155751982,4573025022-1-11990003
청소년문화의집,32 - 생활권수련시설,35.86417613,127.6540633,전북특별자치도 무주군 안성면 단지봉길 13,영업,20011221,20155754229,4573034021-1-15540003
서구복합문화복지시설,32 - 생활권수련시설,37.54603977,126.6729792,인천광역시 서구 승학로 264,영업,20121009,20155752715,2826010700-1-02410002
청소년문화집,32 - 생활권수련시설,35.55819492,126.8668837,전북특별자치도 정읍시 상동중앙로 14,영업,20090610,20155755086,4518010300-1-02740009
뉴코리아유스호스텔,32 - 생활권수련시설,33.41692486,126.3980989,제주특별자치도 제주시 애월읍 하소로 769-15,영업,20020612,20155752819,5011025342-1-28620000
중구 청소년수련관,32 - 생활권수련시설,37.48219893,126.5451501,인천광역시 중구 송산로 52,영업,20200409,20155755175,2811014600-1-16400001
복합문화센터,32 - 생활권수련시설,36.19099364,127.4699583,충청남도 금산군 추부면 하마전로 31,영업,20131220,20155753236,4471039023-1-04200008
여수시청소년해양교육원,32 - 생활권수련시설,34.74491442,127.7497128,전라남도 여수시 오동도로 61-7,영업,20210723,20155753365,4613010200-1-07760000
무안외국어체험센터,32 - 생활권수련시설,35.01102466,126.4611349,전라남도 무안군 무안읍 보평로 240,영업,20180124,20155756236,4684025026-1-07590000
남목청소년 문화의 집,32 - 생활권수련시설,35.54132138,129.4251459,울산광역시 동구 남목9길 13,영업,20050802,20155759475,3117010800-1-04490000
검단청소년문화의집,32 - 생활권수련시설,37.6032064,126.6555647,인천광역시 서구 완정로188번길 3,영업,20071019,20155760121,2826011300-1-09040004
영암군청소년수련관,32 - 생활권수련시설,34.79458838,126.6956476,전라남도 영암군 영암읍 영암로 1511,영업,20080620,20155760319,4683025022-1-00690000
진안문화의집,32 - 생활권수련시설,0,0,전북특별자치도 진안군 진안군 진안읍 대성길 3,영업,19980411,20155760462,4572025022-1-01430000
생활권수련시설,32 - 생활권수련시설,0,0,전북특별자치도 부안군 변산면 변산로 3318,영업,20160719,20155757818,4580036021-1-03130001
청소년 문화의 집,32 - 생활권수련시설,35.5879432,129.3678509,울산광역시 북구 화봉로 80,영업,20130108,20155760598,3120012200-1-03610001
야호학교,32 - 생활권수련시설,35.83612007,127.164514,전북특별자치도 전주시 덕진구 진버들5길 15-1,영업,20180427,20155760666,4511310300-1-08070003
부안청소년수련원,32 - 생활권수련시설,0,0,전북특별자치도 부안군 변산면 참뽕로 434-26,영업,20130305,20155758933,4580036023-1-00800009
홍삼빌,32 - 생활권수련시설,35.77614225,127.4175247,전북특별자치도 진안군 진안읍 외사양길 16-10,영업,20070118,20155761802,4572025023-1-07430000
이서 청소년 문화의 집,32 - 생활권수련시설,35.82380049,127.0229093,전북특별자치도 완주군 이서면 반교로 30,영업,20191028,20155764764,4571033026-1-08370000
소나무숲리조트,33 - 생활숙박시설,34.96910857,126.383505,전라남도 무안군 망운면 톱머리길 66-5,영업,20210506,20155754660,4684035023-1-08110005
생활숙박시설,33 - 생활숙박시설,35.83851689,127.129414,전북특별자치도 전주시 덕진구 떡전4길 11-5,영업,20181231,20155753037,4511310700-3-07140005
전주시그니처호텔,33 - 생활숙박시설,35.84861062,127.1598733,전북특별자치도 전주시 덕진구 백제대로 838,영업,20190723,20155759987,4511311500-3-07520048
하하팬션,33 - 생활숙박시설,36.31281449,126.5142983,충청남도 보령시 고잠1길 67,영업,20200709,20155763777,4418011000-1-21570000
웨스트오션 클럽하우스,33 - 생활숙박시설,35.35533967,126.411422,전라남도 영광군 백수읍 해안로 1362-70,영업,20191222,20155764557,4687025337-2-00400018
레그랜드 펀비치호텔,33 - 생활숙박시설,36.30744229,126.5175898,충청남도 보령시 대해로 876,영업,20230421,20155767355,4418011000-1-19450000
에스원리조트,33 - 생활숙박시설,36.28642485,126.5582262,충청남도 보령시 남포면 개목수리섬길 155-35,영업,20201223,20155764670,4418036031-1-06250019
NEW더웰,33 - 생활숙박시설,37.46595216,126.7083856,인천광역시 남동구 남동대로 936,영업,20230718,20155771001,2820010200-3-02140028
대천리조트,33 - 생활숙박시설,36.33197228,126.6229836,충청남도 보령시 옥마벚길 10,영업,20201010,20155772066,4418010500-3-00140035
오피스텔 지수,33 - 생활숙박시설,35.27163584,126.5039657,전라남도 영광군 영광읍 옥당로 101,영업,20190311,20155769490,4687025036-3-00280000
선유도리조트,33 - 생활숙박시설,0,0,전북특별자치도 군산시 옥도면 선유북길 129-6,영업,20180830,20155775964,4513039024-1-02070002
세종엔에스호텔,33 - 생활숙박시설,36.50026388,127.2580351,세종특별자치시  도움1로 7,영업,20210319,20155774934,3611011000-3-05400000
세화오피스텔,33 - 생활숙박시설,0,0,전북특별자치도 김제시 백산면 지평선산단2길 318-12,영업,20180223,20155789370,4521033029-3-15970002
청당 더메인즈,33 - 생활숙박시설,36.78239535,127.1562133,충청남도 천안시 동남구 청수11로 34,영업,20180803,20155789475,4413111100-3-05260000
로즈데일인독산,33 - 생활숙박시설,0,0,서울특별시 금천구 범안로12길 29-29 (독산동),영업,20200911,20155798981,1154510200-1-10060112
생활숙박시설,33 - 생활숙박시설,36.35227944,127.3882852,대전광역시 서구 둔산중로64번길 26,영업,20190926,20155803804,3017011200-3-14670000
생활숙박시설,33 - 생활숙박시설,36.35249199,127.381328,대전광역시 서구 둔산로65번길 24,영업,20210122,20155801666,3017011200-3-13280000
생활숙박시설,33 - 생활숙박시설,36.35249199,127.381328,대전광역시 서구 둔산로65번길 24,영업,20201208,20155801667,3017011200-3-13280000
스타웍스타워,33 - 생활숙박시설,36.35259507,127.3822354,대전광역시 서구 둔산로73번길 30,영업,20190313,20155801909,3017011200-3-13120000
스타이어반,33 - 생활숙박시설,36.35299688,127.3822438,대전광역시 서구 둔산로73번길 38,영업,20181017,20155801910,3017011200-3-13100000
애월국민체육센터,34 - 수영장,33.48478476,126.4137776,제주특별자치도 제주시 애월읍 하귀동남1길 22,영업,20060627,20155752149,5011025340-1-01990000
해양레포츠센터,34 - 수영장,35.942681,126.5309675,전북특별자치도 군산시 비응로 105,영업,20180328,20155752684,4513014800-1-01200000
수영장,34 - 수영장,34.75869623,127.6854147,전라남도 여수시 여천체육공원길 53-64,영업,20130429,20155752699,4613013200-1-00270000
칠보물테마유원지,34 - 수영장,35.60611131,126.98542,전북특별자치도 정읍시 칠보면 칠보산로 1555,영업,20090114,20155755756,4518042024-1-10170001
고흥브이실내수영장,34 - 수영장,34.58248638,127.2700226,전라남도 고흥군 고흥읍 장전신전길 140-31,영업,20170928,20155756068,4677025024-1-08850000
상하농원야외수영장,34 - 수영장,35.44430119,126.4508024,전북특별자치도 고창군 상하면 상하농원길 6-26,영업,20190624,20155762087,4579035024-1-03990017
제이풀,34 - 수영장,33.47514642,126.4887182,제주특별자치도 제주시 연화남길 22,영업,20190531,20155760008,5011013700-1-13820000
72스카이,34 - 수영장,0,0,제주특별자치도 제주시 연사6길 57,영업,20181113,20155757304,5011012000-1-17560000
인천 논현(2)지구 집단 에너지 시설,34 - 수영장,0,0,인천광역시 남동구 논현고잔로 173,영업,20031016,20155765402,2820011100-1-09750001
성황수영장,34 - 수영장,34.93641258,127.6824814,전라남도 광양시 도이동 산20,영업,20200619,20155767708,4623010300-2-00200000
도두봉 수영장,34 - 수영장,0,0,제주특별자치도 제주시 서해안로 202,영업,20180730,20155768499,5011012700-1-17500002
호계문화체육센터,34 - 수영장,35.62149423,129.3605882,울산광역시 북구 호수1로 18,영업,20190103,20155771572,3120010100-1-03860001
장성실내수영장,34 - 수영장,35.30055244,126.770541,전라남도 장성군 장성읍 문화로 81,영업,20130806,20155772402,4688025026-1-01320000
군산교육문화회관,34 - 수영장,35.97119189,126.7365047,전북특별자치도 군산시 조촌4길 46,영업,20190605,20155772834,4513013400-1-08530000
한솔동 복합커뮤니티센터 정음관,34 - 수영장,36.47750943,127.2558409,세종특별자치시  나리로 57-26,영업,20170510,20155777629,3611010600-1-09610000
남동국민체육센타,34 - 수영장,37.45790787,126.7363878,인천광역시 남동구 백범로124번길 94,영업,20040224,20155777716,2820010300-1-00150000
수영장,34 - 수영장,33.26830611,126.5650156,제주특별자치도 서귀포시 지장샘로182번길 149,영업,20190221,20155782397,5013010500-1-17800001
강화국민체육센터,34 - 수영장,37.75342881,126.469274,인천광역시 강화군 강화읍 강화대로 591,영업,20130705,20155782969,2871025023-1-00460006
수영장,34 - 수영장,36.82515632,127.155253,충청남도 천안시 동남구 단대1로 14,영업,20160216,20155783003,4413111800-1-03050006
진도국민체육센터,34 - 수영장,34.4855745,126.276476,전라남도 진도군 진도읍 동외4길 126,영업,20090506,20155786945,4690025021-1-09940000
송학빌딩,35 - 수퍼마켓·일용품 등의 소매점,0,0,경기도 성남시 분당구 궁내로 37,영업,20041223,20155894608,4113511200-1-03660043
화장실,35 - 수퍼마켓·일용품 등의 소매점,0,0,경기도 성남시 분당구 궁내로40번길 37-7,영업,20160615,20155894615,4113511200-1-02840000
수퍼마켓·일용품 등의 소매점,35 - 수퍼마켓·일용품 등의 소매점,37.36722206,127.100734,경기도 성남시 분당구 궁내로7번길 27,영업,20040623,20155894617,4113511200-1-02030002
타이어뱅크,35 - 수퍼마켓·일용품 등의 소매점,37.43327567,127.1252976,경기도 성남시 수정구 산성대로 55,영업,20051007,20155894645,4113110300-1-47600000
노브랜드 판교운중점,35 - 수퍼마켓·일용품 등의 소매점,37.39110422,127.0817375,경기도 성남시 분당구 운중로166번길 1,영업,20160929,20155894498,4113511500-1-10180000
수퍼마켓·일용품 등의 소매점,35 - 수퍼마켓·일용품 등의 소매점,37.25609298,127.0213951,경기도 수원시 권선구 세권로 158,영업,20060711,20155894758,4111312600-1-10780000
수퍼마켓·일용품 등의 소매점,35 - 수퍼마켓·일용품 등의 소매점,37.25576559,127.0230379,경기도 수원시 권선구 세권로 172,영업,20100615,20155894760,4111313700-1-10610002
우림빌딩,35 - 수퍼마켓·일용품 등의 소매점,37.27169506,126.9422138,경기도 수원시 권선구 금곡로118번길 64,영업,20170210,20155894916,4111313400-1-10870001
마스트빌딩,35 - 수퍼마켓·일용품 등의 소매점,37.42542167,127.0992324,경기도 성남시 수정구 청계산로 734,영업,20210528,20155894934,4113111200-1-06070000
수퍼마켓·일용품 등의 소매점,35 - 수퍼마켓·일용품 등의 소매점,37.27279654,126.9424996,경기도 수원시 권선구 금곡로118번길 34-14,영업,20180214,20155894688,4111313400-1-10890001
이레빌딩,35 - 수퍼마켓·일용품 등의 소매점,37.39330455,127.1287707,경기도 성남시 분당구 이매로 78-5,영업,20060828,20155894973,4113510600-1-02550001
(롯데하이마트(주)),35 - 수퍼마켓·일용품 등의 소매점,37.48021154,126.7952727,경기도 부천시 소사로 245,영업,20160729,20155894985,4119011000-1-00810003
신영빌딩Ⅱ,35 - 수퍼마켓·일용품 등의 소매점,0,0,경기도 성남시 분당구 대왕판교로 107,영업,20050507,20155895083,4113511100-1-03650006
비젼빌딩,35 - 수퍼마켓·일용품 등의 소매점,0,0,경기도 성남시 분당구 대왕판교로 115,영업,20010209,20155895084,4113511100-1-03500000
베스트빌딩,35 - 수퍼마켓·일용품 등의 소매점,37.35476214,127.1013457,경기도 성남시 분당구 대왕판교로 125,영업,20010824,20155895085,4113511100-1-03540008
골마켓,35 - 수퍼마켓·일용품 등의 소매점,0,0,경기도 성남시 분당구 대왕판교로 137,영업,20010528,20155895087,4113511100-1-03430003
zoozoom,35 - 수퍼마켓·일용품 등의 소매점,0,0,경기도 성남시 분당구 대왕판교로 141,영업,20010822,20155895088,4113511100-1-03410003
casa Alexis,35 - 수퍼마켓·일용품 등의 소매점,0,0,경기도 성남시 분당구 대왕판교로 145,영업,20010119,20155895089,4113511100-1-03300000
수프라벽난로,35 - 수퍼마켓·일용품 등의 소매점,0,0,경기도 성남시 분당구 대왕판교로 149,영업,20010314,20155895090,4113511100-1-03270011
쉐르빌,35 - 수퍼마켓·일용품 등의 소매점,37.44823064,127.1603922,경기도 성남시 중원구 자혜로16번길 26,영업,20071123,20155895127,4113310300-3-42320000
궁내동 327-5 아르데코,36 - 아동복지시설,0,0,경기도 성남시 분당구 궁내로40번길 37,영업,20071018,20155894614,4113511200-1-03270005
은빛어린이집,36 - 아동복지시설,37.45669988,127.1636851,경기도 성남시 중원구 은행로3번길 23,영업,20020502,20155894895,4113310400-1-15780003
아동복지시설,36 - 아동복지시설,35.49238814,129.4199299,울산광역시 동구 월봉7길 31,영업,19990205,20155756567,3117010200-1-08740004
디차힐,36 - 아동복지시설,0,0,인천광역시 중구 마장포로29번길 4,영업,20071218,20155754281,2811014500-1-11750000
고흥푸른꿈유치원 놀이강당,36 - 아동복지시설,0,0,전라남도 고흥군 고흥읍 고흥로 1637-6,영업,20210510,20155754942,4677025024-1-01670004
에덴보육원,36 - 아동복지시설,36.13488005,127.1032138,충청남도 논산시 연무읍 동안로 873-8,영업,20030930,20155753014,4423025324-1-08800000
온지중앙도서관,36 - 아동복지시설,0,0,충청남도 아산시 배방읍 북수서로 48-46,영업,20081223,20155755468,4420025325-1-14820000
너랑나랑 다함께 돌봄센터,36 - 아동복지시설,35.55834135,126.864509,전북특별자치도 정읍시 상사5길 16,영업,20040806,20155755521,4518010300-1-02830003
사랑어린이집,36 - 아동복지시설,37.49956636,126.4892284,인천광역시 중구 신도시북로88번길 11-3,영업,20020827,20155755609,2811014700-1-27250001
윤치호관 공생원,36 - 아동복지시설,34.78627018,126.3703382,전라남도 목포시 해양대학로28번길 2,영업,20150915,20155753763,4611015700-1-04800003
여수시 육아종합지원센터,36 - 아동복지시설,34.74965658,127.6896921,전라남도 여수시 웅천6길 47,영업,20180503,20155753806,4613013400-1-18200001
계룡학사(아동양육),36 - 아동복지시설,36.24434151,127.2244106,충청남도 논산시 연산면 화악1길 27,영업,20140811,20155756379,4423036022-1-01510001
일맥원,36 - 아동복지시설,0,0,전북특별자치도 군산시 석치2길 14,영업,20041218,20155756717,4513011000-1-08240007
세모네모어린이집,36 - 아동복지시설,37.60015977,127.0786107,서울특별시 중랑구 중랑역로 72-8,영업,20011220,20155759490,1126010300-1-03040029
논산애육원,36 - 아동복지시설,36.18599309,127.0920883,충청남도 논산시 득안대로 1363,영업,20150721,20155759520,4423011000-1-00620007
중화문화복지센터,36 - 아동복지시설,37.59501897,127.0748913,서울특별시 중랑구 중랑역로3길 28,영업,19980411,20155759713,1126010300-1-03210037
정읍애육원신관,36 - 아동복지시설,35.56420209,126.8575884,전북특별자치도 정읍시 태평7길 74-7,영업,20130805,20155757093,4518010400-1-01800020
아동복지시설,36 - 아동복지시설,35.55713029,126.8687635,전북특별자치도 정읍시 신경2길 6,영업,20220518,20155760015,4518010300-1-02740106
대흥어린이집,36 - 아동복지시설,0,0,전라남도 고흥군 금산면 금산중촌길 24-30,영업,20031105,20155757409,4677033021-1-05750009
한국전력공사 군산지사,36 - 아동복지시설,0,0,전북특별자치도 군산시 백토로 202,영업,20071123,20155760966,4513014400-3-01140039
하늘정원,37 - 아파트,37.52534232,126.8176666,경기도 부천시 역곡로456번길 36,영업,20200701,20155894564,4119012100-3-03740000
백현마을,37 - 아파트,37.38324223,127.1081325,경기도 성남시 분당구 판교역로 49,영업,20060814,20155894585,4113511000-3-05250000
알찬집,37 - 아파트,37.48292776,126.7785624,경기도 부천시 심곡로9번길 43,영업,20110325,20155894620,4119011100-3-06660005
위브더스테이트,37 - 아파트,0,0,경기도 부천시 신흥로 150-1,영업,20031205,20155894622,4119010800-3-11120000
휴먼스빌,37 - 아파트,37.48286148,126.778724,경기도 부천시 심곡로9번길 47,영업,20101008,20155894624,4119011100-3-06660008
코모도타워,37 - 아파트,37.48279534,126.7791057,경기도 부천시 심곡로9번길 51,영업,20140710,20155894625,4119011100-3-06660004
부천 중동 해링턴플레이스,37 - 아파트,37.49051079,126.7707553,경기도 부천시 심중로 67,영업,20140526,20155894630,4119010800-3-12980000
O2,37 - 아파트,37.52858792,126.8131751,경기도 부천시 성지로112번길 36,영업,20201106,20155894500,4119012100-3-03110001
하림골든뷰APT,37 - 아파트,37.52255383,126.8095104,경기도 부천시 성지로41번길 31,영업,20190123,20155894507,4119012000-3-02890012
동제이지안아파트,37 - 아파트,37.52638804,126.8081225,경기도 부천시 성지로85번길 53,영업,20030630,20155894511,4119012000-3-02700000
다청림아파트,37 - 아파트,0,0,경기도 부천시 소사동로 112,영업,20091231,20155894513,4119011200-3-01580000
광교마을40단지,37 - 아파트,37.29534044,127.0811912,경기도 수원시 영통구 광교마을로 156,영업,20071227,20155894515,4111710400-3-10010000
휴먼시아아파트,37 - 아파트,37.29461436,127.0655342,경기도 수원시 영통구 광교중앙로 247,영업,20071126,20155894528,4111710400-3-09560000
노빌리움,37 - 아파트,37.48627388,126.7690357,경기도 부천시 부일로356번길 34,영업,20200305,20155894711,4119010800-3-08510004
엘리하임,37 - 아파트,37.48604395,126.7704692,경기도 부천시 부일로356번길 39-23,영업,20210312,20155894712,4119010800-3-08720005
블루밍아파트,37 - 아파트,37.48674724,126.7704077,경기도 부천시 부일로362번길 28-6,영업,20190429,20155894713,4119010800-3-08630001
로얄팰리스,37 - 아파트,37.37540548,127.1103781,경기도 성남시 분당구 성남대로 449,영업,19991115,20155894735,4113510300-3-00280001
수원역센트럴어반시티,37 - 아파트,37.26140529,127.0046771,경기도 수원시 권선구 세권로 1,영업,20071106,20155894752,4111312600-3-12800000
소사프라임,37 - 아파트,37.47441761,126.7977307,경기도 부천시 은성로62번길 17,영업,20190311,20155894767,4119011000-3-01950021
소새울 KCC스위첸,37 - 아파트,37.4755023,126.7988228,경기도 부천시 은성로67번길 12,영업,20060609,20155894772,4119011000-3-04240000
백현마을8단지,38 - 아파트 부대복리시설,37.38695035,127.1105233,경기도 성남시 분당구 판교역로 72,영업,20060918,20155894587,4113511000-3-05580000
부천 중동 해링턴플레이스 관리사무소,38 - 아파트 부대복리시설,37.49051079,126.7707553,경기도 부천시 심중로 67,영업,20140526,20155894631,4119010800-3-12980000
로얄팰리스,38 - 아파트 부대복리시설,37.37540548,127.1103781,경기도 성남시 분당구 성남대로 449,영업,19991115,20155894736,4113510300-3-00280001
백현마을7단지,38 - 아파트 부대복리시설,37.38933379,127.1107492,경기도 성남시 분당구 판교역로 98,영업,20060321,20155894813,4113511000-3-05560000
경남아너스빌아파트,38 - 아파트 부대복리시설,37.4341549,126.7904846,경기도 시흥시 시흥대로 1119-3,영업,20050622,20155895025,4139010200-3-09430001
휴먼시아,38 - 아파트 부대복리시설,37.4369716,126.7906065,경기도 시흥시 시흥대로 1133,영업,20100705,20155895033,4139010200-3-09460000
아파트 부대복리시설,38 - 아파트 부대복리시설,37.43258339,127.1572147,경기도 성남시 중원구 둔촌대로363번길 4,영업,20030630,20155895068,4113310900-1-02280000
금호어울림,38 - 아파트 부대복리시설,37.43096309,127.137717,경기도 성남시 중원구 둔촌대로171번길 6,영업,20030630,20155895073,4113310100-3-31260000
여월휴먼시아,38 - 아파트 부대복리시설,0,0,경기도 부천시 소사로 639,영업,20031218,20155895217,4119011800-3-02960000
시흥 은행4차 푸르지오,38 - 아파트 부대복리시설,37.43940447,126.7963029,경기도 시흥시 은행로 93-1,영업,20101029,20155895257,4139010600-3-05990001
시흥 은행4차 푸르지오,38 - 아파트 부대복리시설,37.43940447,126.7963029,경기도 시흥시 은행로 93-1,영업,20011029,20155895258,4139010600-3-05990001
시흥신천삼환나우빌,38 - 아파트 부대복리시설,37.43614082,126.7916514,경기도 시흥시 시흥대로 1144,영업,20120306,20155895261,4139010200-3-09490000
판교원마을,38 - 아파트 부대복리시설,37.38663517,127.0887016,경기도 성남시 분당구 판교원로 207,영업,20060814,20155895289,4113510800-3-06340000
판교원마을,38 - 아파트 부대복리시설,37.38800019,127.0906455,경기도 성남시 분당구 판교원로 209,영업,20060228,20155895291,4113510800-3-06350000
판교원마을,38 - 아파트 부대복리시설,37.38760115,127.0921291,경기도 성남시 분당구 판교원로 237,영업,20060228,20155895294,4113510800-3-06370000
산운마을,38 - 아파트 부대복리시설,37.38942324,127.0726657,경기도 성남시 분당구 판교원로 46,영업,20051229,20155895300,4113511500-3-09210000
아파트 부대복리시설,38 - 아파트 부대복리시설,37.43621162,127.1615398,경기도 성남시 중원구 둔촌대로401번길 31,영업,20090320,20155895314,4113310500-3-17610000
아파트 부대복리시설,38 - 아파트 부대복리시설,37.45003213,127.1654884,경기도 성남시 중원구 자혜로54번길 8,영업,20030219,20155895367,4113310300-3-28920000
아파트 부대복리시설,38 - 아파트 부대복리시설,37.42938115,127.1376641,경기도 성남시 중원구 제일로 22,영업,20090320,20155895373,4113310900-3-01110000
문수그린,38 - 아파트 부대복리시설,0,0,전라남도 여수시 문수북5길 16,영업,20000612,20155751564,4613012000-3-00080008
안마시술소,39 - 안마시술소,35.49530192,129.4277309,울산광역시 동구 방어진순환도로 602-1,영업,20040703,20155752982,3117010200-1-06450024
안마시술소,39 - 안마시술소,37.60103669,126.6586839,인천광역시 서구 완정로117번길 41,영업,20030527,20155758774,2826012000-1-06650006
김승호씨근,생,39 - 안마시술소,36.78556521,127.0014063,충청남도 아산시 시민로 415,영업,20010411,20155763318,4420010100-1-00210006
안마시술소,39 - 안마시술소,36.34903263,126.5993316,충청남도 보령시 목장2길 31,영업,20230327,20155769141,4418010100-1-06180390
이노 프라자,39 - 안마시술소,37.44580682,126.7017008,인천광역시 남동구 성말로 9,영업,20211216,20155777711,2820010100-3-14570000
흥인빌딩,39 - 안마시술소,0,0,인천광역시 남동구 앵고개로934번길 51,영업,20211206,20155782625,2820011000-3-06760007
명품블라스타,39 - 안마시술소,36.8106738,127.1095013,충청남도 천안시 서북구 검은들1길 9,영업,20040506,20155787254,4413310800-3-07110000
천사직판장,39 - 안마시술소,34.86473119,126.3150008,전라남도 신안군 압해읍 압해로 860-1,영업,20090317,20155784883,4691025326-3-06220002
오성빌딩,39 - 안마시술소,35.81641073,127.1083576,전북특별자치도 전주시 완산구 홍산남로 59-5,영업,20110211,20155787728,4511114200-1-15330007
조원빌딩,39 - 안마시술소,34.80213483,126.4286711,전라남도 목포시 번영로 31,영업,20030104,20155792067,4611015800-1-10060002
빈안마,39 - 안마시술소,36.82642355,127.1435608,충청남도 천안시 서북구 성정공원3길 23 (성정동),영업,20030403,20155741658,4413310200-1-14170000
중앙프라자,39 - 안마시술소,0,0,충청남도 천안시 서북구 성정공원5로 26,영업,20021204,20155741829,4413310200-3-14830000
반도메르디앙빌딩,39 - 안마시술소,0,0,충청남도 천안시 서북구 성정공원5로 30,영업,20030411,20155741830,4413310200-3-14730000
리치프라자2,39 - 안마시술소,36.82789305,127.1445464,충청남도 천안시 서북구 성정공원5로 63,영업,20020618,20155741878,4413310200-3-13900000
삐에로안마,39 - 안마시술소,36.79786002,127.1294708,충청남도 천안시 서북구 차돌들길 8,영업,20030728,20155744790,4413310700-1-02100023
안마시술소,39 - 안마시술소,36.82878429,127.1363469,충청남도 천안시 서북구 성정중7길 29,영업,20020530,20155742267,4413310200-1-11570000
아시스타워,39 - 안마시술소,37.41531387,126.6774912,인천광역시 연수구 용담로 111,영업,20020629,20155794645,2818510300-3-05960006
국제화복합단지 1호 근린공원,39 - 안마시술소,36.30624671,127.3516279,대전광역시 서구 도안동로11번길 22,영업,20150528,20155797622,3017011500-1-17670000
럭키프라자3,39 - 안마시술소,36.30616344,127.3512911,대전광역시 서구 도안동로11번길 28,영업,20180220,20155797627,3017011500-3-17660000
굿타이마사지,39 - 안마시술소,34.85873481,128.4276452,경상남도 통영시 무전8길 21-6,영업,20001219,20155848609,4822011100-1-10340001
음성군야외음악당,40 - 야외음악당·야외극장·어린이회관,36.93278892,127.6910199,충청북도 음성군 음성읍 설성공원길 28,영업,20020919,20155741108,4377025021-1-04460001
제천시민광장,40 - 야외음악당·야외극장·어린이회관,37.13087745,128.2159939,충청북도 제천시 숭의로 85,영업,20000215,20155742885,4315010900-1-00010000
삼국유사테마파크(이야기학교),40 - 야외음악당·야외극장·어린이회관,36.16083545,128.7012611,경상북도 군위군 의흥면 일연테마로 100,영업,20191024,20155885868,4772035035-1-16530000
삼국유사테마파크(주제관),40 - 야외음악당·야외극장·어린이회관,36.16083545,128.7012611,경상북도 군위군 의흥면 일연테마로 100,영업,20191024,20155885869,4772035035-1-16530000
용인죽전야외음악당,40 - 야외음악당·야외극장·어린이회관,37.32544816,127.1264739,경기도 용인시 수지구 죽전로168번길 9,영업,20040604,20155888695,4146510200-1-13400000
판교테크노 국공립어린이집,41 - 어린이집,37.39890632,127.109224,경기도 성남시 분당구 판교역로 203,영업,20151023,20155894575,4113510900-1-06690000
휴맥스어린이집,41 - 어린이집,0,0,경기도 성남시 분당구 궁내로 52,영업,20150818,20155894610,4113511200-1-03500005
붕붕어린이집,41 - 어린이집,0,0,경기도 부천시 성지로42번길 9-4,영업,20010416,20155894509,4119012100-1-02950019
어린이집,41 - 어린이집,0,0,경기도 부천시 부일로394번길 20,영업,20100319,20155894716,4119010200-1-03590004
굿모닝 어린이집,41 - 어린이집,37.25777138,127.0167473,경기도 수원시 권선구 세권로 111-1,영업,20101222,20155894754,4111312600-1-08730004
나라키움 광교법조단지 수원고지검청사 어린이집,41 - 어린이집,37.29066288,127.0663076,경기도 수원시 영통구 광교중앙로248번길 50,영업,20140509,20155894761,4111710400-1-09880000
백현하나어린이집,41 - 어린이집,37.3889732,127.1081237,경기도 성남시 분당구 판교역로 87,영업,20201110,20155894812,4113511000-1-05230000
성남숲 어린이집,41 - 어린이집,0,0,경기도 성남시 분당구 내정로119번길 2,영업,20130827,20155894852,4113510300-1-00520000
분당경찰서 직장어린이집,41 - 어린이집,0,0,경기도 성남시 분당구 내정로166번길 19,영업,20190725,20155894854,4113510200-1-00600000
산성 실내배드민턴장(산성 제3 어린이집),41 - 어린이집,37.46046146,127.1556532,경기도 성남시 수정구 수정로456번길 19,영업,20100507,20155894876,4113110500-2-00060000
한빛 어린이집,41 - 어린이집,0,0,경기도 부천시 삼작로 363,영업,20130130,20155894903,4119012000-1-03870010
고색NEWSEUM,41 - 어린이집,37.24001211,126.9740497,경기도 수원시 권선구 산업로 85,영업,20041209,20155894924,4111312800-1-09790000
시립 산업3단지 어린이집,41 - 어린이집,37.24197304,126.9841146,경기도 수원시 권선구 산업로 174-21,영업,20121013,20155894690,4111312800-1-10950000
금곡동 행정복지센터,41 - 어린이집,37.27273093,126.9521896,경기도 수원시 권선구 금곡로196번길 20,영업,20140430,20155895158,4111313400-1-11190004
보람아트브레인어린이집,41 - 어린이집,0,0,경기도 부천시 부일로619번길 26-29,영업,20111124,20155895189,4119010600-1-00340010
판교 어린이집,41 - 어린이집,37.38594842,127.0882073,경기도 성남시 분당구 판교원로 200,영업,20081219,20155895287,4113510800-1-06320000
무주어린이집,41 - 어린이집,36.00508697,127.6523507,전북특별자치도 무주군 무주읍 주계로 17,영업,20080806,20155751533,4573025021-1-12090000
고려어린이집,41 - 어린이집,34.7594551,127.7068918,전라남도 여수시 문수북6길 35-1,영업,20210720,20155751568,4613012000-1-00580010
꿈나무 어린이집,41 - 어린이집,34.81273379,126.4114004,전라남도 목포시 상동로21번길 65,영업,20070424,20155751745,4611015800-1-03770003
율곡어린이집,41 - 어린이집,33.51153448,126.5127048,제주특별자치도 제주시 용담로 94-3,영업,20130213,20155751698,5011010900-1-03580006
연립주택,42 - 연립주택,37.44618492,127.1800798,경기도 성남시 중원구 사기막골로199번길 15,영업,20160827,20155894590,4113310500-3-01140002
두산골드타운,42 - 연립주택,37.44648533,127.1800077,경기도 성남시 중원구 사기막골로199번길 19,영업,20090320,20155894595,4113310500-3-01140000
빕스빌,42 - 연립주택,37.36957246,127.0984031,경기도 성남시 분당구 궁내로 27,영업,20020204,20155894607,4113511200-3-03470020
리더스빌,42 - 연립주택,0,0,경기도 성남시 분당구 궁내로22번길 27,영업,20080721,20155894611,4113511200-3-03170011
리더스빌 Ⅱ,42 - 연립주택,37.37008015,127.1003782,경기도 성남시 분당구 궁내로40번길 32,영업,20030925,20155894613,4113511200-3-03430051
하이츠빌리지 208동,42 - 연립주택,37.37023466,127.0930017,경기도 성남시 분당구 궁내로67번길 11,영업,20000811,20155894616,4113511200-3-03680003
연립주택,42 - 연립주택,37.44994899,127.1452497,경기도 성남시 수정구 수정로279번길 9,영업,19990601,20155894637,4113110100-3-00390000
연립주택,42 - 연립주택,37.26916422,126.9812691,경기도 수원시 권선구 서호서로7번길 20,영업,20180118,20155894526,4111313100-3-00970072
엘파크,42 - 연립주택,0,0,경기도 부천시 역곡로482번길 37,영업,20170810,20155894807,4119012100-3-03770005
연립주택,42 - 연립주택,37.44507289,127.1810809,경기도 성남시 중원구 사기막골로203번길 6,영업,20090320,20155894831,4113310500-3-00370000
동양파크타운,42 - 연립주택,37.36936251,127.0999159,경기도 성남시 분당구 궁내로7번길 4,영업,20100308,20155894841,4113511200-3-03450006
두앙노빌리티3차,42 - 연립주택,0,0,경기도 성남시 분당구 금곡로 115,영업,20020704,20155894842,4113511400-3-01050000
현대노블리스,42 - 연립주택,0,0,경기도 성남시 분당구 금곡로 171,영업,19981117,20155894843,4113511400-3-00820000
현대그린빌라,42 - 연립주택,37.39040764,127.1353372,경기도 성남시 분당구 이매로 148,영업,19990823,20155894960,4113510600-3-03440001
이매동연립주택 베스티아3차,42 - 연립주택,37.3903062,127.1364982,경기도 성남시 분당구 이매로 160,영업,20050722,20155894962,4113510600-3-03340002
금강 펜테리움 레전드,42 - 연립주택,37.38939127,127.0774797,경기도 성남시 분당구 판교원로 101,영업,20071029,20155895060,4113511500-3-09260000
판교원마을,42 - 연립주택,37.38563709,127.0865378,경기도 성남시 분당구 판교원로 186,영업,20060814,20155895062,4113510800-3-06310000
논현동 132-15 공동주택,42 - 연립주택,37.39169299,127.1352979,경기도 성남시 분당구 이매로123번길 12,영업,20020305,20155895200,4113510600-3-02960000
진흥아마란스,42 - 연립주택,37.3913325,127.1352096,경기도 성남시 분당구 이매로133번길 16,영업,20040329,20155895202,4113510600-3-03080000
베스티아 5차,42 - 연립주택,37.39086835,127.136185,경기도 성남시 분당구 이매로133번길 23,영업,20080901,20155895206,4113510600-3-03410000
성남 운중동우체국,43 - 우체국,37.39088553,127.0786894,경기도 성남시 분당구 운중로138번길 7-1,영업,20080702,20155894497,4113511500-1-09370000
수내동우체국,43 - 우체국,0,0,경기도 성남시 분당구 내정로166번길 27,영업,19980411,20155894855,4113510200-1-00610000
진산우체국,43 - 우체국,36.14385301,127.3695111,충청남도 금산군 진산면 읍내로 61,영업,19980411,20155751678,4471037028-1-05540007
제주관광대학교우편취급국,43 - 우체국,33.44748023,126.4343028,제주특별자치도 제주시 애월읍 평화로 2715,영업,19980411,20155751700,5011025321-1-25350000
위도우체국,43 - 우체국,0,0,전북특별자치도 부안군 위도면 파장금안길 259,영업,19980411,20155751984,4580042021-1-02140000
인천용유동우편물취급소,43 - 우체국,37.4448387,126.4008907,인천광역시 중구 마시란로 314-32,영업,19980411,20155754273,2811015000-2-00940008
미평우체국,43 - 우체국,34.76913675,127.7086831,전라남도 여수시 미평로 67,영업,19980411,20155752022,4613012200-1-02800010
영흥우체국,43 - 우체국,37.25317534,126.4702717,인천광역시 옹진군 영흥면 영흥로 410,영업,20010613,20155752025,2872036022-1-02380052
양촌우체국,43 - 우체국,36.13756983,127.2333484,충청남도 논산시 양촌면 매죽헌로1665번길 17,영업,20100413,20155752129,4423039021-1-04010000
강경우체국,43 - 우체국,36.1620595,127.0143174,충청남도 논산시 강경읍 계백로167번길 53-1,영업,19980411,20155754595,4423025024-1-00630001
우체국,43 - 우체국,34.80660549,127.6688694,전라남도 여수시 여수산단로 274-5,영업,20150710,20155752236,4613014200-1-11470004
군동우체국,43 - 우체국,34.64508484,126.8157647,전라남도 강진군 군동면 진흥로 323,영업,19980411,20155752251,4681031023-1-01140001
몽탄우체국,43 - 우체국,34.93188377,126.5030264,전라남도 무안군 몽탄면 몽탄로 848,영업,19980411,20155754666,4684032031-1-07350000
우체국,43 - 우체국,35.4867261,129.4211934,울산광역시 동구 북진1길 34,영업,20201215,20155754769,3117010100-1-10830005
산외우체국,43 - 우체국,35.62095629,127.0392613,전북특별자치도 정읍시 산외면 운전2길 2,영업,19980411,20155754854,4518044022-1-04650006
정읍상동우체국,43 - 우체국,0,0,전북특별자치도 정읍시 충정로 120,영업,19980411,20155754864,4518010300-1-04010003
무거2동우체국,43 - 우체국,0,0,울산광역시 남구 옥현로58번길 19,영업,20010611,20155754992,3114010100-1-04680003
정우우체국,43 - 우체국,35.64243661,126.876528,전북특별자치도 정읍시 정신로 584-1,영업,19980411,20155752612,4518038027-1-00580002
우체국,43 - 우체국,0,0,전북특별자치도 부안이군 보안면 전북특별자치도 부안으로 1134,영업,20060802,20155755120,4580035021-1-05300001
군산대학교우편취급국,43 - 우체국,35.95034571,126.6803568,전북특별자치도 군산시 대학로 558,영업,20061214,20155755132,4513014500-1-02900002
연무읍아리스타골프장,44 - 운동장(육상·구기·볼링·수영·스케이트·롤러스케이트·승마·사격·궁도·골프)과 부수되는 건축물,36.08762023,127.1306722,충청남도 논산시 연무읍 연무로 810,영업,20180705,20155754357,4423025330-1-14390000
운동장(육상·구기·볼링·수영·스케이트·롤러스케이트·승마·사격·궁도·골프)과 부수되는 건축물,44 - 운동장(육상·구기·볼링·수영·스케이트·롤러스케이트·승마·사격·궁도·골프)과 부수되는 건축물,37.54329804,126.6761842,인천광역시 서구 심곡로55번길 14,영업,19990414,20155752276,2826010700-1-02480010
무주안성CC,44 - 운동장(육상·구기·볼링·수영·스케이트·롤러스케이트·승마·사격·궁도·골프)과 부수되는 건축물,35.83128655,127.6365534,전북특별자치도 무주군 안성면 장무로 1537-21,영업,20090527,20155754673,4573034022-1-20300000
운동장(육상·구기·볼링·수영·스케이트·롤러스케이트·승마·사격·궁도·골프)과 부수되는 건축물,44 - 운동장(육상·구기·볼링·수영·스케이트·롤러스케이트·승마·사격·궁도·골프)과 부수되는 건축물,37.54630031,126.6716061,인천광역시 서구 승학로271번길 15,영업,20100219,20155754735,2826010700-1-03250023
강경실내수영장,44 - 운동장(육상·구기·볼링·수영·스케이트·롤러스케이트·승마·사격·궁도·골프)과 부수되는 건축물,36.14682673,127.0228361,충청남도 논산시 강경읍 동안로112번길 46,영업,20100430,20155755263,4423025032-1-02400006
다산베아체골프장,44 - 운동장(육상·구기·볼링·수영·스케이트·롤러스케이트·승마·사격·궁도·골프)과 부수되는 건축물,34.54802234,126.7585023,전라남도 강진군 도암면 학장용산길 101,영업,20180123,20155752933,4681034027-2-00870001
운동장(육상·구기·볼링·수영·스케이트·롤러스케이트·승마·사격·궁도·골프)과 부수되는 건축물,44 - 운동장(육상·구기·볼링·수영·스케이트·롤러스케이트·승마·사격·궁도·골프)과 부수되는 건축물,37.4623831,126.4854499,인천광역시 중구 공항동로 136,영업,20130522,20155752937,2811014700-1-31940000
공설운동장,44 - 운동장(육상·구기·볼링·수영·스케이트·롤러스케이트·승마·사격·궁도·골프)과 부수되는 건축물,34.61552273,127.300319,전라남도 고흥군 고흥읍 고흥로 1892-67,영업,20001014,20155755386,4677025025-1-09570000
로얄스포츠센타,44 - 운동장(육상·구기·볼링·수영·스케이트·롤러스케이트·승마·사격·궁도·골프)과 부수되는 건축물,37.59532179,127.0795771,서울특별시 중랑구 망우로 247,영업,19980626,20155755448,1126010300-1-02070000
바다코스,44 - 운동장(육상·구기·볼링·수영·스케이트·롤러스케이트·승마·사격·궁도·골프)과 부수되는 건축물,37.48459004,126.4692928,인천광역시 중구 공항동로 392,영업,20040827,20155753149,2811014700-1-18410008
하늘코스,44 - 운동장(육상·구기·볼링·수영·스케이트·롤러스케이트·승마·사격·궁도·골프)과 부수되는 건축물,37.45383942,126.4839589,인천광역시 중구 공항동로135번길 267,영업,20040827,20155753150,2811014700-1-25850017
계산국민체육센타,44 - 운동장(육상·구기·볼링·수영·스케이트·롤러스케이트·승마·사격·궁도·골프)과 부수되는 건축물,37.54611278,126.7291915,인천광역시 계양구 주부토로 580,영업,20000825,20155755537,2824510200-1-09070002
구림 전천후게이트볼장,44 - 운동장(육상·구기·볼링·수영·스케이트·롤러스케이트·승마·사격·궁도·골프)과 부수되는 건축물,35.45530126,127.0979875,전북특별자치도 순창군 구림면 방화로 52,영업,20081226,20155755573,4577040029-1-10000000
제이원빌딩,44 - 운동장(육상·구기·볼링·수영·스케이트·롤러스케이트·승마·사격·궁도·골프)과 부수되는 건축물,0,0,제주특별자치도 제주시 연북로 424,영업,20191220,20155755739,5011012900-1-04110006
무주리조트 골프 클럽하우스,44 - 운동장(육상·구기·볼링·수영·스케이트·롤러스케이트·승마·사격·궁도·골프)과 부수되는 건축물,0,0,전북특별자치도 무주군 설천면 만선로 185,영업,20030516,20155753553,4573032029-1-12990004
jdx제주도남점,44 - 운동장(육상·구기·볼링·수영·스케이트·롤러스케이트·승마·사격·궁도·골프)과 부수되는 건축물,0,0,제주특별자치도 제주시 연북로 436,영업,20150915,20155755954,5011012900-1-02850001
군산국민체육센터,44 - 운동장(육상·구기·볼링·수영·스케이트·롤러스케이트·승마·사격·궁도·골프)과 부수되는 건축물,0,0,전북특별자치도 군산시 대야면 석화로 63-15,영업,20191028,20155754015,4513035021-1-07950001
화순볼링장,44 - 운동장(육상·구기·볼링·수영·스케이트·롤러스케이트·승마·사격·궁도·골프)과 부수되는 건축물,35.05545631,126.9810364,전라남도 화순군 화순읍 쌍충로 41,영업,20040422,20155762095,4679025031-1-06640001
원스크린골프,44 - 운동장(육상·구기·볼링·수영·스케이트·롤러스케이트·승마·사격·궁도·골프)과 부수되는 건축물,35.97048655,126.6847634,전북특별자치도 군산시 설림5길 23-1,영업,20140808,20155756937,4513014600-1-14510002
오라타워,44 - 운동장(육상·구기·볼링·수영·스케이트·롤러스케이트·승마·사격·궁도·골프)과 부수되는 건축물,33.48246665,126.5094238,제주특별자치도 제주시 연사6길 61,영업,20200311,20155757308,5011012000-3-17560001
운전학원,45 - 운전학원,34.81641684,126.4306168,전라남도 목포시 선곡로 20,영업,20040602,20155751978,4611016400-1-07730004
신진자동차운전 전문학원,45 - 운전학원,37.52610929,126.7551595,인천광역시 계양구 아나지로 561,영업,19981229,20155753750,2824510400-1-01420005
광양운전면허시험장,45 - 운전학원,34.96140032,127.571891,전라남도 광양시 광양읍 대학로 11,영업,20150818,20155760557,4623025035-1-18260000
강진운전전문학원,45 - 운전학원,34.67437456,126.7263561,전라남도강진군성전면 송계로629-21,영업,19980411,20155764776,4681036030-1-04600000
천일자동차학원,45 - 운전학원,35.29366626,127.3257074,전라남도 곡성군 곡성읍 곡고로 277,영업,20001129,20155766142,4672025030-1-05050036
운전학원,45 - 운전학원,35.87204567,127.1007911,전북특별자치도 전주시 덕진구 한내로 21,영업,20055122,20155766247,4511313300-1-10000002
운전학원,45 - 운전학원,35.84675957,127.1660263,전북특별자치도 전주시 덕진구 장재길 4,영업,20040114,20155769607,4511311500-1-03040000
운전학원,45 - 운전학원,35.96841316,126.9927734,전북특별자치도 익산시 부송로16길 40,영업,20021028,20155779975,4514013400-1-03030006
A동,45 - 운전학원,36.28008825,127.2401574,충청남도 계룡시 엄사면 계백로 3080-10,영업,20000107,20155783057,4425031522-1-00060004
나주자동차운전전문학원,45 - 운전학원,35.00832322,126.6696098,전라남도 나주시 다시면 구진포로 28,영업,20041215,20155780466,4617036023-1-00880000
운전학원,45 - 운전학원,0,0,충청북도 청주시 청원구 내수읍 구성길 17,영업,20030313,20155740618,4311425033-1-01770001
중앙삼성자동차운전학원,45 - 운전학원,0,0,충청남도 천안시 서북구 부대3길 7,영업,20150901,20155741916,4413311100-1-00980000
운전학원,45 - 운전학원,0,0,대구광역시 서구 와룡로98길 3,영업,20161028,20155798055,2717010600-1-00420039
운전학원,45 - 운전학원,36.30334987,127.3557072,대전광역시 서구 벌곡로1384번길 38,영업,20020209,20155806193,3017011400-1-00940001
사상자동차학원,45 - 운전학원,35.14268211,128.9759938,부산광역시 사상구 장인로 59,영업,20040901,20155809668,2653010700-1-07290002
대청중장비운전학원,45 - 운전학원,36.44831758,127.4381803,대전광역시 대덕구 신탄진동로 78,영업,20110630,20155821416,3023012600-1-02160006
명진자동차운전학원,45 - 운전학원,35.16524724,129.1295992,부산광역시 해운대구 센텀남대로 20,영업,19990203,20155821801,2635010500-1-12910031
운전학원,45 - 운전학원,36.2849602,127.4617527,대전광역시 동구 산서로1660번길 90,영업,19980411,20155838128,3011013700-1-00740001
남양산자동차운전전문학원,45 - 운전학원,35.32740074,129.0298868,경상남도 양산시 동면 남양산2길 26,영업,20021011,20155844603,4833031026-1-14230001
자동차관련시설(운전학원),45 - 운전학원,0,0,경기도 평택시 울성길 35 (신대동),영업,19981210,20155848040,4122012200101420032
서둔동성당복자유치원,46 - 유치원,37.26974513,126.9831153,경기도 수원시 권선구 서호서로21번길 32,영업,20050111,20155894520,4111313100-1-01500046
사랑나무 유치원,46 - 유치원,37.48710068,126.771274,경기도 부천시 부일로370번길 9,영업,20130531,20155894715,4119010800-1-07940023
하늘유치원,46 - 유치원,37.27172759,126.9414971,경기도 수원시 권선구 금곡로102번길 56,영업,20150216,20155894686,4111313400-1-10840000
꿈누리유치원,46 - 유치원,37.29046044,127.0707723,경기도 수원시 영통구 광교중앙로266번길 79,영업,20130111,20155894996,4111710400-1-09820000
샬롬교육비젼센터,46 - 유치원,37.43971542,126.7974621,경기도 시흥시 은행로 92,영업,20030415,20155895030,4139010600-3-05470007
고등나래유치원,46 - 유치원,37.42697223,127.0965011,경기도 성남시 수정구 청계산로2길 34,영업,20200928,20155894938,4113111200-1-05980000
나포초병설유,46 - 유치원,36.0304495,126.8336366,전북특별자치도 군산시 나포면 교동1길 23,영업,20020831,20155751549,4513038023-1-02610000
숲속성광유치원,46 - 유치원,36.77148233,127.0243783,충청남도 아산시 남부로 370-54,영업,20080730,20155751656,4420011100-1-01160000
도학초병설유치원,46 - 유치원,35.62856696,126.8188542,전북특별자치도 정읍시 동학로 635,영업,20041221,20155751942,4518036021-1-02430001
태인초병설유치원,46 - 유치원,35.985565,126.8504673,전북특별자치도 정읍시 동헌길 16,영업,20030520,20155751947,4518039024-1-04290000
뽀뽀뽀유치원,46 - 유치원,35.7137483,126.7378298,전북특별자치도 부안군 옹정로 317-1,영업,20000724,20155751763,4580025024-1-04150003
이른아침유치원,46 - 유치원,35.97468512,126.7393694,전북특별자치도 군산시 부골2길 13-2,영업,20120716,20155751786,4513013400-1-07350007
서라벌유치원,46 - 유치원,35.51644051,129.4269412,울산광역시 동구 바드래길 92-2,영업,20091228,20155751851,3117010400-1-03000218
군산금광초병설유,46 - 유치원,36.67456054,126.8626679,전북특별자치도 군산시 대학로 100,영업,20060712,20155754244,4513010700-2-00280001
청라유치원,46 - 유치원,37.52491344,126.628576,인천광역시 서구 솔빛로 68,영업,20120516,20155752044,2826012200-1-01050004
오렌지동화나라유치원,46 - 유치원,35.97171047,126.6983488,전북특별자치도 군산시 상신5길 6-3,영업,20010421,20155754475,4513014400-1-07420022
정읍초병설유치원,46 - 유치원,0,0,전북특별자치도 정읍시 마곡로 33,영업,20011112,20155752169,4518010100-1-01710001
진달래빌딩,46 - 유치원,37.598737,127.0868568,서울특별시 중랑구 상봉중앙로1가길 13,영업,20040205,20155754552,1126010200-1-01900086
유치원,46 - 유치원,34.8084203,126.4018884,전라남도 목포시 송림로 27,영업,19980411,20155752195,4611010100-1-03110004
영종유치원,46 - 유치원,0,0,인천광역시 중구 백운로 57-25,영업,20080709,20155754723,2811014500-1-13470001
선호프라자,47 - 의원·치과의원·한의원·조산소·산후조리원,37.44392792,126.8039752,경기도 시흥시 은계호수로 23,영업,20190521,20155894552,4139010600-3-06110003
그린타워,47 - 의원·치과의원·한의원·조산소·산후조리원,37.44451356,126.8034256,경기도 시흥시 은계호수로 31,영업,20190714,20155894553,4139010600-3-06110001
태영빌딩,47 - 의원·치과의원·한의원·조산소·산후조리원,37.45369886,127.1603484,경기도 성남시 수정구 산성대로 469,영업,20080508,20155894633,4113110400-1-00690003
도영빌딩,47 - 의원·치과의원·한의원·조산소·산후조리원,37.45848835,127.1641031,경기도 성남시 수정구 산성대로 531,영업,20210706,20155894640,4113110600-1-02300000
의원·치과의원·한의원·조산소·산후조리원,47 - 의원·치과의원·한의원·조산소·산후조리원,37.45884313,127.1643917,경기도 성남시 수정구 산성대로 537,영업,20170327,20155894644,4113110600-1-02240000
은행동제1종근린생활시설 (정건영),47 - 의원·치과의원·한의원·조산소·산후조리원,37.45794846,127.1648137,경기도 성남시 중원구 은이로5번길 1,영업,20120803,20155894648,4113310400-1-09870000
의원·치과의원·한의원·조산소·산후조리원,47 - 의원·치과의원·한의원·조산소·산후조리원,37.25539078,127.0247198,경기도 수원시 권선구 세권로 188,영업,20080625,20155894764,4111313700-1-10620001
THE STORE by eroom,47 - 의원·치과의원·한의원·조산소·산후조리원,37.42719411,127.095336,경기도 성남시 수정구 청계산로 695,영업,20190911,20155894933,4113111200-3-05970000
SS빌딩,47 - 의원·치과의원·한의원·조산소·산후조리원,37.46949625,126.7969182,경기도 부천시 소사로 124,영업,20151021,20155894977,4119011000-1-03190001
이에스타워,47 - 의원·치과의원·한의원·조산소·산후조리원,37.47896575,126.7952894,경기도 부천시 소사로 231,영업,20200410,20155894983,4119011000-1-00820003
상우빌딩,47 - 의원·치과의원·한의원·조산소·산후조리원,37.4806537,126.7957646,경기도 부천시 소사로 250,영업,20201020,20155894986,4119011000-1-01280016
영지프라자,47 - 의원·치과의원·한의원·조산소·산후조리원,37.4723679,126.8015049,경기도 부천시 은성로98번길 64,영업,20070502,20155895009,4119011000-1-02780054
골드타워,47 - 의원·치과의원·한의원·조산소·산후조리원,37.39747826,127.1120451,경기도 성남시 분당구 판교역로192번길 14-2,영업,20100406,20155895052,4113510900-1-06600000
GJS빌딩,47 - 의원·치과의원·한의원·조산소·산후조리원,0,0,경기도 부천시 소사로 664,영업,20100519,20155895220,4119011800-1-00480007
허브치과의원,47 - 의원·치과의원·한의원·조산소·산후조리원,0,0,경기도 부천시 소사로 680,영업,20090608,20155895222,4119011900-1-00630007
빈센트타워,47 - 의원·치과의원·한의원·조산소·산후조리원,0,0,경기도 부천시 신흥로 226,영업,20051117,20155895331,4119010800-1-10620003
오케이 내과의원(1층 2층 3층),47 - 의원·치과의원·한의원·조산소·산후조리원,34.63877005,126.7626407,전라남도 강진군 강진읍 탐진로 51-11,영업,20120210,20155751580,4681025023-3-00850001
석바위VIP클리닉(경인로 693),47 - 의원·치과의원·한의원·조산소·산후조리원,37.45823827,126.6884075,인천광역시 미추홀구 경인로 433,영업,20060301,20155751619,2817710500-3-10070005
배양규비뇨기과,47 - 의원·치과의원·한의원·조산소·산후조리원,35.53735205,129.3259181,울산광역시 남구 삼산로 171,영업,20180509,20155751626,3114010500-1-05900006
M다온팰리스,47 - 의원·치과의원·한의원·조산소·산후조리원,36.77453351,127.0539482,충청남도 아산시 배방읍 배방로 26,영업,20110316,20155751665,4420025324-1-15700000
선사교회 부설 교육연구 및 사회복지시설,48 - 이외 사회복지시설,37.42025507,127.1162191,경기도 성남시 수정구 탄천로319번길 4,영업,20051020,20155895181,4113111700-1-06310010
장애인회관,48 - 이외 사회복지시설,37.51614949,126.7758744,경기도 부천시 신흥로 364,영업,20181106,20155895345,4119012400-1-00600000
이외 사회복지시설,48 - 이외 사회복지시설,37.60987758,126.6515481,인천광역시 서구 세자봉로76번길 11,영업,20010108,20155751603,2826011800-1-01190000
신광모자원,48 - 이외 사회복지시설,35.95730993,126.686235,전북특별자치도 군산시 부곡로 19,영업,20050304,20155751778,4513014400-1-12420009
나포길벗공동체,48 - 이외 사회복지시설,36.05247001,126.8595894,전북특별자치도 군산시 나포면 철새로 1127-19,영업,20081031,20155751996,4513038021-1-03350000
망운종합복지회관,48 - 이외 사회복지시설,35.01193846,126.3886202,전라남도 무안군 망운면 운해로 1379,영업,20090609,20155754434,4684035022-1-02280001
아산서부사회복지관,48 - 이외 사회복지시설,36.75694701,126.8800547,충청남도 아산시 도고면 도고면로110번길 16,영업,20031113,20155752110,4420040036-1-02640017
한울빌리지,48 - 이외 사회복지시설,36.1938654,127.1965106,충청남도 논산시 양촌면 계백한전길 161,영업,20070725,20155752117,4423039034-1-03940002
새터공동체교회,48 - 이외 사회복지시설,36.22216004,127.5086229,충청남도 금산군 추부면 군북로 1403-31,영업,20060803,20155752124,4471039028-1-01160001
중구장애인복지관,48 - 이외 사회복지시설,37.45278277,126.6282058,인천광역시 중구 매소홀로 10,영업,20061219,20155754494,2811012800-1-00300017
원광보은의집,48 - 이외 사회복지시설,35.63373123,126.8108082,전북특별자치도 정읍시 덕천면 태고로 339-14,영업,20090609,20155752163,4518036026-1-03140008
울산참사랑의 집,48 - 이외 사회복지시설,35.52802107,129.4066898,울산광역시 동구 방어진순환도로 1355,영업,20091103,20155752304,3117010800-1-09010009
(복)유린보은동산,48 - 이외 사회복지시설,37.60434682,127.0982616,서울특별시 중랑구 봉화산로56길 99-15,영업,20140508,20155752310,1126010600-1-04750010
공감보호작업장,48 - 이외 사회복지시설,37.2562179,126.4529621,인천광역시 옹진군 영흥면 영흥로525번길 63-67,영업,20080408,20155752476,2872036021-1-08940001
사회복지법인한라원,48 - 이외 사회복지시설,33.42013272,126.3978513,제주특별자치도 제주시 애월읍 하소로 747-23,영업,20000523,20155752606,5011025342-1-13290000
솔로몬지역아동센터,48 - 이외 사회복지시설,34.79770115,126.3766798,전라남도 목포시 신죽길30번길 14-3,영업,20050706,20155752649,4611015700-1-00610001
해피타운B동,48 - 이외 사회복지시설,37.27630381,126.4720825,인천광역시 옹진군 영흥면 영흥서로 277-36,영업,20071214,20155752705,2872036022-1-11160001
이외 사회복지시설,48 - 이외 사회복지시설,35.5577803,126.8646823,전북특별자치도 정읍시 벚꽃로 492,영업,19980411,20155752848,4518010300-1-02820000
울산동구지역자활센터,48 - 이외 사회복지시설,35.48313407,129.4219793,울산광역시 동구 상진1길 21,영업,20121025,20155755221,3117010100-1-02580007
하은의집,48 - 이외 사회복지시설,0,0,전북특별자치도 무주군 부남면 상평당길 41,영업,20060608,20155752893,4573035026-1-17680000
여성시대,49 - 이용원·미용원,34.81257322,126.4154496,전라남도 목포시 상동로26번길 4, 1층 (상동),영업,20220503,20155751746,4611015800-1-07580001
전주만성 유타워,49 - 이용원·미용원,35.8485898,127.080214,전북특별자치도 전주시 덕진구 만성북로 47,영업,20180209,20155754597,4511313100-3-13450009
주연헤어,49 - 이용원·미용원,34.81201312,126.4283208,전라남도 목포시 하당로 300, 1층 (옥암동),영업,20220503,20155752653,4611016400-1-09550004
헤어지니,49 - 이용원·미용원,36.78466227,126.9929331,충청남도 아산시 번영로 8,영업,20080721,20155759737,4420010300-1-01310091
봄 등,49 - 이용원·미용원,0,0,제주특별자치도 제주시 연오로 61-12,영업,20150506,20155760002,5011012100-3-29930000
선영식당,49 - 이용원·미용원,34.79945428,126.3809376,전라남도 목포시 청호로 71, 1층 (대성동),영업,20220706,20155760722,4611010400-1-02120312
푸른빌딩,49 - 이용원·미용원,35.94269557,126.6880691,전북특별자치도 군산시 미룡로 22,영업,20071228,20155758053,4513014500-1-08980001
이용원·미용원,49 - 이용원·미용원,36.78630686,127.0129186,충청남도 아산시 삼동로70번길 7,영업,20230622,20155761295,4420011300-1-05510010
원체빌딩,49 - 이용원·미용원,35.8630439,127.1306131,전북특별자치도 전주시 덕진구 오송1길 31,영업,20090729,20155765799,4511312100-3-00980002
이용원·미용원,49 - 이용원·미용원,37.5090169,126.6456909,인천광역시 서구 북항로32번안길 9-19,영업,20160520,20155768176,2826011100-3-03810058
리나헤어,49 - 이용원·미용원,34.93185912,127.5523416,전라남도 순천시 해룡면 매안5길 15-27,영업,20120509,20155773040,4615031022-1-20110000
이용원·미용원,49 - 이용원·미용원,35.95179574,126.9416564,전북특별자치도 익산시 배산로 162,영업,20140516,20155778411,4514011400-3-05400004
규암면 외리 110-8 상가,49 - 이용원·미용원,36.27022679,126.8871549,충청남도 부여군 규암면 수북로 14-10,영업,20171106,20155781893,4476031033-3-01100008
웰니스 스파 임상지원센터,49 - 이용원·미용원,36.75550082,127.2242829,충청남도 천안시 동남구 성남면 종합휴양지로 199,영업,20160720,20155780309,4413134026-1-07160000
KM빌딩,49 - 이용원·미용원,35.94373656,126.6917902,전북특별자치도 군산시 황룡로 63,영업,20181004,20155780658,4513014500-1-00590028
HN하나마트,49 - 이용원·미용원,36.60441086,127.2927833,세종특별자치시  조치원읍 행복11길 12,영업,20160107,20155787016,3611025028-1-02610001
베델빌딩,49 - 이용원·미용원,35.81556368,127.10475,전북특별자치도 전주시 완산구 홍산남로 28,영업,20130904,20155787063,4511114100-3-12420007
알포유빽스테라피,49 - 이용원·미용원,34.79905315,126.4224867,전라남도 목포시 교육로 17, 1층 (상동),영업,20230310,20155787183,4611015800-1-09730000
이용원·미용원,49 - 이용원·미용원,35.4232698,127.4077669,전북특별자치도 남원시 낙현안길 5,영업,20160407,20155785804,4519011700-1-01310001
성준빌딩,49 - 이용원·미용원,35.81674383,127.1073622,전북특별자치도 전주시 완산구 홍산북로 46-21,영업,20171103,20155789728,4511114200-3-15330003
일반숙박시설,50 - 일반숙박시설,37.36507665,127.1067698,경기도 성남시 분당구 성남대로331번길 11-7,영업,19991021,20155895204,4113510300-1-01580003
아마데우스모텔,50 - 일반숙박시설,37.4339806,127.132831,경기도 성남시 중원구 산성대로 122,영업,20000115,20155895306,4113310100-1-31610000
H.TOWER,50 - 일반숙박시설,35.5374089,129.3291477,울산광역시 남구 삼산로 200,영업,20010101,20155751632,3114010500-1-12470001
션샤인모텔,50 - 일반숙박시설,34.79708915,126.4326945,전라남도 목포시 평화로73번길 4,영업,20200730,20155751743,4611015800-1-11440000
선샤인호텔,50 - 일반숙박시설,34.79708915,126.4326945,전라남도 목포시 평화로73번길 4 (상동),영업,20011114,20155751744,4611015800-1-11440000
퀸호텔,50 - 일반숙박시설,34.79736457,126.433322,전라남도 목포시 평화로83번길 3 (상동),영업,20210311,20155751748,4611015800-1-11440004
미루모텔,50 - 일반숙박시설,34.79732582,126.4331116,전라남도 목포시 평화로83번길 3-1 (상동),영업,20010615,20155751749,4611015800-1-11440003
워싱턴 모텔,50 - 일반숙박시설,34.7972198,126.4328949,전라남도 목포시 평화로83번길 3-2 (상동),영업,20011114,20155751750,4611015800-1-11440010
필모텔,50 - 일반숙박시설,34.7976276,126.4329733,전라남도 목포시 평화로83번길 5-2  1~5층 (상동),영업,20201230,20155751755,4611015800-1-11390020
1번지무인호텔,50 - 일반숙박시설,34.79960622,126.4294943,전라남도 목포시 하당남부로 48 (상동),영업,20200806,20155751975,4611015800-1-10350000
비즈니스모텔,50 - 일반숙박시설,34.79983971,126.43,전라남도 목포시 하당남부로 52-1 (상동),영업,20011231,20155751976,4611015800-1-10350004
쏠모텔,50 - 일반숙박시설,35.96361669,126.6919418,전북특별자치도 군산시 상나운3길 11,영업,20000328,20155754240,4513014400-1-08060002
짝모텔,50 - 일반숙박시설,35.96375418,126.6916814,전북특별자치도 군산시 상나운3길 15,영업,20000328,20155754241,4513014400-1-08060009
무안비치호텔,50 - 일반숙박시설,34.96836252,126.3870877,전라남도 무안군 망운면 톱머리길 36,영업,20190717,20155754446,4684035023-1-08120011
호텔레스트,50 - 일반숙박시설,34.79990106,126.4301855,전라남도 목포시 하당남부로 54 (상동),영업,20020328,20155752190,4611015800-1-10350001
뉴에버그린호텔,50 - 일반숙박시설,34.8003967,126.4304087,전라남도 목포시 하당남부로 59 (상동),영업,20220323,20155752191,4611015800-1-10320002
호텔스테이,50 - 일반숙박시설,34.80063343,126.4309151,전라남도 목포시 하당남부로 63 (상동),영업,20190528,20155752192,4611015800-1-10310006
명품무인호텔,50 - 일반숙박시설,0,0,전라남도 목포시 하당남부로51번길 14  1-3층 (상동),영업,20190528,20155752198,4611015800-1-10280001
카이저,50 - 일반숙박시설,34.801962,126.4282216,전라남도 목포시 하당남부로51번길 27 (상동),영업,20020430,20155752202,4611015800-1-10050002
호텔보보스,50 - 일반숙박시설,34.80035769,126.4292777,전라남도 목포시 하당남부로51번길 3 (상동),영업,20020627,20155752203,4611015800-1-10340006
시흥 센트럴돔 그랑트리 캐슬,51 - 일반음식점,37.44583575,126.8020445,경기도 시흥시 은계호수로 49,영업,20171127,20155894554,4139010600-3-06050000
글로리타워,51 - 일반음식점,0,0,경기도 성남시 분당구 구미로9번길 3-10,영업,20090320,20155894605,4113511400-1-01860005
일반음식점,51 - 일반음식점,37.45393885,127.160443,경기도 성남시 수정구 산성대로 473,영업,20010531,20155894634,4113110400-1-00690002
시그마타워,51 - 일반음식점,0,0,경기도 성남시 분당구 성남대로 349,영업,20050614,20155894496,4113510300-1-00170005
스타식스 로데오,51 - 일반음식점,37.39086005,127.0830216,경기도 성남시 분당구 운중로178번길 1,영업,20081017,20155894499,4113511500-3-10180004
동남골,51 - 일반음식점,0,0,경기도 부천시 소사동로 121,영업,20070824,20155894514,4119011300-1-02420012
이가갈비,51 - 일반음식점,37.48252867,126.7687619,경기도 부천시 중동로22번길 83,영업,20070725,20155894530,4119011400-1-03820002
일반음식점,51 - 일반음식점,0,0,경기도 부천시 부일로459번길 19,영업,20020418,20155894719,4119010200-1-03800004
일반음식점,51 - 일반음식점,0,0,경기도 부천시 부일로459번길 21,영업,20040621,20155894721,4119010200-1-03800002
일반음식점,51 - 일반음식점,37.39178369,127.1331868,경기도 성남시 분당구 이매로 119 (이매동),영업,19991231,20155894731,4113510600-1-02860008
Bmansion,51 - 일반음식점,37.47984614,126.8150832,경기도 부천시 소사동로 205,영업,20180827,20155894741,4119011300-1-02480002
알파시티,51 - 일반음식점,37.44667857,126.8025349,경기도 시흥시 은계호수로 56,영업,20181018,20155894782,4139010600-3-06060000
L-TOWER,51 - 일반음식점,37.38569014,127.1114263,경기도 성남시 분당구 판교역로10번길 23,영업,20100809,20155894816,4113511000-1-05640004
민프라자,51 - 일반음식점,37.38486417,127.1114243,경기도 성남시 분당구 판교역로14번길 16,영업,20091209,20155894821,4113511000-1-05780001
(주)코레드디엔씨,51 - 일반음식점,37.38547568,127.1114415,경기도 성남시 분당구 판교역로14번길 20,영업,20090604,20155894822,4113511000-3-05640005
타임스퀘어,51 - 일반음식점,37.38480197,127.1109789,경기도 성남시 분당구 판교역로18번길 14,영업,20141204,20155894824,4113511000-1-05770002
그랜드빌,51 - 일반음식점,37.38555621,127.1109934,경기도 성남시 분당구 판교역로18번길 20,영업,20110922,20155894825,4113511000-1-05650005
일반음식점,51 - 일반음식점,37.43034001,127.148748,경기도 성남시 중원구 둔촌대로281번길 9-6,영업,20220726,20155894838,4113310900-1-01310043
THE PANGYO EROOM,51 - 일반음식점,37.42855753,127.0943241,경기도 성남시 수정구 청계산로1길 27,영업,20210218,20155894937,4113111200-3-05930000
서전빌딩,51 - 일반음식점,37.26726475,126.9519473,경기도 수원시 권선구 매실로8번길 1,영업,20051130,20155894679,4111313500-1-04620004
서귀포자연휴양림 관리사무소,52 - 자연공원,33.31078042,126.4597765,제주특별자치도 서귀포시 대포동 산1-8,영업,20040719,20155770984,5013011800-2-00010001
해남모노레일승차장,52 - 자연공원,34.29680524,126.5276958,전라남도 해남군 송지면 땅끝마을길 60-28,영업,20080620,20155784039,4682034030-1-11450002
지리산국립공원,52 - 자연공원,35.37179767,127.5791353,전북특별자치도 남원시 산내면 와운길 10,영업,20020410,20155788043,4519046021-1-04440001
화이트크로우,52 - 자연공원,37.47596201,128.2515556,강원특별자치도 평창군 방림면 고원로 65,영업,20180626,20155915929,4276032023-1-24700000
국립공원관리공단 오대산사무소,52 - 자연공원,37.70260537,128.6021866,강원특별자치도 평창군 오대산로 2,영업,19980411,20155920195,4276036028-1-00750006
소사청소년센터,53 - 자연권수련시설,0,0,경기도 부천시 소사동로 125,영업,20150728,20155894738,4119011300-1-02410007
여수시미평청소년문화의집,53 - 자연권수련시설,34.76218683,127.7070058,전라남도 여수시 미평남1길 5,영업,20040309,20155752016,4613012200-1-05930003
도고 모두 캠핑장,53 - 자연권수련시설,0,0,충청남도 아산시 도고면 도고온천로 207-20,영업,20131231,20155752338,4420040021-1-00070004
무주 덕유산 유스타운,53 - 자연권수련시설,0,0,전북특별자치도 무주군 설천면 만선로 185,영업,20161108,20155753339,4573032029-1-11820014
월출학생야영장,53 - 자연권수련시설,34.74718556,126.7068758,전라남도 강진군 성전면 백운로 148-22,영업,20080709,20155753379,4681036021-1-11520002
별이 쏟아지는 집,53 - 자연권수련시설,36.01221659,127.7613446,전북특별자치도 무주군 설천면 무설로 1324,영업,20081217,20155753559,4573032023-1-04240003
아산시 청소년문화의집,53 - 자연권수련시설,36.78714458,127.0928686,충청남도 아산시 배방읍 연화로 29,영업,20180228,20155755920,4420025331-1-13510000
유달학생수련장,53 - 자연권수련시설,34.86183926,126.4410943,전라남도 무안군 삼향읍 수련길 176,영업,20091014,20155762058,4684025626-1-00050004
청심국제해양청소년수련원,53 - 자연권수련시설,34.64609762,127.6105531,전라남도 여수시 화양면 장수로 183-4,영업,20040730,20155759866,4613033029-1-14840000
진안군청소년야영장,53 - 자연권수련시설,35.75432154,127.4035558,전북특별자치도 진안군 진안군 마령면 마이산남로 280,영업,20021223,20155760235,4572037022-1-00180000
광양제철수련원,53 - 자연권수련시설,35.06920009,127.6291735,전라남도 광양시 옥룡면 약수제단길 154,영업,20080423,20155760548,4623032024-1-00040000
대광수련원,53 - 자연권수련시설,35.66982943,127.399894,전북특별자치도 진안군 백운면 백장로 147,영업,20070718,20155758219,4572035025-1-03530000
청정 인성 수련회,53 - 자연권수련시설,35.68595339,127.1000637,전북특별자치도 완주군 구이면 장미로 31,영업,20110526,20155760965,4571035029-1-02570000
광주학생해양수련원,53 - 자연권수련시설,34.49286446,127.356956,전라남도 고흥군 도화면 천마로 2733,영업,20121203,20155761224,4677034031-2-00100000
파라다이스카라반캠핑,53 - 자연권수련시설,36.76579189,126.8851263,충청남도 아산시 선장면 도고온천로 176-2,영업,20151008,20155761528,4420039026-1-02600002
국립고흥청소년우주체험센터,53 - 자연권수련시설,0,0,전라남도 고흥군 동일면 덕흥양쪽길 200,영업,20130124,20155761671,4677045023-1-00110001
울산학생교육원내와수련장,53 - 자연권수련시설,35.70197099,129.114476,울산광역시 울주군 두서면 활천내와로 977,영업,20130128,20155762617,3171037026-1-09720001
목화마을,53 - 자연권수련시설,35.25629239,127.1729407,전라남도 곡성군 겸면 곡순로 1864,영업,20131121,20155765700,4672039032-1-00900000
광주여대학생수련원,53 - 자연권수련시설,35.14310054,126.3363759,전라남도 무안군 해제면 만송로 1039,영업,20080303,20155766087,4684036024-1-02610002
금천메아리휴양소,53 - 자연권수련시설,35.15426672,127.6515486,전라남도 광양시 다압면 대청길 40,영업,20120113,20155766821,4623036024-1-15620000
놀뫼시민장려원,54 - 장례식장,36.17895729,127.0964369,충청남도 논산시 원댕이길 12,영업,20020912,20155756605,4423010900-1-04970000
삼성라인 장례문화원,54 - 장례식장,35.86788301,127.1443046,전북특별자치도 전주시 덕진구 동부대로 937,영업,20110306,20155752135,4511311700-1-06410007
효장례식장,54 - 장례식장,35.73043929,126.7213311,전북특별자치도 부안군 행안면 염소로 25,영업,20050914,20155754896,4580033021-3-02210002
정읍장례문화원,54 - 장례식장,35.5765425,126.8373097,전북특별자치도 정읍시 벚꽃로 131,영업,20200514,20155752841,4518010500-1-03770001
강경장례식장,54 - 장례식장,36.15078687,127.0120739,충청남도 논산시 강경읍 여강로 1293,영업,20080115,20155755481,4423025031-1-04310001
부민장례식장,54 - 장례식장,0,0,제주특별자치도 제주시 연북로 378,영업,20061130,20155755518,5011012900-1-12370000
무안종합병원 장례식장,54 - 장례식장,34.99141268,126.489248,전라남도 무안군 무안읍 몽탄로 65,영업,20131016,20155755774,4684025022-1-01650000
여수보람장례식장,54 - 장례식장,34.78533706,127.638898,전라남도 여수시 소라면 무선로 339,영업,20160520,20155755828,4613031021-1-00630000
우주장례식장,54 - 장례식장,0,0,전라남도 고흥군 고흥읍 봉동주공길 56-16,영업,20060602,20155755836,4677025025-1-12180000
무안장례식장,54 - 장례식장,34.99340005,126.4821034,전라남도 무안군 무안읍 무안로 567,영업,20031211,20155756009,4684025022-1-06080001
장례식장,54 - 장례식장,34.99340005,126.4821034,전라남도 무안군 무안읍 무안로 567,영업,20031211,20155756010,4684025022-1-06100000
새천년 장례식장,54 - 장례식장,37.52658222,126.7526945,인천광역시 계양구 아나지로 541,영업,20081216,20155753743,2824510400-1-01740000
쉴낙원 인천 장례식장,54 - 장례식장,37.52475403,126.7538288,인천광역시 계양구 아나지로 552,영업,20160608,20155753745,2824510400-1-01440017
청기와장례식장,54 - 장례식장,0,0,인천광역시 계양구 아나지로 559,영업,20141202,20155753749,2824510400-1-01420031
우리하늘장례원,54 - 장례식장,36.14528957,127.1035554,충청남도 논산시 연무읍 안심로 280,영업,20121015,20155753910,4423025331-1-10760001
황산장례식장,54 - 장례식장,36.21029916,127.1031609,충청남도 논산시 계백로 1161,영업,20090618,20155756386,4423010800-1-02710003
여수장례식장,54 - 장례식장,34.72744756,127.6976362,전라남도 여수시 신월로 435,영업,20200409,20155759647,4613011800-1-03420014
논산장례식장,54 - 장례식장,36.21320529,127.1459177,충청남도 논산시 부적면 계백로 1543-5,영업,20020814,20155760191,4423035023-1-01390021
장례식장,54 - 장례식장,35.69080882,126.8980637,전북특별자치도 정읍시 신태인읍 신태인공단길 16,영업,20060525,20155760237,4518025031-1-10380001
혜성장례식장,54 - 장례식장,35.73198685,126.7472445,전북특별자치도 부안군 부안읍 부령로 34,영업,20130604,20155760283,4580025025-1-02070001
둥근마음 보금자리,55 - 장애인복지시설,35.64288798,126.7167123,전북특별자치도 부안군 주산면 화봉길 8-18,영업,20160622,20155752219,4580031023-1-03880022
더블어삶장애인복지시설,55 - 장애인복지시설,35.87647017,127.0580071,전북특별자치도 전주시 덕진구 서당길 37,영업,20160411,20155752358,4511312500-1-00920005
도담아동발달센터,55 - 장애인복지시설,36.34366913,127.4503949,전북특별자치도 정읍시 충정로 122,영업,20170303,20155754865,4518010300-1-04010005
장애인복지시설,55 - 장애인복지시설,35.55831708,126.8683148,전북특별자치도 정읍시 상동중앙로 24-32,영업,20091022,20155755299,4518010300-1-02740156
장애인종합복지관,55 - 장애인복지시설,34.80900016,126.4188721,전라남도 목포시 하당로205번길 12(상동),영업,20191212,20155753089,4611015800-1-08030003
(복)유린보은동산,55 - 장애인복지시설,37.60447047,127.0959157,서울특별시 중랑구 신내로 56,영업,20120709,20155755451,1126010600-1-05720002
나눔빌,55 - 장애인복지시설,35.55725993,126.8787843,전북특별자치도 정읍시 상신경1길 67,영업,20170111,20155755526,4518010300-1-00450000
고흥군장애인복지관,55 - 장애인복지시설,0,0,전라남도 고흥군 고흥읍 신계학림길 41,영업,20191002,20155755848,4677025026-1-04030001
미르밀옥류관,55 - 장애인복지시설,35.84376729,127.1441876,전북특별자치도 전주시 덕진구 백제대로 686,영업,20140228,20155759313,4511310400-3-15290001
우리집공동체,55 - 장애인복지시설,36.20860784,127.2527656,충청남도 논산시 벌곡면 황룡재로 480-12,영업,20150313,20155759972,4423038021-1-03100001
푸른나래주간보호센터,55 - 장애인복지시설,35.57817439,126.8533994,전북특별자치도 정읍시 수성1로 51,영업,20220401,20155757331,4518010100-1-09560004
희망드림주간보호시설,55 - 장애인복지시설,35.85927167,127.1215345,전북특별자치도 전주시 덕진구 송천중앙로 140,영업,20220316,20155757522,4511312100-1-03950000
광양시장애인복지관,55 - 장애인복지시설,34.96518963,127.5743114,전라남도 광양시 광양읍 대림오성로 117,영업,20110115,20155760337,4623025035-1-17240003
혜진원,55 - 장애인복지시설,35.55978223,129.1632487,울산광역시 울주군 언양읍 곰재길 201-16,영업,20140602,20155760369,3171025322-1-08930002
장애인복지시설,55 - 장애인복지시설,35.69783217,126.9116879,전북특별자치도 정읍시 신태인읍 원백산1길 85,영업,20070920,20155760465,4518025031-1-06630002
정읍시장애인종합복지관,55 - 장애인복지시설,0,0,전북특별자치도 정읍시 수성1로 58,영업,20001115,20155757777,4518010100-1-09650001
장애인복지시설,55 - 장애인복지시설,35.58869566,129.367049,울산광역시 북구 화봉로 73,영업,20030828,20155760593,3120012500-3-04490007
광양매화원,55 - 장애인복지시설,34.97247694,127.5796075,전라남도 광양시 광양읍 서북로 18,영업,20000410,20155761234,4623025023-1-09500004
만수동상가,55 - 장애인복지시설,37.46068238,126.7282077,인천광역시 남동구 만수서로37번길 55,영업,20210323,20155761371,2820010300-1-08660002
두리마을,55 - 장애인복지시설,36.83977264,126.5328805,충청남도 당진시 정미면 삼상벌길 123-55,영업,20120829,20155761759,4427034029-1-02120016
목포과학대학교,56 - 전문대학,34.80787958,126.4098144,전라남도 목포시 영산로 413-1,영업,20230620,20155754662,4611015900-1-02740001
목포과학대학,56 - 전문대학,34.80853667,126.4120057,전라남도 목포시 영산로 413-3,영업,20230328,20155754663,4611015800-1-05500000
한국폴리텍대학 바이오캠퍼스 생활관,56 - 전문대학,36.14599596,127.0215588,충청남도 논산시 강경읍 동안로112번길 48,영업,20100408,20155755475,4423025033-1-03150001
전북과학대학,56 - 전문대학,35.54804131,126.8613577,전북특별자치도 정읍시 정읍사로 509,영업,20080502,20155753512,4518010400-2-00090028
전문대학,56 - 전문대학,35.49476813,129.416053,울산광역시 동구 봉수로 101,영업,20080219,20155754092,3117010200-2-01600001
군장대학, 군산중앙중고등학교,56 - 전문대학,36.00197655,126.7849803,전북특별자치도 군산시 성산면 군장대길 13,영업,20030923,20155757607,4513037024-1-06080008
군장대학교자동차기계생산기술혁신센터,56 - 전문대학,35.99819814,126.7857893,전북특별자치도 군산시 성산면 십자들로 27,영업,19991119,20155758278,4513037024-1-05290000
순천청암대학교,56 - 전문대학,34.92858777,127.4893142,전라남도 순천시 녹색로 1641,영업,20130814,20155765642,4615012700-1-03180000
한국농수산대학,56 - 전문대학,35.83038854,127.0685752,전북특별자치도 전주시 덕진구 콩쥐팥쥐로 1515,영업,20150131,20155764012,4511313800-1-08340000
청암건강복지관,56 - 전문대학,34.92963057,127.4904103,전라남도 순천시 우석로 7,영업,20091012,20155773702,4615012700-1-03790001
한국폴리텍대학 인천캠퍼스,56 - 전문대학,37.47913854,126.7542073,인천광역시 부평구 무네미로448번길 56,영업,20060816,20155776476,2823710900-1-00390001
제주관광대학교육관,56 - 전문대학,33.48704447,126.4808244,제주특별자치도 제주시 도령로 15,영업,20050705,20155788650,5011012200-1-12960008
한국폴리텍대학 김제캠퍼스 대표,56 - 전문대학,35.80965615,126.9397298,전북특별자치도 김제시 백학제길 154,영업,20100504,20155789601,4521010600-1-00840000
충청대학교,56 - 전문대학,36.61873573,127.3698187,충청북도 청주시 흥덕구 강내면 월곡길 38,영업,20051212,20155743404,4311331034-1-03130000
충북도립대학,56 - 전문대학,36.29877456,127.5739663,충청북도 옥천군 옥천읍 금장로 95,영업,20030108,20155743776,4373025036-1-00850020
충남도립대학교,56 - 전문대학,36.43644092,126.8019865,충청남도 청양군 청양읍 학사길 55,영업,20220611,20155744390,4479025024-1-00900000
한국폴리텍섬유패션대학,56 - 전문대학,35.92024304,128.6420149,대구광역시 동구 동구 팔공로 222,영업,20090504,20155800303,2714010500-1-15580000
명지전문대학(금회:사회교육관),56 - 전문대학,37.58528319,126.9256478,서울특별시 서대문구 가좌로 134,영업,20070824,20155804319,1141011800-1-03560001
수성대학교,56 - 전문대학,35.85525272,128.6496113,대구광역시 수성구 달구벌대로528길 15,영업,20140519,20155807102,2726010200-1-10780000
대전신학대학교,56 - 전문대학,36.34954811,127.4240159,대전광역시 대덕구 한남로 41,영업,20060804,20155824752,3023010100-1-02260022
성남아트센터,57 - 전시장,37.40295657,127.1305599,경기도 성남시 분당구 성남대로 808,영업,20000513,20155894964,4113510700-1-07570000
부천 옹기박물관,57 - 전시장,37.51364095,126.8017452,경기도 부천시 소사로 638,영업,20091106,20155895215,4119011800-1-03180000
에이스침대 분당금곡점,57 - 전시장,37.35919445,127.1012649,경기도 성남시 분당구 대왕판교로 175,영업,20010810,20155895319,4113511100-1-03000020
주식회사 케이씨씨 성남사옥,57 - 전시장,0,0,경기도 성남시 분당구 대왕판교로 210,영업,20020912,20155895324,4113511100-1-00920007
김환태 문학관,57 - 전시장,36.00303326,127.6653164,전북특별자치도 무주군 무주읍 최북로 15,영업,20111124,20155751761,4573025022-1-11600001
성옥기념관,57 - 전시장,34.78698576,126.3798645,전라남도 목포시 영산로 11,영업,20020502,20155754437,4611013200-1-00040002
옹기 및 발효음식 전시•체험관,57 - 전시장,0,0,충청남도 아산시 도고면 도고산로 810,영업,20070917,20155752333,4420040021-1-00710020
한국민화뮤지엄,57 - 전시장,34.50867534,126.8041628,전라남도 강진군 대구면 청자촌길 61-5,영업,20131105,20155752486,4681033022-0-00000000
변산반도국립공원 탐방안내소,57 - 전시장,0,0,전북특별자치도 부안이군 변산면 채석강길 22-19,영업,20161202,20155754908,4580036022-1-02820050
전시장,57 - 전시장,0,0,전북특별자치도 부안군 줄포면 생태공원로 38,영업,20071114,20155752657,4580041023-1-07230000
다산박물관,57 - 전시장,34.57641194,126.7499561,전라남도 강진군 도암면 다산로 766-20,영업,20121129,20155752702,4681034026-1-01050001
석정문학관,57 - 전시장,35.74063054,126.7346265,전북특별자치도 부안이군 전북특별자치도 부안읍 석정로 63,영업,20090326,20155755126,4580025023-1-05600000
일제강점기 군산역사관,57 - 전시장,35.98230442,126.7078384,전북특별자치도 군산시 동국사길 21,영업,20171227,20155755357,4513010700-1-01650008
고래생태체험관,57 - 전시장,35.50273782,129.38079,울산광역시 남구 장생포고래로 244,영업,20080903,20155755443,3114011900-1-01390029
제주문학관,57 - 전시장,0,0,제주특별자치도 제주시 연북로 339,영업,20200102,20155755512,5011012900-1-12180003
목포문화원,57 - 전시장,34.78769578,126.3817942,전라남도 목포시 영산로29번길 6(대의동2가),영업,20170222,20155755563,4611013400-1-00010005
무주 반디랜드,57 - 전시장,36.01221659,127.7613446,전북특별자치도 무주군 설천면 무설로 1324,영업,20061114,20155753554,4573032023-1-11000000
테마체험동(전북특별자치도),57 - 전시장,35.71041615,126.5977381,전북특별자치도 부안군 하서면 신재생에너지로 10,영업,20081218,20155754009,4580040024-1-12440000
스마트 융복합 멀티플렉스,57 - 전시장,35.71090579,126.5979216,전북특별자치도 부안군 하서면 신재생에너지로 20-19,영업,20201014,20155754010,4580040024-1-12410001
장도근린공원 다목적전시장,57 - 전시장,34.74320435,127.6647145,전라남도 여수시 웅천동 1902,영업,20170724,20155754035,4613013400-1-19020000
케이티,58 - 전신전화국,0,0,경기도 성남시 분당구 운중로138번길 7,영업,20071009,20155894493,4113511500-1-09360000
SK,58 - 전신전화국,35.82495728,127.1485136,전북특별자치도 전주시 완산구 기린대로 194,영업,20170809,20155772747,4511114700-1-05780005
 SK브로드밴드빌딩,58 - 전신전화국,0,0,전북특별자치도 전주시 완산구 기린대로 212,영업,20010419,20155772754,4511114700-1-05680083
KT서귀포지점,58 - 전신전화국,0,0,제주특별자치도 서귀포시 중앙로42번길 7,영업,20101203,20155781275,5013010100-1-02920005
kt플라자 전주점,58 - 전신전화국,35.81933151,127.1480129,전북특별자치도 전주시 완산구 현무1길 9 1층,영업,19980411,20155784828,4511110500-1-00010002
kt임실빌딩,58 - 전신전화국,35.61396729,127.2783949,전북특별자치도 임실군 임실읍 봉황로 143,영업,19980411,20155791794,4575025022-1-06170000
kt검단,58 - 전신전화국,37.60120617,126.6525992,인천광역시 서구 검단로 441,영업,20000329,20155790312,2826012000-1-06450001
한솔부산양육국,58 - 전신전화국,35.17775063,129.1965716,부산광역시 해운대구 송정광어골로 42,영업,20000620,20155823943,2635010800-1-04350002
태전동 9990000 방송통신시설 (주) 케이티에스테이트),58 - 전신전화국,35.9316875,128.5530325,대구광역시 북구 구암로 110,영업,20160615,20155824607,2723012600-1-09990000
SK Telecom 성수사옥,58 - 전신전화국,0,0,서울특별시 성동구 광나루로6길 36,영업,20010817,20155839156,1120011500-1-02790001
kt,58 - 전신전화국,35.18390395,128.1166927,경상북도 진주시 대신로 265,영업,20170124,20155849928,4817011900-3-03060001
포항전화국,58 - 전신전화국,36.01717528,129.3608868,경상북도 포항시 남구 포스코대로 346,영업,20031112,20155853610,4711110200-1-01350019
한국전력공사 경북지사,58 - 전신전화국,36.55307933,128.7328736,경상북도 안동시 강남1길 9,영업,20000719,20155858331,4717014000-1-02340001
KT 상주지사,58 - 전신전화국,36.42589749,128.1580329,경상북도 상주시 상산로 389 (냉림동),영업,19980411,20155857132,4725010500-1-03730001
오산전화국,58 - 전신전화국,37.15383743,127.0741866,경기도 오산시 경기대로 324,영업,20000131,20155861988,4137010100-1-09210003
KT진주지사거창지점,58 - 전신전화국,0,0,경상남도 합천군 합천읍 옥산로 40,영업,19980411,20155871747,4889025027-1-04790005
전신전화국,58 - 전신전화국,35.16453443,126.9067056,광주광역시 북구 무등로202번길 15,영업,20061220,20155872658,2917010600-1-00160001
KT(전신전화국),58 - 전신전화국,35.49331852,128.7450519,경상남도 밀양시 밀양대로 1892(내이동),영업,20170307,20155875517,4827010200-1-10480001
KT북전주지사,58 - 전신전화국,35.84224356,127.12292,전북특별자치도 전주시 덕진구 사평로 66,영업,20100428,20155750353,4511310500-1-12740001
북수원전화국(KT),58 - 전신전화국,37.30162036,126.9865531,경기도 수원시 장안구 정자로 90,영업,20000210,20155899810,4111113000-1-09120000
역곡동교회,59 - 종교집회장,0,0,경기도 부천시 역곡로46번길 61,영업,20040831,20155894572,4119010700-1-02030017
하나님의교회 세계복음선교협회,59 - 종교집회장,37.38375373,127.1084433,경기도 성남시 분당구 판교역로 35,영업,20081231,20155894584,4113511000-1-05260000
기독교대한감리회세광교회,59 - 종교집회장,0,0,경기도 부천시 소사동로 107-1,영업,20060525,20155894512,4119011300-1-02410002
대한예수교장로회 동산교회,59 - 종교집회장,0,0,경기도 부천시 소사동로 123,영업,20090324,20155894737,4119011300-1-02410006
소사본동성당,59 - 종교집회장,37.46928008,126.7991741,경기도 부천시 소사동로 18,영업,20090331,20155894740,4119011000-1-04130000
부천소사 하나님의교회,59 - 종교집회장,37.47274401,126.8020563,경기도 부천시 소사동로 65,영업,20070130,20155894742,4119011000-1-04080005
부천평안교회,59 - 종교집회장,0,0,경기도 부천시 소사동로72번길 19,영업,20060511,20155894748,4119011000-1-04090005
종교집회장,59 - 종교집회장,37.29301317,127.068327,경기도 수원시 영통구 광교중앙로 260,영업,20101224,20155894755,4111710400-1-09830003
아름다운교회,59 - 종교집회장,0,0,경기도 성남시 분당구 금곡로 182,영업,20060626,20155894844,4113511400-1-00780000
행복한교회,59 - 종교집회장,0,0,경기도 부천시 심중로107번길 17,영업,20040326,20155894861,4119010800-1-07740012
둔전교회,59 - 종교집회장,37.43339004,127.1259447,경기도 성남시 수정구 산성대로 61-1,영업,20150324,20155894880,4113110300-1-47620056
은행동교회,59 - 종교집회장,37.4577557,127.1654879,경기도 성남시 중원구 은이로7번길 4,영업,20070712,20155894888,4113310400-1-10220000
상촌성당,59 - 종교집회장,37.27323607,126.937696,경기도 수원시 권선구 금곡로 63,영업,19990915,20155894681,4111313400-1-05350001
소망교회,59 - 종교집회장,37.27970461,127.0491392,경기도 수원시 영통구 광교중앙로49번길 45,영업,20001017,20155894998,4111710200-1-00580001
성광교회,59 - 종교집회장,0,0,경기도 부천시 역곡로490번길 135,영업,19990226,20155895036,4119012100-1-04110007
판교사랑의교회,59 - 종교집회장,37.38804004,127.0807838,경기도 성남시 분당구 판교원로 128,영업,20170517,20155895061,4113511500-1-10520000
예수그리스도후기성도교회부천와드,59 - 종교집회장,0,0,경기도 부천시 소사로 619,영업,20150805,20155895213,4119011800-1-00320006
하나님의교회,59 - 종교집회장,37.2789332,127.0681294,경기도 수원시 영통구 광교호수로 116,영업,20190604,20155895237,4111710400-1-10310000
한국천부교부천교회,59 - 종교집회장,37.48592686,126.7762218,경기도 부천시 신흥로 23,영업,20031226,20155895332,4119010200-1-03630002
세계선교센타,59 - 종교집회장,36.12469421,127.3702773,충청남도 금산군 진산면 월명동길 90,영업,20120312,20155751670,4471037026-1-01390000
가톨릭대학교 부천성모병원,60 - 종합병원,37.4874966,126.7930328,경기도 부천시 소사로 327,영업,20141224,20155894988,4119010600-1-00020000
보건의료원,60 - 종합병원,36.00588139,127.6716998,전북특별자치도 무주군 무주읍 한풍루로 413,영업,20151127,20155752208,4573035026-1-17670000
서울특별시 서울의료원(본관),60 - 종합병원,37.61309131,127.099187,서울특별시 중랑구 신내로 156,영업,20071113,20155755014,1126010600-1-03160000
동군산병원,60 - 종합병원,35.95157016,126.8394557,전북특별자치도 군산시 대야면 고척길 154,영업,20140919,20155752906,4513013400-1-06710013
고흥종합병원,60 - 종합병원,34.62169117,127.2942499,전라남도 고흥군 고흥읍 고흥로 1935,영업,20151112,20155755392,4677025026-1-01860000
중앙병원,60 - 종합병원,34.82080732,126.4213809,전라남도 목포시 영산로 623,영업,20180315,20155755549,4611016000-1-08150008
종합병원,60 - 종합병원,37.50979035,126.6698655,인천광역시 서구 신석로 70,영업,20090728,20155760345,2826011000-1-05230001
종합병원,60 - 종합병원,37.60319117,126.6551936,인천광역시 서구 완정로 192,영업,20040330,20155757870,2826011300-1-09040003
마전동빌딩,60 - 종합병원,37.59664024,126.668164,인천광역시 서구 완정로 55,영업,20090518,20155758321,2826011300-1-10280011
학동 40-4 의료시설 (의료법인 한마음 의료재단),60 - 종합병원,34.76571718,127.6642603,전라남도 여수시 학동1길 24,영업,20071231,20155758747,4613012800-1-00400005
한국병원,60 - 종합병원,34.80932976,126.4163196,전라남도 영산로 483 (상동),영업,19980411,20155762333,4611015800-1-01480001
전주고려병원,60 - 종합병원,35.84009687,127.1673162,전북특별자치도 전주시 덕진구 안덕원로 367,영업,20160411,20155763560,4511311100-1-08520001
당진종합병원,60 - 종합병원,36.9044083,126.6843227,충청남도 당진시 반촌로 5-15 (시곡동),영업,20080521,20155764005,4427010500-1-00570001
인천힘찬종합병원,60 - 종합병원,37.40106232,126.7146868,인천광역시 남동구 논현로 72,영업,20211021,20155766745,2820011000-1-06400001
제주대학교병원,60 - 종합병원,0,0,제주특별자치도 제주시 아란13길 15,영업,20041015,20155767165,5011011700-1-17530003
전주예수병원,60 - 종합병원,35.81433164,127.132606,전북특별자치도 전주시 완산구 서원로 365,영업,20220124,20155772970,4511112700-1-03000000
영광종합병원,60 - 종합병원,35.28413424,126.4980041,전라남도 영광군 영광읍 와룡로 3,영업,19980411,20155770397,4687025028-1-02750000
사랑병원,60 - 종합병원,34.93616324,127.6971527,전라남도 광양시 공영로 71 (중동),영업,20000104,20155771302,4623010600-1-16390001
서울산보람병원,60 - 종합병원,35.56029738,129.1208518,울산광역시 울주군 삼남읍 중평로 53,영업,20070105,20155768881,3171026521-1-03780000
영광기독병원,60 - 종합병원,35.2749458,126.5109174,전라남도 영광군 영광읍 신남로 265,영업,19980411,20155769048,4687025023-1-02120000
주차장,61 - 주차장,37.33945872,127.1224697,경기도 성남시 분당구 구미로122번길 8,영업,20001227,20155894609,4113511400-1-02260005
주차장,61 - 주차장,37.45742889,127.163164,경기도 성남시 수정구 산성대로 517,영업,20010119,20155894639,4113110600-1-05340000
운중동공영주차장,61 - 주차장,37.39088758,127.0779193,경기도 성남시 분당구 운중로138번길 6 (운중동),영업,20191111,20155894492,4113511500-1-09340000
주차장,61 - 주차장,37.36694183,127.1077025,경기도 성남시 분당구 성남대로 345,영업,20020916,20155894495,4113510300-3-00170006
법원 앞 공영주차장,61 - 주차장,0,0,경기도 부천시 부일로237번길 41,영업,20200219,20155894708,4119010900-1-04490000
폴라리스빌딩,61 - 주차장,37.37028048,127.1075161,경기도 성남시 분당구 성남대로 381,영업,20020718,20155894724,4113510300-3-00150003
분당클리닉빌딩,61 - 주차장,0,0,경기도 성남시 분당구 성남대로 385,영업,20020718,20155894728,4113510300-3-00150002
금경스트라익골드타워,61 - 주차장,37.47747152,126.8122175,경기도 부천시 소사동로 170,영업,20110307,20155894739,4119011300-3-02540001
보구한의원,61 - 주차장,0,0,경기도 부천시 소사동로 78-1,영업,20130917,20155894745,4119011000-1-04090002
동진주차장,61 - 주차장,37.2540303,127.0297616,경기도 수원시 권선구 세권로 236,영업,19990219,20155894765,4111313700-1-12480000
소새울 공영주차장,61 - 주차장,37.47665529,126.7986998,경기도 부천시 은성로67번길 24,영업,20040607,20155894773,4119011000-1-01570000
한신시장주변공영주차장,61 - 주차장,37.47312398,126.7980162,경기도 부천시 은성로68번길 46,영업,20040910,20155894774,4119011000-1-02000001
주차장,61 - 주차장,37.46235234,127.1682011,경기도 성남시 수정구 산성대로 587,영업,20020502,20155894875,4113110600-1-00320000
은행2동 제3공영주차장,61 - 주차장,37.45491488,127.1631697,경기도 성남시 중원구 은행로 9,영업,20030730,20155894889,4113310400-1-17230000
은행동 제7공영주차장(주차장#2),61 - 주차장,37.45454566,127.1649771,경기도 성남시 중원구 은행로32번길 5,영업,20120216,20155894892,4113310400-1-25170000
주차장,61 - 주차장,37.27229805,126.9429934,경기도 수원시 권선구 금곡로118번길 54-10,영업,20160112,20155894915,4111313400-1-10910007
주차장,61 - 주차장,37.2689367,126.9440995,경기도 수원시 권선구 금곡로140번길 95-112,영업,20160826,20155894927,4111313500-1-13450009
주차장,61 - 주차장,37.26833411,126.9439479,경기도 수원시 권선구 금곡로140번길 95-98,영업,20200501,20155894928,4111313500-1-13480007
주차장,61 - 주차장,37.27287606,126.9516902,경기도 수원시 권선구 금곡로196번길 10,영업,20130718,20155894929,4111313400-1-11190002
주차장,61 - 주차장,37.45661138,127.1698288,경기도 성남시 중원구 은이로63번길 8,영업,20120216,20155894660,4113310400-3-24700000
신백현(하산)중학교,62 - 중학교,37.38628038,127.1102927,경기도 성남시 분당구 판교역로50번길 19,영업,20090429,20155895059,4113511000-1-05660000
판교중학교,62 - 중학교,37.38729787,127.0878556,경기도 성남시 분당구 판교원로 193,영업,20080328,20155895063,4113510800-1-06330000
까치울중학교,62 - 중학교,0,0,경기도 부천시 소사로 647,영업,20061116,20155895219,4119011800-1-03030000
상도중학교,62 - 중학교,0,0,경기도 부천시 장말로 159,영업,20200629,20155895254,4119010900-1-04180001
나포중,62 - 중학교,36.02778284,126.832334,전북특별자치도 군산시 나포면 등동1길 6-5,영업,20190925,20155751553,4513038023-1-04450005
아산배방중학교,62 - 중학교,36.76998317,127.0715052,충청남도 아산시 배방읍 배방로 216,영업,20080227,20155751652,4420025325-1-17120000
입암중학교,62 - 중학교,0,0,전북특별자치도 정읍시 입고로 32-13,영업,20021223,20155751719,4518032022-1-05730004
제주대학교사범대학보설 중고등학교,62 - 중학교,33.51592494,126.5085016,제주특별자치도 제주시 용담로7길 33,영업,20190424,20155751929,5011011000-1-05810000
배영중학교,62 - 중학교,35.60126026,126.8116536,전북특별자치도 정읍시 동학로 243,영업,19980411,20155751937,4518012300-1-05200000
주산중학교,62 - 중학교,35.67049202,126.7119767,전북특별자치도 부안군 주산로 30,영업,19980411,20155751990,4580031025-1-03570011
안성중학교,62 - 중학교,35.87032408,127.6537838,전북특별자치도 무주군 안성면 구량천로 147,영업,20130629,20155754223,4573032024-1-09070021
칠량중학교,62 - 중학교,0,0,전라남도 강진군 칠량면 칠량로 4-18,영업,19980411,20155754270,4681032026-1-06000000
태인중학교,62 - 중학교,35.65261885,126.9389432,전북특별자치도 정읍시 석지로1469,영업,20150514,20155756647,4518039024-1-06270005
강경중학교,62 - 중학교,36.1484243,127.0083211,충청남도 논산시 강경읍 계백로 28,영업,20150903,20155754360,4423025031-1-05110000
전주양현중학교,62 - 중학교,35.84777267,127.0747011,전북특별자치도 전주시 덕진구 만성북4길 10,영업,20200227,20155754377,4511313100-1-13570001
남목중학교,62 - 중학교,35.53881782,129.4234895,울산광역시 동구 방어진순환도로 1155,영업,20070226,20155752082,3117010800-1-05680000
양촌중학교,62 - 중학교,37.55032708,126.7450048,인천광역시 계양구 장제로948번길 13,영업,20021119,20155754417,2824510700-1-00120000
목포청호중학교,62 - 중학교,34.81606268,126.3907871,전라남도 목포시 연산백련로31번길 15,영업,20160829,20155754435,4611010300-1-19840000
중학교,62 - 중학교,36.19826432,127.0858098,충청남도 논산시 시민로397번길 28,영업,20100908,20155752116,4423010400-1-00500000
인천예일중학교,62 - 중학교,0,0,인천광역시 계양구 장제로995번길 39,영업,20020709,20155754650,2824510800-1-00270008
갈보리교회 아동센터,63 - 지역아동센터,37.39049421,127.1328885,경기도 성남시 분당구 이매로 132 주변,영업,20091116,20155894732,4113510600-1-03550003
스포라이프 스포츠센타,63 - 지역아동센터,0,0,경기도 성남시 분당구 내정로 58,영업,20110723,20155894849,4113510300-3-01170001
꿈자리지역아동센터,63 - 지역아동센터,0,0,충청남도 아산시 삼동로28번길 55-6,영업,20131231,20155761526,4420011300-1-05690005
성가지역아동센터,63 - 지역아동센터,35.3971493,126.4489785,전라남도 영광군 홍농읍 홍농로 484-5,영업,20100423,20155761885,4687025621-1-02110000
한아름지역아동센터,63 - 지역아동센터,35.01137002,126.7962605,전라남도 나주시 그린로 276, 406동 102호 (빛가람동, LH아파트),영업,20101224,20155773756,4617013400-3-08500000
나주시다함께돌봄센터 3호점,63 - 지역아동센터,35.02033711,126.7151977,전라남도 나주시 송월18길 10 (송월동, 양우내안애 센텀시티아파트),영업,20121214,20155788069,4617010200-3-11420000
빛누리지역아동센터,63 - 지역아동센터,35.02758737,126.7792614,전라남도 나주시 한빛로 61, 113동 101호 (빛가람동, 빛가람우미린아파트),영업,20130625,20155794504,4617013400-3-01350000
빛가람지역아동센터,63 - 지역아동센터,35.00775634,126.787662,전라남도 나주시 월정5길 31-5 (빛가람동),영업,20140408,20155791844,4617013400-1-06280002
비금희망찬공립형지역아동센터,63 - 지역아동센터,34.75365916,125.9292412,전라남도 신안군 비금면 비금북부길 8-1,영업,20200205,20155792441,4691034025-1-01370000
지리산여성농업인종합지원센터,63 - 지역아동센터,0,0,전북특별자치도 남원시 인월면 상우길 48,영업,20120917,20155794255,4519047027-1-03040054
증평지역아동센터,63 - 지역아동센터,36.78259407,127.5841721,충청북도 증평군 증평읍 신교길 46,영업,20120209,20155745627,4374525021-1-02470000
꿈터지역아동센뒤,63 - 지역아동센터,0,0,충청남도 서천군 서천읍 군청안길3번길 47,영업,20170419,20155794570,4477025321-1-04120000
지역아동센터,63 - 지역아동센터,35.46457989,127.600695,전북특별자치도 남원시 인월장터로 56,영업,20141015,20155794751,4519047023-1-06410004
종암 대평빌딩,63 - 지역아동센터,37.6000941,127.0343405,서울특별시 성북구 종암로 110,영업,20150513,20155803115,1129013500-1-00031192
H빌딩,63 - 지역아동센터,37.60304009,127.0320143,서울특별시 성북구 종암로 147,영업,20131224,20155803349,1129013500-1-01240129
부전1동주민센터·부산진구 청소년 문화센터,63 - 지역아동센터,0,0,부산광역시 부산진구 범전로5번길 13,영업,20160428,20155824364,2623010300-1-00250001
똘레랑스 지역아동센터,63 - 지역아동센터,0,0,서동로24길 40,영업,20110519,20155835906,4514011100-1-06540000
프라임빌딩,63 - 지역아동센터,37.20115078,127.0725541,경기도 화성시 동탄중심상가1길 27,영업,20200101,20155848652,4159012700-1-01040006
밀레니엄종합복지관 (봉화군),63 - 지역아동센터,36.83649784,128.7559382,경상북도 봉화군 상운면 작동길 12-1,영업,20120704,20155846650,4792038021-1-03940000
해광산업,63 - 지역아동센터,0,0,경기도 용인시 처인구 모현읍 이일로 112-4,영업,20180727,20155856074,4146125325-1-03940009
소사본3주민지원센터,64 - 지역자치센터,37.4728111,126.7980926,경기도 부천시 은성로68번길 56,영업,20020801,20155894779,4119011000-1-02000026
상동주민센터,64 - 지역자치센터,34.81380036,126.4141723,전라남도 목포시 상리로1번길 32,영업,19980411,20155751751,4611015800-1-07440001
삭제요청(중복),64 - 지역자치센터,34.76892612,127.7043901,전라남도 여수시 미평3길 42,영업,20100603,20155751791,4613012200-1-06710000
무주군선거관리위원회청사,64 - 지역자치센터,36.0030804,127.6705755,전북특별자치도 무주군 무주읍 한풍루로 408-1,영업,20090121,20155751994,4573032030-1-05580001
목포시자동차등록사무소,64 - 지역자치센터,34.81305914,126.376548,전라남도 목포시 연산로197(연산동),영업,19980411,20155754214,4611010300-1-12360010
목포시통계상황실,64 - 지역자치센터,34.81305914,126.376548,전라남도 목포시 연산로197(연산동),영업,19980411,20155754219,4611010300-1-12360010
하서면사무소,64 - 지역자치센터,0,0,전북특별자치도 부안군 하서면 하서길 28-5,영업,19980411,20155754227,4580040022-1-05090003
신풍동주민센터,64 - 지역자치센터,35.97286377,126.7007946,전북특별자치도 군산시 대학로 215(문화동),영업,20110310,20155754250,4513011000-1-09190002
칠량면사무소,64 - 지역자치센터,34.57282146,126.7993572,전라남도 강진군 칠량면 칠량로 67,영업,19980411,20155754272,4681032023-1-10720007
태인면사무소,64 - 지역자치센터,35.65057449,126.9320873,전북특별자치도 정읍시 태인면 정읍북로 1193,영업,20090224,20155756645,4518039030-1-04250000
무안읍사무소,64 - 지역자치센터,34.99052785,126.4763518,전라남도 무안군 무안읍 성내1길 2,영업,19980412,20155756680,4684025021-1-01910000
망운면사무소,64 - 지역자치센터,35.012725,126.3945377,전라남도 무안군 망운면 운해로 1436-10,영업,20050125,20155754438,4684035021-1-05040001
군동면사무소,64 - 지역자치센터,34.64490172,126.8150271,전라남도 강진군 군동면 진흥로 315,영업,20161018,20155752250,4681031023-1-02680000
산외면사무소,64 - 지역자치센터,35.62132187,127.0419029,전북특별자치도 정읍시 산외로462-1,영업,19980411,20155754627,4518044022-1-04420002
대구면사무소,64 - 지역자치센터,34.49539224,126.8007745,전라남도 강진군 대구면 수동길 18,영업,19980411,20155752264,4681033021-1-05410000
숭의4동 행정복지센터,64 - 지역자치센터,37.46483916,126.6591374,인천광역시 미추홀구 경인로156번길 32,영업,19980411,20155752290,2817710100-1-00020218
몽탄면사무소,64 - 지역자치센터,34.93101168,126.5020798,전라남도 무안군 몽탄면 몽탄로 862,영업,19980411,20155754667,4684032030-1-10170000
서강동주민센터,64 - 지역자치센터,34.74113977,127.7258996,전라남도 여수시 서교1길 28,영업,20170627,20155754709,4613011300-1-08280000
옥도면사무소,64 - 지역자치센터,35.99309236,126.7100355,전북특별자치도 군산시 내항2길 125,영업,20090614,20155752459,4513010300-1-00010018
초산동주민센터,64 - 지역자치센터,0,0,전북특별자치도 정읍시 천변로226,영업,19980411,20155754851,4518010400-1-04120007
수원컨벤션센터,65 - 집회장,37.28582866,127.0594469,경기도 수원시 영통구 광교중앙로 140,영업,20160314,20155894523,4111710400-1-10170000
무주 밀모 관광농원,65 - 집회장,35.93241613,127.6695793,전북특별자치도 무주군 적상면 밀모길 79-14,영업,20121210,20155754905,4573033021-1-13060000
웨딩팰리스,65 - 집회장,34.82022163,126.4205921,전라남도 목포시 영산로 613,영업,20040115,20155755103,4611016000-1-08150012
군산새만금컨벤션센터,65 - 집회장,35.95006221,126.5861859,전북특별자치도 군산시 새만금북로 437,영업,20110920,20155755354,4513014700-1-08140000
별관동,65 - 집회장,34.7876993,126.3813164,전라남도 목포시 영산로29번길 9-1,영업,20061222,20155755777,4611013400-1-00010004
집회장,65 - 집회장,0,0,전북특별자치도 부안군 동진면 고마제로 11,영업,20010912,20155755799,4580032022-1-03460001
아크로웨딩타운,65 - 집회장,35.5600707,126.8352182,전북특별자치도 정읍시 서부산업도로 124-14,영업,19991103,20155755976,4518010800-1-02570021
웨딩의전당,65 - 집회장,35.84836918,127.159395,전북특별자치도 전주시 덕진구 백제대로 832,영업,20070919,20155759986,4511311500-1-07520047
스카이웨딩컨벤션,65 - 집회장,34.80333364,126.4670023,전라남도 무안군 삼향읍 남악로162번길 110,영업,20151117,20155760263,4684025622-1-26270000
교육문화복지센터,65 - 집회장,35.01749869,127.6189238,전라남도 광양시 옥룡면 신재로 627,영업,20210226,20155760333,4623032022-1-02430000
열린교회,65 - 집회장,34.81033566,126.3826468,전라남도 목포시 원산로 148-1,영업,20040420,20155757803,4611010300-1-09660000
고대농협 회의소,65 - 집회장,36.92441867,126.6002982,충청남도 당진시 고대면 고대로 24,영업,20181022,20155760638,4427031021-1-06760007
NS웨딩홀,65 - 집회장,36.19601003,127.0958107,충청남도 논산시 중앙로322번길 21-7,영업,20091214,20155758179,4423010500-1-01550003
엑스큐브빌딩,65 - 집회장,0,0,충청남도 아산시 배방읍 희망로46번길 19-3,영업,20090506,20155758612,4420025331-3-17250000
숲속교육관,65 - 집회장,34.69183333,126.9887978,전라남도 보성군 웅치면 대산길 329-91,영업,20160706,20155761387,4678040023-2-01130021
서영광농협하나로마트,65 - 집회장,35.24189925,126.4535768,전라남도 영광군 군남면 천년로 856,영업,20040806,20155761441,4687035021-1-02930000
국제라이온스협회제주지구,65 - 집회장,33.49383975,126.4990662,제주특별자치도 제주시 연삼로 61,영업,20111217,20155759100,5011013700-1-01770000
정읍사웨딩홀,65 - 집회장,35.55401571,126.8620168,전북특별자치도 정읍시 시기4길 22,영업,19990302,20155759117,4518010400-1-00890001
덕암에너지자립마을센터,65 - 집회장,35.97048849,127.2011054,전북특별자치도 완주군 고산면 남봉로 75,영업,20120504,20155759159,4571036025-1-00060014
집회장,65 - 집회장,36.32797458,126.6025436,충청남도 보령시 남포면 보령남로 195,영업,20140530,20155764897,4418036023-1-05630000
무주 국민체육센터,66 - 체육관,36.00133723,127.6657933,전북특별자치도 무주군 무주읍 최북로 38,영업,20111010,20155751762,4573025022-1-09490006
안성문화체육관,66 - 체육관,35.87145041,127.6486187,전북특별자치도 무주군 안성면 구량천로 93,영업,20140326,20155754224,4573034021-1-16860000
칠량체육센터,66 - 체육관,34.57135154,126.7984695,전라남도 강진군 칠량면 칠량로 86-10,영업,20100323,20155754278,4681032023-1-11370025
전하체육센터,66 - 체육관,35.51200004,129.4221044,울산광역시 동구 봉수로 285,영업,20150914,20155754325,3117010400-1-05590005
산내면종합체육센터,66 - 체육관,35.56811564,127.0291078,전북특별자치도 정읍시 산내면 청정로 1297,영업,20160317,20155754406,4518043025-1-04700001
웰리치파크,66 - 체육관,35.96249561,126.7088196,전북특별자치도 군산시 남수송5길 39,영업,20111019,20155752224,4513014100-1-07010001
남구국민체육센터,66 - 체육관,35.5228397,129.3379616,울산광역시 남구 여천로 38,영업,20190203,20155754766,3114010800-1-02700001
부안스포츠파크,66 - 체육관,0,0,전북특별자치도 부안군 행안면 체육공원길 31,영업,20080523,20155754902,4580033023-1-09330000
묵동 다목적체육관,66 - 체육관,37.61445524,127.0842168,서울특별시 중랑구 숙선옹주로 66,영업,20080817,20155755007,1126010400-1-00230004
중랑문화체육관,66 - 체육관,37.57930039,127.0957709,서울특별시 중랑구 사가정로72길 47,영업,20040424,20155752773,1126010100-1-05190000
체육관,66 - 체육관,34.82911296,126.4206271,전라남도 목포시 영산로 714,영업,20210330,20155755328,4611016000-1-09370011
전북특별자치도 체육회관,66 - 체육관,35.84079537,127.1261855,전북특별자치도 전주시 덕진구 들사평로 62,영업,20091219,20155753031,4511310500-1-12830002
국민체육센터,66 - 체육관,34.62178253,127.2733032,전라남도 고흥군 고흥읍 두원로 175,영업,20130619,20155755612,4677025029-1-06940000
신내공원 다목적체육관,66 - 체육관,37.61125278,127.0894636,서울특별시 중랑구 신내로21길 115-14,영업,20071129,20155755680,1126010600-2-01440002
추부면 마전리 96-53 운동시설 (금산군),66 - 체육관,36.19259243,127.4740999,충청남도 금산군 추부면 하마전로 75,영업,20190814,20155753464,4471039023-1-00960053
필야정,66 - 체육관,35.55916301,126.8355522,전북특별자치도 정읍시 서부산업도로 104,영업,20200625,20155755975,4518010800-1-18040000
금과면생활체육관,66 - 체육관,0,0,전북특별자치도 순창군 금과면 금풍로 1171,영업,20171023,20155756023,4577034035-1-01580002
국민체육센터,66 - 체육관,0,0,충청남도 아산시 모종북로76번길 62,영업,20140721,20155759278,4420011800-1-06770000
한수원사택체육관,66 - 체육관,35.40283891,126.4518513,전라남도 영광군 홍농읍 홍농로 546,영업,20080822,20155762108,4687025621-1-13730007
센트럴  휘트니스,66 - 체육관,35.96869849,126.7272483,전북특별자치도 군산시 미장안길 50-3,영업,20140314,20155759633,4513014200-1-00520105
부천서초등학교 체육관동,67 - 초등학교,37.48765072,126.7656988,경기도 부천시 부일로330번길 30,영업,20210430,20155894709,4119010800-1-08150000
운중초등학교,67 - 초등학교,37.39251914,127.068927,경기도 성남시 분당구 운중로45번길 8,영업,20080328,20155894725,4113511500-1-08930000
소안초등학교,67 - 초등학교,0,0,경기도 부천시 소사동로72번길 29,영업,20050507,20155894749,4119011000-1-04090009
소화초등학교,67 - 초등학교,37.27820749,127.0528005,경기도 수원시 영통구 광교중앙로 30,영업,20001222,20155894756,4111710200-2-00490001
신백현(대장)초등학교,67 - 초등학교,37.38757937,127.1117509,경기도 성남시 분당구 판교역로14번길 42,영업,20090429,20155894823,4113511000-1-05590000
수원중촌초등학교,67 - 초등학교,37.27255378,126.9445494,경기도 수원시 권선구 금곡로140번길 30,영업,20110222,20155894922,4111313400-1-10940000
매원초등학교,67 - 초등학교,37.27438801,127.0637213,경기도 수원시 영통구 광교호수공원로 100,영업,20110322,20155895002,4111710200-1-05950000
광교호수초등학교,67 - 초등학교,37.2796927,127.058864,경기도 수원시 영통구 광교호수공원로 205(원천동),영업,20161226,20155895003,4111710200-1-05890001
성남중부초등학교,67 - 초등학교,37.45154694,127.1649507,경기도 성남시 중원구 자혜로 55,영업,19980411,20155895124,4113310400-1-19320007
상도초등학교,67 - 초등학교,0,0,경기도 부천시 장말로 149,영업,20170427,20155895253,4119010900-1-04180000
판교(석운)초등학교,67 - 초등학교,37.38728227,127.0914433,경기도 성남시 분당구 판교원로 231,영업,20090429,20155895293,4113510800-1-06360000
하서초등학교,67 - 초등학교,0,0,전북특별자치도 부안군 서당로 99,영업,19980411,20155751536,4580040021-1-05980001
부안동초등학교,67 - 초등학교,35.71639463,126.7383324,전북특별자치도 부안군 석정로 313,영업,20050329,20155751542,4580025024-1-04460000
백룡초등학교,67 - 초등학교,35.71883494,126.8100597,전북특별자치도 부안군 시기길 15,영업,19980411,20155751543,4580038022-1-00740002
나포초,67 - 초등학교,36.0304495,126.8336366,전북특별자치도 군산시 나포면 교동1길 23,영업,20020831,20155751548,4513038023-1-02610000
전하초등학교,67 - 초등학교,35.51544889,129.4278327,울산광역시 동구 바드래길 55,영업,20161007,20155751635,3117010400-1-05490005
부안남초등학교,67 - 초등학교,35.70209371,126.7343654,전북특별자치도 부안군 연곡로 7,영업,20030919,20155751757,4580025028-1-03980004
하귀일초등학교,67 - 초등학교,33.48390197,126.4151797,제주특별자치도 제주시 애월읍 하귀9길 42,영업,20210113,20155751928,5011025340-1-01580001
도학초등학교,67 - 초등학교,35.62856696,126.8188542,전북특별자치도 정읍시 동학로 635,영업,20041221,20155751941,4518036021-1-02430001
태인초등학교,67 - 초등학교,35.985565,126.8504673,전북특별자치도 정읍시 동헌길 16,영업,20101227,20155751943,4518039024-1-04290000
다솜학교,68 - 특수학교,35.54878202,126.8333204,전북특별자치도 정읍시 정읍남로 1146,영업,20090529,20155753060,4518010900-1-04080005
목포인성학교,68 - 특수학교,34.82786614,126.425414,전라남도 목포시 영산로692번길 12-7,영업,20210602,20155755783,4611016000-1-04820000
덕수학교,68 - 특수학교,0,0,전라남도 강진군 성전면 예향로 181-13,영업,20190516,20155753607,4681036023-1-00400002
명화학교,68 - 특수학교,35.96603685,126.6899055,전북특별자치도 군산시 상나운1길 37,영업,20211022,20155754019,4513014400-1-08010000
전주유화학교,68 - 특수학교,0,0,전북특별자치도 전주시 덕진구 모내래6길 26-16,영업,20210226,20155756838,4511310400-1-00260007
이랑학교,68 - 특수학교,0,0,전북특별자치도 진안군 진안군 부귀면 잠동길 80,영업,20181030,20155760240,4572038023-1-00390001
광양햇살학교,68 - 특수학교,35.0095528,127.6185888,전라남도 광양시 옥룡면 옥동길 14,영업,20220414,20155760553,4.62303E+18
특수학교,68 - 특수학교,35.66679579,129.34066,울산광역시 북구 갓안1길 15,영업,20020903,20155761044,3120010600-1-04570002
인천서희학교,68 - 특수학교,37.58411296,126.6832702,인천광역시 서구 독정로 44-4,영업,20181121,20155761685,2826011400-1-07790004
인천광명원,68 - 특수학교,37.47944565,126.709122,인천광역시 부평구 경인로769번길 27,영업,20140727,20155767518,2823710200-1-05760000
아산성심학교,68 - 특수학교,36.77689032,126.8631494,충청남도 아산시 선장면 아산만로 368,영업,20110511,20155762188,4420039021-1-01910002
제1구역(특수학교),68 - 특수학교,35.65805224,129.4195025,울산광역시 북구 대안4길 60,영업,20050607,20155762392,3120011500-1-01570000
당진꿈나래학교 주차장,68 - 특수학교,36.81215222,126.7623242,충청남도 당진시 합덕읍 면천로 1590,영업,20191129,20155762660,4427025021-1-09790000
온성학교,68 - 특수학교,33.29104917,126.5930174,제주특별자치도 서귀포시 516로 447-10,영업,20050718,20155764038,5013010700-1-12910002
울산혜인학교,68 - 특수학교,35.5742064,129.3368057,울산광역시 중구 북부순환도로 777,영업,20050831,20155772918,3111011700-1-05270000
순천선혜학교,68 - 특수학교,34.96509585,127.5190101,전라남도 순천시 비봉길 100,영업,20180921,20155771023,4615013300-1-08450000
은광학교,68 - 특수학교,34.75713985,126.479089,전라남도 영암군 삼호읍 신호정길 43-17,영업,20030826,20155768598,4683025325-1-04420004
국립서울농학교,68 - 특수학교,37.58564486,126.968775,서울특별시 종로구 필운대로 103,영업,20070706,20155771583,1111010200-1-00010001
서울맹학교,68 - 특수학교,0,0,서울특별시 종로구 필운대로 97,영업,20060911,20155771809,1111010200-1-00010004
소림학교,68 - 특수학교,34.73911588,126.4600952,전라남도 영암군 삼호읍 저두길 65-7,영업,20170711,20155769265,4683025327-1-00850001
뱅크빌딩(한국장애인고용공단 전북),70 - 한국장애인고용공단 및 지사,35.84667841,127.1507448,전북특별자치도 전주시 덕진구 백제대로 751,영업,20200910,20155759759,4511310400-1-15730001
송학동 97-118 업무시설 (한국국토정보공사 익산지사),70 - 한국장애인고용공단 및 지사,0,0,전북특별자치도 익산시 고현로 1,영업,20180516,20155769464,4514011600-1-00970118
보령고용센터,70 - 한국장애인고용공단 및 지사,36.34238911,126.5997717,충청남도 보령시 보령남로 28,영업,20060911,20155769601,4418010500-1-04980006
예산세무서,70 - 한국장애인고용공단 및 지사,0,0,충청남도 예산군 오가면 윤봉길로 1814,영업,19980411,20155781214,4481040024-1-03270005
장성군장애인종합복지관,70 - 한국장애인고용공단 및 지사,35.30225169,126.7765889,전라남도 장성군 장성읍 강변안길 90,영업,20230101,20155783144,4688025026-1-04890001
전라남도직업능력개발원,70 - 한국장애인고용공단 및 지사,0,0,전라남도 함평군 함평읍 학동로 546,영업,20000420,20155792933,4686025022-1-04530001
휴먼빌 시티,70 - 한국장애인고용공단 및 지사,37.48620285,127.1428124,서울특별시 송파구 위례송파로3길 12,영업,20180516,20155799833,1171011300-3-06050000
한국장애인고용공단,70 - 한국장애인고용공단 및 지사,36.78628076,127.0054688,울산광역시 남구 번영로131,영업,20000720,20155749697,3114010500-1-01200001
군위군복지회관,70 - 한국장애인고용공단 및 지사,36.23139799,128.5661807,경상북도 군위군 군위읍 중앙길 31-10,영업,20050818,20155883492,4772025022-1-01570001
한국장애인고용공단 및 지사,70 - 한국장애인고용공단 및 지사,37.90455764,127.0464989,경기도 동두천시 어수로 29,영업,20140324,20155905072,4125011200-1-00690019
순영지타워,70 - 한국장애인고용공단 및 지사,0,0,경기도 부천시 부광로7번길 7,영업,20170905,20155903618,4119011300-3-01270006
대화면보건소,70 - 한국장애인고용공단 및 지사,37.50142707,128.4575379,강원특별자치도 평창군 대화면 남산1길 36,영업,20010522,20155917951,4276033021-1-11720001
리멤버파크,71 - 화장시설,36.20995883,127.213685,충청남도 논산시 연산면 계백로 2172-13,영업,20160425,20155755033,4423036026-1-00160000
영랑사,71 - 화장시설,36.91255119,126.5944062,충청남도 당진시 고대면 진관로 142-52,영업,20110322,20155760870,4427031029-1-05290003
해피펫,71 - 화장시설,35.80168532,127.0199131,전북특별자치도 완주군 이서면 팥죽이로 205-7,영업,20100208,20155767444,4571033028-1-05080000
영세장,71 - 화장시설,34.99309283,127.6430584,전라남도 광양시 광양읍 직동1길 300,영업,20170707,20155764798,4623025029-2-00060001
장례식장 및 승화원,71 - 화장시설,35.47085304,129.1336801,울산광역시 울주군 삼동면 보삼길 550,영업,20151007,20155769323,3171040022-1-15310000
순천시립추모공원,71 - 화장시설,34.90949519,127.4803451,전라남도 순천시 양율길 132,영업,20121126,20155778621,4615012800-1-02700001
천안추모공원,71 - 화장시설,0,0,충청남도 천안시 동남구 광덕면 밤나무골길 38,영업,20080508,20155782333,4413132031-1-05420000
서남권추모공원,71 - 화장시설,35.68887028,126.9783847,전북특별자치도 정읍시 감곡면 정읍북로 1850,영업,20140728,20155783265,4518040027-1-16060000
남원 승화원,71 - 화장시설,0,0,전북특별자치도 남원시 솔터길 40-36,영업,20101025,20155788486,4519011300-1-06890000
목포추모공원 승화원,71 - 화장시설,0,0,전라남도 목포시 고하대로 1140-41(대양동),영업,20130905,20155786280,4611016300-1-11740000
아리움,71 - 화장시설,35.82526595,127.0858453,전북특별자치도 전주시 완산구 콩쥐팥쥐로 1705-44,영업,20201130,20155792597,4511114200-1-10390001
아이별,71 - 화장시설,35.35211163,129.254315,부산광역시 기장군 장안읍 기룡길 11-33,영업,20170324,20155806646,2671025328-1-02400000
센터럴파크,71 - 화장시설,35.2946143,129.2487353,부산광역시 기장군 일광읍 차양길 175,영업,20191022,20155816424,2671025924-1-03830002
문경예송원,71 - 화장시설,36.62500634,128.145757,경상북도 문경시 유곡불정로 239-39,영업,20140603,20155852602,4728010700-1-01650007
화장시설,71 - 화장시설,37.27965625,127.3906525,경기도 이천시 마장면 이장로 329-2,영업,20150615,20155853003,4150034025-1-05250001
화장시설,71 - 화장시설,37.28153498,127.3931354,경기도 이천시 마장면 이장로361번길 97,영업,20150615,20155853007,4150034025-1-04310003
하늘소풍,71 - 화장시설,35.07959285,128.3946752,경상남도 고성군 회화면 봉오로 145-21,영업,20210319,20155853832,4882040023-1-06080001
승천원,71 - 화장시설,36.4334174,128.2353536,경상북도 상주시 병성천2길 560,영업,20100709,20155854510,4725012400-1-00190000
함안하늘공원 화장시설,71 - 화장시설,0,0,경상남도 함안군 가야읍 함마대로 1145,영업,20140328,20155858401,4873025028-1-10400000
포항시립화장장,71 - 화장시설,36.05721104,129.3524053,경상북도 포항시 북구 소티재로 69-12,영업,20151105,20155857174,4711311800-1-03060007
고려청자휴게소,72 - 휴게소,35.67186657,126.7322087,전북특별자치도 부안군 주산면 서해안고속도로 103,영업,20200610,20155752206,4580031022-1-09330004
고려청자휴게소,72 - 휴게소,35.67185265,126.7345097,전북특별자치도 부안군 주산면 서해안고속도로 106,영업,20200610,20155752207,4580031022-1-09240002
유달유원지,72 - 휴게소,34.78772982,126.3673501,전라남도 목포시 해양대학로 59(죽교동),영업,20210913,20155753548,4611015700-1-04650142
녹두장군휴게소(순천방향),72 - 휴게소,35.60147126,126.8615819,전북특별자치도 정읍시 북면 정신로 135-61,영업,20000628,20155753735,4518031029-2-00190001
강천산휴게소 광주방향,72 - 휴게소,35.36533904,127.1057203,전북특별자치도 순창군 순창읍 광주대구고속도로 27,영업,20140127,20155756252,4577025025-1-07420001
강천산휴게소 대구방향,72 - 휴게소,35.36432092,127.1037198,전북특별자치도 순창군 순창읍 광주대구고속도로 28,영업,20140114,20155756253,4577025025-1-09270001
휴게소,72 - 휴게소,35.77781338,127.4252894,전북특별자치도 진안군 진안읍 익산장수고속도로 41,영업,20061102,20155762034,4572025023-1-01710110
휴게소,72 - 휴게소,35.77484848,127.4265932,전북특별자치도 진안군 진안읍 익산장수고속도로 42,영업,20051105,20155762035,4572025023-1-03330075
승아네휴게소,72 - 휴게소,35.89358966,127.5467133,전북특별자치도 진안군 안천면 진무로 2928,영업,20040609,20155759346,4572032021-1-11630002
벌곡(대전방향)휴게소,72 - 휴게소,36.21045599,127.2703823,충청남도 논산시 벌곡면 벌곡로 9-58,영업,20111212,20155759750,4423038034-1-01240001
휴게소,72 - 휴게소,0,0,전북특별자치도 부안군 변산면 내변산로 3768,영업,20160420,20155757588,4580036021-2-00010147
건물명없음(병원직원휴게소),72 - 휴게소,35.86029519,127.2552933,전북특별자치도 완주군 소양면 소양로 465-23,영업,19980707,20155760733,4571034026-1-04960028
군산(하)휴게소,72 - 휴게소,35.98023848,126.8299314,전북특별자치도 군산시 성산면 서해안고속도로 141,영업,20010305,20155758058,4513037028-1-00010000
금강호 휴게소,72 - 휴게소,36.01322873,126.7583512,전북특별자치도 군산시 성산면 철새로 25,영업,20031206,20155758500,4513037021-1-04370001
곡성(하)휴게소,72 - 휴게소,35.25837545,127.1510125,전라남도 곡성군 겸면 호남고속도로 49,영업,20140820,20155765919,4672039022-2-00960006
곡성(상)휴게소,72 - 휴게소,35.25965813,127.1526893,전라남도 곡성군 겸면 호남고속도로 50,영업,20100909,20155765920,4672039022-1-03470000
고인돌휴게소시흥방향,72 - 휴게소,0,0,전북특별자치도 고창군 신림면 서해안고속도로 80,영업,20011229,20155763661,4579025034-1-02630018
고인돌휴게소목포방향,72 - 휴게소,35.46857025,126.6737829,전북특별자치도 고창군 신림면 서해안고속도로 81,영업,20130306,20155763874,4579042032-1-05570010
관광휴게시설 (한국도로공사 광주전라남도본부),72 - 휴게소,34.80790214,127.1821145,전라남도 보성군 겸백면 남해고속도로 70,영업,20110607,20155767431,4678033029-1-03850003
이서면 은교리 186 관광휴게시설 (한국도로공사),72 - 휴게소,35.80412063,127.0238551,전북특별자치도 완주군 이서면 호남고속도로 161,영업,20091001,20155767663,4571033028-1-01860000
휴게음식점·제과점,73 - 휴게음식점·제과점,37.45472185,127.1608912,경기도 성남시 수정구 산성대로 481,영업,20101110,20155894638,4113110600-1-08750000
구미동 185-2 제2종근린생활시설 ((주)제이엔지인터내셔날),73 - 휴게음식점·제과점,37.33909175,127.1093905,경기도 성남시 분당구 성남대로 36,영업,20010206,20155894722,4113511400-1-01850002
이매동골프연습장,73 - 휴게음식점·제과점,37.39266407,127.1328676,경기도 성남시 분당구 이매로 113,영업,19991214,20155894727,4113510600-1-02850001
휴게음식점·제과점,73 - 휴게음식점·제과점,37.53356494,126.7859338,경기도 부천시 산업로120번길 4,영업,20100303,20155894674,4119011700-1-07430000
리치투게더 센터(RichTogether Center),73 - 휴게음식점·제과점,37.39738092,127.1114108,경기도 성남시 분당구 판교역로192번길 14,영업,20120119,20155895050,4113510900-1-06630000
맥도널드,73 - 휴게음식점·제과점,0,0,경기도 부천시 소사로 689,영업,20150611,20155895223,4119012000-1-03760006
휴게음식점·제과점,73 - 휴게음식점·제과점,37.44176782,127.1474106,경기도 성남시 수정구 산성대로269번길 6-9,영업,20030611,20155895351,4113110100-1-25210001
장호빌딩,73 - 휴게음식점·제과점,0,0,충청남도 아산시 배방읍 배방로 25,영업,20050321,20155751664,4420025324-1-16690000
호성동1가 스타벅스DT,73 - 휴게음식점·제과점,35.86364069,127.1507878,전북특별자치도 전주시 덕진구 동부대로 860,영업,20200929,20155751687,4511311600-1-05860000
이리스모텔,73 - 휴게음식점·제과점,36.00551396,127.6671951,전북특별자치도 무주군 무주읍 한풍루로 381-7,영업,19980411,20155751988,4573025022-1-07200000
현대Self 울산점,73 - 휴게음식점·제과점,35.53235068,129.4324279,울산광역시 동구 방어진순환도로 1023,영업,20160714,20155751857,3117010800-1-02790004
배방프라자,73 - 휴게음식점·제과점,0,0,충청남도 아산시 배방읍 배방로 49,영업,20051129,20155751884,4420025324-3-02610002
황금프라자,73 - 휴게음식점·제과점,36.77210712,127.0552245,충청남도 아산시 배방읍 배방로 53,영업,20060705,20155751886,4420025324-3-02620000
투썸플레이스군산수송점,73 - 휴게음식점·제과점,35.96133368,126.7152196,전북특별자치도 군산시 남수송3길 43,영업,20160715,20155752009,4513014100-1-08220008
일반음식점,73 - 휴게음식점·제과점,35.86436364,127.6531918,전북특별자치도 무주군 안성면 단지봉길 5,영업,20101103,20155754230,4573034021-1-15540001
H.S Tower,73 - 휴게음식점·제과점,0,0,충청남도 아산시 배방읍 배방로 57-20,영업,20120424,20155752101,4420025324-1-02710005
아프리카커피초콜릿 케냐점,73 - 휴게음식점·제과점,0,0,전북특별자치도 군산시 남수송6길 10,영업,20081024,20155752230,4513014100-1-07840006
스타벅스,73 - 휴게음식점·제과점,34.80992404,126.4168254,전라남도 목포시 영산로 495,영업,20181214,20155754669,4611015800-1-01350000
투썸플레이스,73 - 휴게음식점·제과점,35.53950648,129.35109,울산광역시 남구 삼산로 402,영업,20200103,20155752308,3114010600-1-16380001
운북동 583,73 - 휴게음식점·제과점,37.50448167,126.5208849,인천광역시 중구 백운로 333,영업,20210531,20155754717,2811014800-1-05830000
휴게음식점·제과점 등,74 - 휴게음식점·제과점 등,34.81711394,127.7295326,전라남도 여수시 상암로 522,영업,20221214,20155754260,4613015100-1-07140000
쿠레레,74 - 휴게음식점·제과점 등,34.78670212,126.3852196,전라남도 목포시 해안로229번길 19, 1층 (영해동2가),영업,20220516,20155753535,4611012300-1-00070000
LJR커피/전등식탁,74 - 휴게음식점·제과점 등,35.96208537,126.6743496,전북특별자치도 군산시 산북로 89-58,영업,20220607,20155753567,4513015100-1-02860008
엔엠커피,74 - 휴게음식점·제과점 등,34.80276292,126.3992085,전라남도 목포시 용해로 57-2, 1층 (용당동),영업,20220516,20155757580,4611010100-1-11380021
남원회관로 65,74 - 휴게음식점·제과점 등,33.27870667,126.7198014,제주특별자치도 서귀포시 남원읍 남원회관로 65,영업,20220707,20155765823,5013025321-1-00940008
카페 빈,74 - 휴게음식점·제과점 등,36.33713522,126.6497892,충청남도 보령시 성주면 성주산로 371,영업,20230401,20155770488,4418040021-1-02470022
용꽈배기삼양점,74 - 휴게음식점·제과점 등,33.52302516,126.5839126,제주특별자치도 제주시 설촌로6길 23,영업,20220609,20155771204,5011011400-1-21180014
코지하우스,74 - 휴게음식점·제과점 등,35.54966845,129.2953841,울산광역시 중구 태화강국가정원길 187,영업,20220519,20155778278,3111011100-1-04570010
어찬간,74 - 휴게음식점·제과점 등,35.82314217,127.1347254,전북특별자치도 전주시 완산구 물레방아3길 5,영업,20220707,20155779235,4511111900-1-01450006
반구동 253 제1종근린생활시설 (함성민),74 - 휴게음식점·제과점 등,35.56059277,129.3397055,울산광역시 중구 구교1길 4,영업,20220518,20155779390,3111011800-1-02530000
중화산도서관,74 - 휴게음식점·제과점 등,35.8203217,127.1238031,전북특별자치도 전주시 완산구 백제대로 306,영업,20230621,20155780794,4511112800-2-00660000
커피밥나무,74 - 휴게음식점·제과점 등,35.79587935,126.8781907,전북특별자치도 김제시 동서로 79,영업,20230208,20155786481,4521010900-1-01230006
효자도서관,74 - 휴게음식점·제과점 등,35.81099422,127.1005948,전북특별자치도 전주시 완산구 우전로 181,영업,20230621,20155784374,4511114100-1-13140009
명월 구락부,74 - 휴게음식점·제과점 등,33.37779416,126.2635065,제주특별자치도 제주시 한림읍 명월성로 347,영업,20220609,20155785061,5011025027-1-14380005
지평선산단다목적복합센터,74 - 휴게음식점·제과점 등,35.85089177,126.8865497,전북특별자치도 김제시 백산면 소라1길 23,영업,20220531,20155788928,4521033029-3-15950000
휴게음식점·제과점 등,74 - 휴게음식점·제과점 등,35.59459115,127.1079997,전북특별자치도 임실군 운암면 종운로 760,영업,20220701,20155791125,4575032032-1-07610003
제1종근린생활시설,74 - 휴게음식점·제과점 등,37.55515023,126.9228595,서울특별시 마포구 홍익로6길 14,영업,20221201,20155801929,1144012100-1-01630010
상계동 킹콩샤워 셀프세차장,74 - 휴게음식점·제과점 등,0,0,서울특별시 노원구 한글비석로47길 53,영업,20230612,20155826634,1135010500-1-04340002
휴게음식점·제과점 등,74 - 휴게음식점·제과점 등,0,0,부산광역시 부산진구 전포대로199번길 36,영업,20220628,20155834414,2623010200-1-06850008
봄가득 인더바인,74 - 휴게음식점·제과점 등,0,0,서울특별시 용산구 효창원로54길 22,영업,20220513,20155842888,1117012100-3-00080033
